NLLOC "./loc/husn.20171231.183009.grid0" "LOCATED" "Location completed."
SIGNATURE "Pratul Ranjan   obs:./obs/cornoth_shlw.pick   NLLoc:v7.00.00(27Oct2017)  run:21Jan2020 01h00m01"
COMMENT "2011/01/01-2019/05/31 Corinth North Locations HUSN"
GRID  900 900 250  -10 -10 0  1 1 1 PROB_DENSITY
SEARCH OCTREE nInitial 400 nEvaluated 10008 smallestNodeSide 0.351172/0.351172/0.244141 oct_tree_integral 8.878552e+01 scatter_volume 8.632880e+01
HYPOCENTER  x 420.361 y 490.596 z 11.5967  OT 1.81276  ix -1 iy -1 iz -1 MAXIMUM_LIKELIHOOD
GEOGRAPHIC  OT 2017 12 31  18 30 1.812763  Lat 38.322640 Long 23.805768 Depth 11.596680
QUALITY  Pmax 3.41723e+18 MFmin 6.84477 MFmax 7.58421 RMS 0.199051 Nphs 11 Gap 135.275 Dist 39.5694 Mamp -9.90 0 Mdur -9.90 0
VPVSRATIO  VpVsRatio -1  Npair 0  Diff -2e+30
STATISTICS  ExpectX 420.316 Y 490.532 Z 9.53101  CovXX 2.60134 XY -0.884136 XZ 2.33891 YY 1.48325 YZ -1.58268 ZZ 19.4554 EllAz1  207.499 Dip1  -1.00508 Len1  1.87103 Az2  297.331 Dip2  9.45746 Len2  3.04099 Len3  8.387361e+00
STAT_GEOG  ExpectLat 38.322087 Long 23.805213 Depth 9.531005
TRANSFORM  TRANS_MERC RefEllipsoid WGS-84  LatOrig 34.000000  LongOrig 19.000000  RotCW 0.000000
QML_OriginQuality  assocPhCt 36  usedPhCt 11  assocStaCt -1  usedStaCt 11  depthPhCt -1  stdErr 0.199051  azGap 135.275  secAzGap 145.469  gtLevel -  minDist 39.5694 maxDist 148.523 medDist 89.9644
QML_OriginUncertainty  horUnc -1  minHorUnc 1.51372  maxHorUnc 2.66518  azMaxHorUnc 118.847
QML_ConfidenceEllipsoid  semiMajorAxisLength 8.38736  semiMinorAxisLength 1.87103  semiIntermediateAxisLength 3.04099  majorAxisPlunge 80.4883  majorAxisAzimuth 123.509  majorAxisRotation 6.44254
FOCALMECH  Hyp  38.322640 23.805768 11.596680 Mech  0 0 0 mf  0 nObs 0
PHASE ID Ins Cmp On Pha  FM Date     HrMn   Sec     Err  ErrMag    Coda      Amp       Per  >   TTpred    Res       Weight    StaLoc(X  Y         Z)        SDist    SAzim  RAz  RDip RQual    Tcorr 
ATH    ?    N    ? S_0    ? 20171231 1830   14.4000 GAU  5.00e-02 -1.00e+00 -1.00e+00 -1.00e+00 >   12.6273   -0.0400    1.2789  414.6204  451.4447   -0.0930   39.5694 188.34   8.3  98.9  9     0.0000
KYMI   ?    N    ? S_1    ? 20171231 1830   15.4900 GAU  1.00e-01 -1.00e+00 -1.00e+00 -1.00e+00 >   13.6603    0.0170    1.2616  444.2061  526.4736   -0.2590   43.0793  33.61 213.6  97.8  9     0.0000
VILL   ?    N    ? S_1    ? 20171231 1830   16.5100 GAU  1.00e-01 -1.00e+00 -1.00e+00 -1.00e+00 >   14.7747   -0.0775    1.2248  377.9901  470.8612   -0.6500   46.7413 245.03  65.0  96.9  9     0.0000
VLY    ?    N    ? S_1    ? 20171231 1830   18.1900 GAU  1.00e-01 -1.00e+00 -1.00e+00 -1.00e+00 >   16.3245    0.0528    1.2081  422.0515  438.3032   -0.2560   52.3196 178.15 358.1  95.7  9     0.0000
LOUT   ?    N    ? S_1    ? 20171231 1830   27.0000 GAU  1.00e-01 -1.00e+00 -1.00e+00 -1.00e+00 >   24.9042    0.2830    1.0020  349.1983  449.9545   -0.3070   81.9502 240.27  60.3  93.0  9     0.0000
SKY    ?    N    ? S_1    ? 20171231 1830   29.2100 GAU  1.00e-01 -1.00e+00 -1.00e+00 -1.00e+00 >   27.2193    0.1779    0.9781  481.5709  556.5269   -0.2680   89.9644  42.87 222.9  92.6  9     0.0000
THAL   ?    N    ? S_0    ? 20171231 1830   33.9700 GAU  5.00e-02 -1.00e+00 -1.00e+00 -1.00e+00 >   31.6264    0.5308    0.8383  321.6626  454.1401   -0.1960  105.2159 249.73  69.7  88.1  9     0.0000
AXAR   ?    N    ? S_1    ? 20171231 1830   35.0700 GAU  1.00e-01 -1.00e+00 -1.00e+00 -1.00e+00 >   33.4658   -0.2086    0.8542  318.0527  535.2736   -0.4060  111.6385 293.59 113.6  76.3  8     0.0000
KRND   ?    N    ? S_1    ? 20171231 1830   37.4900 GAU  1.00e-01 -1.00e+00 -1.00e+00 -1.00e+00 >   35.4989    0.1783    0.8424  367.6403  383.4474   -0.1400  119.4161 206.20  26.2  65.8  9     0.0000
NEO    ?    N    ? S_1    ? 20171231 1830   38.0500 GAU  1.00e-01 -1.00e+00 -1.00e+00 -1.00e+00 >   35.8689    0.3684    0.8171  364.2066  597.2781   -0.5100  120.5591 332.24 152.2  65.5  9     0.0000
KLV    ?    N    ? S_1    ? 20171231 1830   44.3500 GAU  1.00e-01 -1.00e+00 -1.00e+00 -1.00e+00 >   43.0062   -0.4690    0.6945  276.5769  453.3757   -0.7580  148.5234 255.49  75.5  57.8 10     0.0000
ATH    ?    Z    ? P_0    ? 20171231 1830    9.4000 GAU  5.00e-02 -1.00e+00 -1.00e+00 -1.00e+00 >    0.0000    0.0000    0.0000  414.6204  451.4447   -0.0930    0.0000   0.00 359.0  -1.0  0     0.0000
KYMI   ?    Z    ? P_0    ? 20171231 1830    9.6800 GAU  5.00e-02 -1.00e+00 -1.00e+00 -1.00e+00 >    0.0000    0.0000    0.0000  444.2061  526.4736   -0.2590    0.0000   0.00 359.0  -1.0  0     0.0000
VILL   ?    Z    ? P_0    ? 20171231 1830    9.9700 GAU  5.00e-02 -1.00e+00 -1.00e+00 -1.00e+00 >    0.0000    0.0000    0.0000  377.9901  470.8612   -0.6500    0.0000   0.00 359.0  -1.0  0     0.0000
VLY    ?    Z    ? P_0    ? 20171231 1830   11.5200 GAU  5.00e-02 -1.00e+00 -1.00e+00 -1.00e+00 >    0.0000    0.0000    0.0000  422.0515  438.3032   -0.2560    0.0000   0.00 359.0  -1.0  0     0.0000
LOUT   ?    Z    ? P_0    ? 20171231 1830   16.5800 GAU  5.00e-02 -1.00e+00 -1.00e+00 -1.00e+00 >    0.0000    0.0000    0.0000  349.1983  449.9545   -0.3070    0.0000   0.00 359.0  -1.0  0     0.0000
SKY    ?    Z    ? P_0    ? 20171231 1830   17.2900 GAU  5.00e-02 -1.00e+00 -1.00e+00 -1.00e+00 >    0.0000    0.0000    0.0000  481.5709  556.5269   -0.2680    0.0000   0.00 359.0  -1.0  0     0.0000
ALNA   ?    N    ? P_1    ? 20171231 1830   18.0300 GAU  1.00e-01 -1.00e+00 -1.00e+00 -1.00e+00 >    0.0000    0.0000    0.0000 -100000000000000000000.0000 -100000000000000000000.0000 -100000000000000000000.0000    0.0000   0.00 359.0  -1.0  0     0.0000
THAL   ?    Z    ? P_0    ? 20171231 1830   20.9400 GAU  5.00e-02 -1.00e+00 -1.00e+00 -1.00e+00 >    0.0000    0.0000    0.0000  321.6626  454.1401   -0.1960    0.0000   0.00 359.0  -1.0  0     0.0000
AXAR   ?    Z    ? P_0    ? 20171231 1830   21.1100 GAU  5.00e-02 -1.00e+00 -1.00e+00 -1.00e+00 >    0.0000    0.0000    0.0000  318.0527  535.2736   -0.4060    0.0000   0.00 359.0  -1.0  0     0.0000
YDRA   ?    Z    ? P_1    ? 20171231 1830   21.8500 GAU  1.00e-01 -1.00e+00 -1.00e+00 -1.00e+00 >    0.0000    0.0000    0.0000 -100000000000000000000.0000 -100000000000000000000.0000 -100000000000000000000.0000    0.0000   0.00 359.0  -1.0  0     0.0000
NEO    ?    Z    ? P_0    ? 20171231 1830   22.2500 GAU  5.00e-02 -1.00e+00 -1.00e+00 -1.00e+00 >    0.0000    0.0000    0.0000  364.2066  597.2781   -0.5100    0.0000   0.00 359.0  -1.0  0     0.0000
KRND   ?    Z    ? P_0    ? 20171231 1830   22.7500 GAU  5.00e-02 -1.00e+00 -1.00e+00 -1.00e+00 >    0.0000    0.0000    0.0000  367.6403  383.4474   -0.1400    0.0000   0.00 359.0  -1.0  0     0.0000
GUR    ?    Z    ? P_0    ? 20171231 1830   24.7700 GAU  5.00e-02 -1.00e+00 -1.00e+00 -1.00e+00 >    0.0000    0.0000    0.0000  293.8572  442.0388   -1.0800    0.0000   0.00 359.0  -1.0  0     0.0000
KLV    ?    Z    ? P_0    ? 20171231 1830   26.2000 GAU  5.00e-02 -1.00e+00 -1.00e+00 -1.00e+00 >    0.0000    0.0000    0.0000  276.5769  453.3757   -0.7580    0.0000   0.00 359.0  -1.0  0     0.0000
LAKA   ?    E    ? P_0    ? 20171231 1830   28.4100 GAU  5.00e-02 -1.00e+00 -1.00e+00 -1.00e+00 >    0.0000    0.0000    0.0000  260.7815  474.6850   -0.5050    0.0000   0.00 359.0  -1.0  0     0.0000
MAKR   ?    Z    ? P_1    ? 20171231 1830   28.8700 GAU  1.00e-01 -1.00e+00 -1.00e+00 -1.00e+00 >    0.0000    0.0000    0.0000  271.2658  560.9773   -0.5320    0.0000   0.00 359.0  -1.0  0     0.0000
ALNA   ?    E    ? S_1    ? 20171231 1830   29.3600 GAU  1.00e-01 -1.00e+00 -1.00e+00 -1.00e+00 >    0.0000    0.0000    0.0000 -100000000000000000000.0000 -100000000000000000000.0000 -100000000000000000000.0000    0.0000   0.00 359.0  -1.0  0     0.0000
EFP    ?    Z    ? P_0    ? 20171231 1830   29.4500 GAU  5.00e-02 -1.00e+00 -1.00e+00 -1.00e+00 >    0.0000    0.0000    0.0000  253.7619  495.2240   -0.1350    0.0000   0.00 359.0  -1.0  0     0.0000
ANX    ?    Z    ? P_0    ? 20171231 1830   29.6400 GAU  5.00e-02 -1.00e+00 -1.00e+00 -1.00e+00 >    0.0000    0.0000    0.0000  254.4939  513.7426   -1.0200    0.0000   0.00 359.0  -1.0  0     0.0000
VLI    ?    Z    ? P_1    ? 20171231 1830   31.6600 GAU  1.00e-01 -1.00e+00 -1.00e+00 -1.00e+00 >    0.0000    0.0000    0.0000  352.6845  308.8238   -0.2200    0.0000   0.00 359.0  -1.0  0     0.0000
SIGR   ?    Z    ? P_1    ? 20171231 1830   33.8600 GAU  1.00e-01 -1.00e+00 -1.00e+00 -1.00e+00 >    0.0000    0.0000    0.0000  592.3633  600.7740   -0.0920    0.0000   0.00 359.0  -1.0  0     0.0000
LIA    ?    Z    ? P_0    ? 20171231 1830   34.0200 GAU  5.00e-02 -1.00e+00 -1.00e+00 -1.00e+00 >    0.0000    0.0000    0.0000  528.7499  672.7842   -0.0670    0.0000   0.00 359.0  -1.0  0     0.0000
OUR    ?    Z    ? P_1    ? 20171231 1830   35.7900 GAU  1.00e-01 -1.00e+00 -1.00e+00 -1.00e+00 >    0.0000    0.0000    0.0000  423.4394  714.8860   -0.0600    0.0000   0.00 359.0  -1.0  0     0.0000
THAS   ?    Z    ? P_1    ? 20171231 1830   40.4700 GAU  1.00e-01 -1.00e+00 -1.00e+00 -1.00e+00 >    0.0000    0.0000    0.0000  484.1775  748.9595   -0.0670    0.0000   0.00 359.0  -1.0  0     0.0000
GUR    ?    N    ? S_1    ? 20171231 1830   41.0300 GAU  1.00e-01 -1.00e+00 -1.00e+00 -1.00e+00 >    0.0000    0.0000    0.0000  293.8572  442.0388   -1.0800    0.0000   0.00 359.0  -1.0  0     0.0000
END_PHASE
END_NLLOC

NLLOC "./loc/husn.20170313.162438.grid0" "LOCATED" "Location completed."
SIGNATURE "Pratul Ranjan   obs:./obs/cornoth_shlw.pick   NLLoc:v7.00.00(27Oct2017)  run:21Jan2020 01h00m18"
COMMENT "2011/01/01-2019/05/31 Corinth North Locations HUSN"
GRID  900 900 250  -10 -10 0  1 1 1 PROB_DENSITY
SEARCH OCTREE nInitial 400 nEvaluated 10008 smallestNodeSide 0.351172/0.351172/0.244141 oct_tree_integral 6.518165e+01 scatter_volume 6.518165e+01
HYPOCENTER  x 390.16 y 502.887 z 10.1318  OT 32.5613  ix -1 iy -1 iz -1 MAXIMUM_LIKELIHOOD
GEOGRAPHIC  OT 2017 03 13  16 24 32.561286  Lat 38.446660 Long 23.468306 Depth 10.131836
QUALITY  Pmax 3.26101e+21 MFmin 8.16102 MFmax 8.5639 RMS 0.283832 Nphs 12 Gap 82.3599 Dist 34.2599 Mamp -9.90 0 Mdur -9.90 0
VPVSRATIO  VpVsRatio -1  Npair 0  Diff -2e+30
STATISTICS  ExpectX 390.257 Y 503.026 Z 10.3556  CovXX 1.00598 XY 0.179773 XZ 0.804269 YY 1.28475 YZ -0.517351 ZZ 23.6216 EllAz1  116.642 Dip1  -2.39404 Len1  1.76067 Az2  26.6531 Dip2  0.261614 Len2  2.20099 Len3  9.139273e+00
STAT_GEOG  ExpectLat 38.447871 Long 23.469482 Depth 10.355617
TRANSFORM  TRANS_MERC RefEllipsoid WGS-84  LatOrig 34.000000  LongOrig 19.000000  RotCW 0.000000
QML_OriginQuality  assocPhCt 35  usedPhCt 12  assocStaCt -1  usedStaCt 12  depthPhCt -1  stdErr 0.283832  azGap 82.3599  secAzGap 124.048  gtLevel -  minDist 34.2599 maxDist 121.544 medDist 69.4793
QML_OriginUncertainty  horUnc -1  minHorUnc 1.45298  maxHorUnc 1.77695  azMaxHorUnc 26.1063
QML_ConfidenceEllipsoid  semiMajorAxisLength 9.13927  semiMinorAxisLength 1.76067  semiIntermediateAxisLength 2.20099  majorAxisPlunge 87.5917  majorAxisAzimuth 122.886  majorAxisRotation 96.2163
FOCALMECH  Hyp  38.446660 23.468306 10.131836 Mech  0 0 0 mf  0 nObs 0
PHASE ID Ins Cmp On Pha  FM Date     HrMn   Sec     Err  ErrMag    Coda      Amp       Per  >   TTpred    Res       Weight    StaLoc(X  Y         Z)        SDist    SAzim  RAz  RDip RQual    Tcorr 
VILL   ?    N    ? S_1    ? 20170313 1624   43.6600 GAU  1.00e-01 -1.00e+00 -1.00e+00 -1.00e+00 >   11.1204   -0.0217    1.2855  377.9901  470.8612   -0.6500   34.2599 200.81  20.8 100.3  9     0.0000
EREA   ?    E    ? S_1    ? 20170313 1624   45.7200 GAU  1.00e-01 -1.00e+00 -1.00e+00 -1.00e+00 >   12.9478    0.2109    1.1731  430.8126  501.9836   -0.4750   40.6622  91.27 271.3  97.3  9     0.0000
LKR    ?    E    ? S_1    ? 20170313 1624   47.0900 GAU  1.00e-01 -1.00e+00 -1.00e+00 -1.00e+00 >   14.6814   -0.1527    1.2044  348.1669  523.5278   -0.1850   46.7923 296.18 116.2  94.5  9     0.0000
ATAL   ?    N    ? S_1    ? 20170313 1624   47.7900 GAU  1.00e-01 -1.00e+00 -1.00e+00 -1.00e+00 >   14.9444    0.2843    1.0950  349.9163  528.4007   -0.2900   47.6503 302.37 122.4  94.2  9     0.0000
KYMI   ?    E    ? S_2    ? 20170313 1624   50.4300 GAU  1.50e-01 -1.00e+00 -1.00e+00 -1.00e+00 >   18.2196   -0.3509    1.0593  444.2061  526.4736   -0.2590   58.9686  66.42 246.4  89.4  9     0.0000
LOUT   ?    N    ? S_2    ? 20170313 1624   52.9700 GAU  1.50e-01 -1.00e+00 -1.00e+00 -1.00e+00 >   20.5342   -0.1255    1.0782  349.1983  449.9545   -0.3070   66.9304 217.73  37.7  86.9  9     0.0000
VLY    ?    E    ? S_2    ? 20170313 1624   54.3200 GAU  1.50e-01 -1.00e+00 -1.00e+00 -1.00e+00 >   22.0041   -0.2453    1.0285  422.0515  438.3032   -0.2560   72.0281 153.72 333.7  86.5  9     0.0000
AXAR   ?    N    ? S_2    ? 20170313 1624   56.6400 GAU  1.50e-01 -1.00e+00 -1.00e+00 -1.00e+00 >   24.0609    0.0178    1.0036  318.0527  535.2736   -0.4060   79.0470 294.19 114.2  86.2  9     0.0000
THAL   ?    N    ? S_2    ? 20170313 1624   57.7500 GAU  1.50e-01 -1.00e+00 -1.00e+00 -1.00e+00 >   25.4872   -0.2985    0.9527  321.6626  454.1401   -0.1960   84.0723 234.56  54.6  86.0  9     0.0000
XOR    ?    N    ? S_2    ? 20170313 1625    3.0700 GAU  1.50e-01 -1.00e+00 -1.00e+00 -1.00e+00 >   31.6025   -1.0938    0.5870  361.3232  603.8675   -0.5000  105.0178 344.06 164.1  85.7  9     0.0000
AGG    ?    N    ? S_2    ? 20170313 1625    7.7200 GAU  1.50e-01 -1.00e+00 -1.00e+00 -1.00e+00 >   35.2071   -0.0484    0.8100  288.9340  562.4842   -0.6220  117.4677 300.49 120.5  75.0  9     0.0000
KRND   ?    N    ? S_2    ? 20170313 1625    9.2600 GAU  1.50e-01 -1.00e+00 -1.00e+00 -1.00e+00 >   36.2319    0.4669    0.7226  367.6403  383.4474   -0.1400  121.5436 190.68  10.7  66.4  9     0.0000
VILL   ?    Z    ? P_0    ? 20170313 1624   38.7400 GAU  5.00e-02 -1.00e+00 -1.00e+00 -1.00e+00 >    0.0000    0.0000    0.0000  377.9901  470.8612   -0.6500    0.0000   0.00 359.0  -1.0  0     0.0000
EREA   ?    Z    ? P_0    ? 20170313 1624   39.7400 GAU  5.00e-02 -1.00e+00 -1.00e+00 -1.00e+00 >    0.0000    0.0000    0.0000  430.8126  501.9836   -0.4750    0.0000   0.00 359.0  -1.0  0     0.0000
LKR    ?    Z    ? P_0    ? 20170313 1624   40.5100 GAU  5.00e-02 -1.00e+00 -1.00e+00 -1.00e+00 >    0.0000    0.0000    0.0000  348.1669  523.5278   -0.1850    0.0000   0.00 359.0  -1.0  0     0.0000
ATAL   ?    Z    ? P_1    ? 20170313 1624   40.6800 GAU  1.00e-01 -1.00e+00 -1.00e+00 -1.00e+00 >    0.0000    0.0000    0.0000  349.9163  528.4007   -0.2900    0.0000   0.00 359.0  -1.0  0     0.0000
KYMI   ?    Z    ? P_1    ? 20170313 1624   42.5200 GAU  1.00e-01 -1.00e+00 -1.00e+00 -1.00e+00 >    0.0000    0.0000    0.0000  444.2061  526.4736   -0.2590    0.0000   0.00 359.0  -1.0  0     0.0000
ATHU   ?    Z    ? P_2    ? 20170313 1624   42.9900 GAU  1.50e-01 -1.00e+00 -1.00e+00 -1.00e+00 >    0.0000    0.0000    0.0000  420.5452  450.9346   -0.3080    0.0000   0.00 359.0  -1.0  0     0.0000
PTL    ?    Z    ? P_2    ? 20170313 1624   43.3400 GAU  1.50e-01 -1.00e+00 -1.00e+00 -1.00e+00 >    0.0000    0.0000    0.0000  427.0491  460.2731   -0.5000    0.0000   0.00 359.0  -1.0  0     0.0000
DION   ?    Z    ? P_1    ? 20170313 1624   43.8700 GAU  1.00e-01 -1.00e+00 -1.00e+00 -1.00e+00 >    0.0000    0.0000    0.0000  432.9565  463.9943   -0.4600    0.0000   0.00 359.0  -1.0  0     0.0000
VLY    ?    Z    ? P_1    ? 20170313 1624   45.0500 GAU  1.00e-01 -1.00e+00 -1.00e+00 -1.00e+00 >    0.0000    0.0000    0.0000  422.0515  438.3032   -0.2560    0.0000   0.00 359.0  -1.0  0     0.0000
LOUT   ?    Z    ? P_2    ? 20170313 1624   45.3600 GAU  1.50e-01 -1.00e+00 -1.00e+00 -1.00e+00 >    0.0000    0.0000    0.0000  349.1983  449.9545   -0.3070    0.0000   0.00 359.0  -1.0  0     0.0000
AXAR   ?    Z    ? P_2    ? 20170313 1624   45.7800 GAU  1.50e-01 -1.00e+00 -1.00e+00 -1.00e+00 >    0.0000    0.0000    0.0000  318.0527  535.2736   -0.4060    0.0000   0.00 359.0  -1.0  0     0.0000
THAL   ?    Z    ? P_2    ? 20170313 1624   46.6800 GAU  1.50e-01 -1.00e+00 -1.00e+00 -1.00e+00 >    0.0000    0.0000    0.0000  321.6626  454.1401   -0.1960    0.0000   0.00 359.0  -1.0  0     0.0000
XOR    ?    Z    ? P_2    ? 20170313 1624   51.0600 GAU  1.50e-01 -1.00e+00 -1.00e+00 -1.00e+00 >    0.0000    0.0000    0.0000  361.3232  603.8675   -0.5000    0.0000   0.00 359.0  -1.0  0     0.0000
AGG    ?    Z    ? P_2    ? 20170313 1624   52.5200 GAU  1.50e-01 -1.00e+00 -1.00e+00 -1.00e+00 >    0.0000    0.0000    0.0000  288.9340  562.4842   -0.6220    0.0000   0.00 359.0  -1.0  0     0.0000
GUR    ?    Z    ? P_1    ? 20170313 1624   53.0100 GAU  1.00e-01 -1.00e+00 -1.00e+00 -1.00e+00 >    0.0000    0.0000    0.0000  293.8572  442.0388   -1.0800    0.0000   0.00 359.0  -1.0  0     0.0000
KRND   ?    Z    ? P_2    ? 20170313 1624   53.7500 GAU  1.50e-01 -1.00e+00 -1.00e+00 -1.00e+00 >    0.0000    0.0000    0.0000  367.6403  383.4474   -0.1400    0.0000   0.00 359.0  -1.0  0     0.0000
KLV    ?    Z    ? P_1    ? 20170313 1624   54.8000 GAU  1.00e-01 -1.00e+00 -1.00e+00 -1.00e+00 >    0.0000    0.0000    0.0000  276.5769  453.3757   -0.7580    0.0000   0.00 359.0  -1.0  0     0.0000
LAKA   ?    Z    ? P_2    ? 20170313 1624   55.5800 GAU  1.50e-01 -1.00e+00 -1.00e+00 -1.00e+00 >    0.0000    0.0000    0.0000  260.7815  474.6850   -0.5050    0.0000   0.00 359.0  -1.0  0     0.0000
ANX    ?    Z    ? P_2    ? 20170313 1624   56.2200 GAU  1.50e-01 -1.00e+00 -1.00e+00 -1.00e+00 >    0.0000    0.0000    0.0000  254.4939  513.7426   -1.0200    0.0000   0.00 359.0  -1.0  0     0.0000
MAKR   ?    Z    ? P_2    ? 20170313 1624   56.2800 GAU  1.50e-01 -1.00e+00 -1.00e+00 -1.00e+00 >    0.0000    0.0000    0.0000  271.2658  560.9773   -0.5320    0.0000   0.00 359.0  -1.0  0     0.0000
EFP    ?    Z    ? P_2    ? 20170313 1624   56.3400 GAU  1.50e-01 -1.00e+00 -1.00e+00 -1.00e+00 >    0.0000    0.0000    0.0000  253.7619  495.2240   -0.1350    0.0000   0.00 359.0  -1.0  0     0.0000
DRO    ?    Z    ? P_2    ? 20170313 1625    0.3600 GAU  1.50e-01 -1.00e+00 -1.00e+00 -1.00e+00 >    0.0000    0.0000    0.0000  238.2989  441.9997   -0.4710    0.0000   0.00 359.0  -1.0  0     0.0000
GUR    ?    N    ? S_2    ? 20170313 1625    6.2200 GAU  1.50e-01 -1.00e+00 -1.00e+00 -1.00e+00 >    0.0000    0.0000    0.0000  293.8572  442.0388   -1.0800    0.0000   0.00 359.0  -1.0  0     0.0000
END_PHASE
END_NLLOC

