NLLOC "./loc/husn.20141222.111219.grid0" "LOCATED" "Location completed."
SIGNATURE "Pratul Ranjan   obs:./obs/cornoth_shlw.pick   NLLoc:v7.00.00(27Oct2017)  run:21Jan2020 01h00m50"
COMMENT "2011/01/01-2019/05/31 Corinth North Locations HUSN"
GRID  900 900 250  -10 -10 0  1 1 1 PROB_DENSITY
SEARCH OCTREE nInitial 400 nEvaluated 10008 smallestNodeSide 0.351172/0.351172/0.244141 oct_tree_integral 6.644286e+01 scatter_volume 6.567187e+01
HYPOCENTER  x 395.779 y 506.047 z 9.8877  OT 12.7197  ix -1 iy -1 iz -1 MAXIMUM_LIKELIHOOD
GEOGRAPHIC  OT 2014 12 22  11 12 12.719719  Lat 38.472573 Long 23.534249 Depth 9.887695
QUALITY  Pmax 4.42116e+21 MFmin 8.34354 MFmax 8.68234 RMS 0.290126 Nphs 12 Gap 86.5341 Dist 35.2683 Mamp -9.90 0 Mdur -9.90 0
VPVSRATIO  VpVsRatio -1  Npair 0  Diff -2e+30
STATISTICS  ExpectX 395.887 Y 506.089 Z 9.38651  CovXX 0.833757 XY 0.18087 XZ 0.860116 YY 1.2558 YZ -0.224463 ZZ 24.2259 EllAz1  109.978 Dip1  -2.15753 Len1  1.60914 Az2  19.9706 Dip2  -0.207121 Len2  2.16056 Len3  9.253985e+00
STAT_GEOG  ExpectLat 38.472900 Long 23.535504 Depth 9.386506
TRANSFORM  TRANS_MERC RefEllipsoid WGS-84  LatOrig 34.000000  LongOrig 19.000000  RotCW 0.000000
QML_OriginQuality  assocPhCt 36  usedPhCt 12  assocStaCt -1  usedStaCt 12  depthPhCt -1  stdErr 0.290126  azGap 86.5341  secAzGap 116.02  gtLevel -  minDist 35.2683 maxDist 122.261 medDist 63.0122
QML_OriginUncertainty  horUnc -1  minHorUnc 1.32806  maxHorUnc 1.7442  azMaxHorUnc 20.3003
QML_ConfidenceEllipsoid  semiMajorAxisLength 9.25399  semiMinorAxisLength 1.60914  semiIntermediateAxisLength 2.16056  majorAxisPlunge 87.8325  majorAxisAzimuth 104.49  majorAxisRotation 84.5308
FOCALMECH  Hyp  38.472573 23.534249 9.887695 Mech  0 0 0 mf  0 nObs 0
PHASE ID Ins Cmp On Pha  FM Date     HrMn   Sec     Err  ErrMag    Coda      Amp       Per  >   TTpred    Res       Weight    StaLoc(X  Y         Z)        SDist    SAzim  RAz  RDip RQual    Tcorr 
EREA   ?    N    ? S_1    ? 20141222 1112   24.1100 GAU  1.00e-01 -1.00e+00 -1.00e+00 -1.00e+00 >   11.3740    0.0163    1.2768  430.8126  501.9836   -0.4750   35.2683  96.62 276.6  99.8  9     0.0000
VILL   ?    N    ? S_1    ? 20141222 1112   25.3400 GAU  1.00e-01 -1.00e+00 -1.00e+00 -1.00e+00 >   12.6065    0.0138    1.2537  377.9901  470.8612   -0.6500   39.4271 206.82  26.8  98.1  9     0.0000
LKR    ?    N    ? S_2    ? 20141222 1112   28.3600 GAU  1.50e-01 -1.00e+00 -1.00e+00 -1.00e+00 >   15.8162   -0.1759    1.1477  348.1669  523.5278   -0.1850   50.7198 290.16 110.2  92.7  9     0.0000
ATAL   ?    N    ? S_1    ? 20141222 1112   28.5500 GAU  1.00e-01 -1.00e+00 -1.00e+00 -1.00e+00 >   15.9177   -0.0874    1.1765  349.9163  528.4007   -0.2900   51.0204 295.98 116.0  92.6  9     0.0000
KYMI   ?    N    ? S_1    ? 20141222 1112   29.4700 GAU  1.00e-01 -1.00e+00 -1.00e+00 -1.00e+00 >   16.3597    0.3906    1.0123  444.2061  526.4736   -0.2590   52.5587  67.13 247.1  91.9  9     0.0000
SMIA   ?    N    ? S_1    ? 20141222 1112   29.3000 GAU  1.00e-01 -1.00e+00 -1.00e+00 -1.00e+00 >   16.6219   -0.0416    1.1654  365.3005  549.8513   -0.4480   53.3644 325.17 145.2  91.7  9     0.0000
VLY    ?    N    ? S_2    ? 20141222 1112   34.3600 GAU  1.50e-01 -1.00e+00 -1.00e+00 -1.00e+00 >   22.1922   -0.5519    0.8693  422.0515  438.3032   -0.2560   72.6600 158.80 338.8  85.1  9     0.0000
LOUT   ?    N    ? S_2    ? 20141222 1112   35.3700 GAU  1.50e-01 -1.00e+00 -1.00e+00 -1.00e+00 >   22.2728    0.3774    0.9352  349.1983  449.9545   -0.3070   72.9119 219.71  39.7  85.1  9     0.0000
DSF    ?    N    ? S_1    ? 20141222 1112   39.8300 GAU  1.00e-01 -1.00e+00 -1.00e+00 -1.00e+00 >   26.7997    0.3106    0.8938  308.1008  495.3761   -0.7010   88.3252 263.06  83.1  84.3  9     0.0000
KARY   ?    E    ? S_2    ? 20141222 1112   40.2000 GAU  1.50e-01 -1.00e+00 -1.00e+00 -1.00e+00 >   28.1245   -0.6442    0.7693  477.5105  461.3819   -0.2200   93.1397 118.66 298.7  84.2  9     0.0000
XOR    ?    N    ? S_1    ? 20141222 1112   43.3900 GAU  1.00e-01 -1.00e+00 -1.00e+00 -1.00e+00 >   31.2296   -0.5593    0.7723  361.3232  603.8675   -0.5000  103.7114 340.60 160.6  84.1  9     0.0000
KALE   ?    N    ? S_1    ? 20141222 1112   49.7200 GAU  1.00e-01 -1.00e+00 -1.00e+00 -1.00e+00 >   36.5640    0.4363    0.7276  274.3370  491.9195   -0.7600  122.2611 263.36  83.4  67.3  9     0.0000
EREA   ?    Z    ? P_0    ? 20141222 1112   19.2600 GAU  5.00e-02 -1.00e+00 -1.00e+00 -1.00e+00 >    0.0000    0.0000    0.0000  430.8126  501.9836   -0.4750    0.0000   0.00 359.0  -1.0  0     0.0000
VILL   ?    Z    ? P_0    ? 20141222 1112   19.7100 GAU  5.00e-02 -1.00e+00 -1.00e+00 -1.00e+00 >    0.0000    0.0000    0.0000  377.9901  470.8612   -0.6500    0.0000   0.00 359.0  -1.0  0     0.0000
LKR    ?    Z    ? P_0    ? 20141222 1112   21.0100 GAU  5.00e-02 -1.00e+00 -1.00e+00 -1.00e+00 >    0.0000    0.0000    0.0000  348.1669  523.5278   -0.1850    0.0000   0.00 359.0  -1.0  0     0.0000
ATAL   ?    Z    ? P_0    ? 20141222 1112   21.1800 GAU  5.00e-02 -1.00e+00 -1.00e+00 -1.00e+00 >    0.0000    0.0000    0.0000  349.9163  528.4007   -0.2900    0.0000   0.00 359.0  -1.0  0     0.0000
KYMI   ?    Z    ? P_0    ? 20141222 1112   21.7300 GAU  5.00e-02 -1.00e+00 -1.00e+00 -1.00e+00 >    0.0000    0.0000    0.0000  444.2061  526.4736   -0.2590    0.0000   0.00 359.0  -1.0  0     0.0000
SMIA   ?    Z    ? P_0    ? 20141222 1112   22.2800 GAU  5.00e-02 -1.00e+00 -1.00e+00 -1.00e+00 >    0.0000    0.0000    0.0000  365.3005  549.8513   -0.4480    0.0000   0.00 359.0  -1.0  0     0.0000
DION   ?    Z    ? P_1    ? 20141222 1112   23.0200 GAU  1.00e-01 -1.00e+00 -1.00e+00 -1.00e+00 >    0.0000    0.0000    0.0000  432.9565  463.9943   -0.4600    0.0000   0.00 359.0  -1.0  0     0.0000
PTL    ?    Z    ? P_1    ? 20141222 1112   23.2100 GAU  1.00e-01 -1.00e+00 -1.00e+00 -1.00e+00 >    0.0000    0.0000    0.0000  427.0491  460.2731   -0.5000    0.0000   0.00 359.0  -1.0  0     0.0000
ATHU   ?    Z    ? P_2    ? 20141222 1112   23.4800 GAU  1.50e-01 -1.00e+00 -1.00e+00 -1.00e+00 >    0.0000    0.0000    0.0000  420.5452  450.9346   -0.3080    0.0000   0.00 359.0  -1.0  0     0.0000
VLY    ?    Z    ? P_0    ? 20141222 1112   25.2900 GAU  5.00e-02 -1.00e+00 -1.00e+00 -1.00e+00 >    0.0000    0.0000    0.0000  422.0515  438.3032   -0.2560    0.0000   0.00 359.0  -1.0  0     0.0000
LOUT   ?    Z    ? P_1    ? 20141222 1112   25.3400 GAU  1.00e-01 -1.00e+00 -1.00e+00 -1.00e+00 >    0.0000    0.0000    0.0000  349.1983  449.9545   -0.3070    0.0000   0.00 359.0  -1.0  0     0.0000
ALNA   ?    Z    ? P_2    ? 20141222 1112   26.2600 GAU  1.50e-01 -1.00e+00 -1.00e+00 -1.00e+00 >    0.0000    0.0000    0.0000 -100000000000000000000.0000 -100000000000000000000.0000 -100000000000000000000.0000    0.0000   0.00 359.0  -1.0  0     0.0000
AXAR   ?    Z    ? P_1    ? 20141222 1112   27.0000 GAU  1.00e-01 -1.00e+00 -1.00e+00 -1.00e+00 >    0.0000    0.0000    0.0000  318.0527  535.2736   -0.4060    0.0000   0.00 359.0  -1.0  0     0.0000
DSF    ?    Z    ? P_0    ? 20141222 1112   27.3200 GAU  5.00e-02 -1.00e+00 -1.00e+00 -1.00e+00 >    0.0000    0.0000    0.0000  308.1008  495.3761   -0.7010    0.0000   0.00 359.0  -1.0  0     0.0000
NEO    ?    Z    ? P_1    ? 20141222 1112   28.7800 GAU  1.00e-01 -1.00e+00 -1.00e+00 -1.00e+00 >    0.0000    0.0000    0.0000  364.2066  597.2781   -0.5100    0.0000   0.00 359.0  -1.0  0     0.0000
KARY   ?    Z    ? P_1    ? 20141222 1112   28.9900 GAU  1.00e-01 -1.00e+00 -1.00e+00 -1.00e+00 >    0.0000    0.0000    0.0000  477.5105  461.3819   -0.2200    0.0000   0.00 359.0  -1.0  0     0.0000
SKY    ?    Z    ? P_1    ? 20141222 1112   29.3300 GAU  1.00e-01 -1.00e+00 -1.00e+00 -1.00e+00 >    0.0000    0.0000    0.0000  481.5709  556.5269   -0.2680    0.0000   0.00 359.0  -1.0  0     0.0000
XOR    ?    Z    ? P_0    ? 20141222 1112   30.3100 GAU  5.00e-02 -1.00e+00 -1.00e+00 -1.00e+00 >    0.0000    0.0000    0.0000  361.3232  603.8675   -0.5000    0.0000   0.00 359.0  -1.0  0     0.0000
EPID   ?    Z    ? P_1    ? 20141222 1112   30.4700 GAU  1.00e-01 -1.00e+00 -1.00e+00 -1.00e+00 >    0.0000    0.0000    0.0000  363.7397  409.0254   -0.4440    0.0000   0.00 359.0  -1.0  0     0.0000
VOL7   ?    Z    ? P_1    ? 20141222 1112   31.0100 GAU  1.00e-01 -1.00e+00 -1.00e+00 -1.00e+00 >    0.0000    0.0000    0.0000 -100000000000000000000.0000 -100000000000000000000.0000 -100000000000000000000.0000    0.0000   0.00 359.0  -1.0  0     0.0000
KALE   ?    Z    ? P_1    ? 20141222 1112   32.7700 GAU  1.00e-01 -1.00e+00 -1.00e+00 -1.00e+00 >    0.0000    0.0000    0.0000  274.3370  491.9195   -0.7600    0.0000   0.00 359.0  -1.0  0     0.0000
AGG    ?    Z    ? P_2    ? 20141222 1112   33.3200 GAU  1.50e-01 -1.00e+00 -1.00e+00 -1.00e+00 >    0.0000    0.0000    0.0000  288.9340  562.4842   -0.6220    0.0000   0.00 359.0  -1.0  0     0.0000
GUR    ?    Z    ? P_1    ? 20141222 1112   34.0400 GAU  1.00e-01 -1.00e+00 -1.00e+00 -1.00e+00 >    0.0000    0.0000    0.0000  293.8572  442.0388   -1.0800    0.0000   0.00 359.0  -1.0  0     0.0000
KLV    ?    Z    ? P_0    ? 20141222 1112   34.9100 GAU  5.00e-02 -1.00e+00 -1.00e+00 -1.00e+00 >    0.0000    0.0000    0.0000  276.5769  453.3757   -0.7580    0.0000   0.00 359.0  -1.0  0     0.0000
END_PHASE
END_NLLOC

NLLOC "./loc/husn.20110329.190403.grid0" "LOCATED" "Location completed."
SIGNATURE "Pratul Ranjan   obs:./obs/cornoth_shlw.pick   NLLoc:v7.00.00(27Oct2017)  run:21Jan2020 01h01m22"
COMMENT "2011/01/01-2019/05/31 Corinth North Locations HUSN"
GRID  900 900 250  -10 -10 0  1 1 1 PROB_DENSITY
SEARCH OCTREE nInitial 400 nEvaluated 10000 smallestNodeSide 0.351172/0.351172/0.244141 oct_tree_integral 1.082695e+02 scatter_volume 1.082695e+02
HYPOCENTER  x 421.063 y 512.719 z 17.2119  OT 58.8805  ix -1 iy -1 iz -1 MAXIMUM_LIKELIHOOD
GEOGRAPHIC  OT 2011 03 29  19 03 58.880502  Lat 38.520910 Long 23.827002 Depth 17.211914
QUALITY  Pmax 1.20504e+16 MFmin 6.34654 MFmax 7.07148 RMS 0.238746 Nphs 10 Gap 137.153 Dist 14.5017 Mamp -9.90 0 Mdur -9.90 0
VPVSRATIO  VpVsRatio -1  Npair 0  Diff -2e+30
STATISTICS  ExpectX 421.594 Y 512.386 Z 16.6019  CovXX 9.70768 XY 0.629607 XZ 9.17649 YY 1.85571 YZ 0.585189 ZZ 23.4299 EllAz1  174.569 Dip1  -0.757739 Len1  2.52325 Az2  264.188 Dip2  26.6721 Len2  4.25888 Len3  9.950954e+00
STAT_GEOG  ExpectLat 38.517671 Long 23.832868 Depth 16.601891
TRANSFORM  TRANS_MERC RefEllipsoid WGS-84  LatOrig 34.000000  LongOrig 19.000000  RotCW 0.000000
QML_OriginQuality  assocPhCt 26  usedPhCt 10  assocStaCt -1  usedStaCt 10  depthPhCt -1  stdErr 0.238746  azGap 137.153  secAzGap 172.884  gtLevel -  minDist 14.5017 maxDist 124.214 medDist 76.0343
QML_OriginUncertainty  horUnc -1  minHorUnc 2.03783  maxHorUnc 4.73741  azMaxHorUnc 85.4445
QML_ConfidenceEllipsoid  semiMajorAxisLength 9.95095  semiMinorAxisLength 2.52325  semiIntermediateAxisLength 4.25888  majorAxisPlunge 63.3154  majorAxisAzimuth 86.0765  majorAxisRotation 2.8268
FOCALMECH  Hyp  38.520910 23.827002 17.211914 Mech  0 0 0 mf  0 nObs 0
PHASE ID Ins Cmp On Pha  FM Date     HrMn   Sec     Err  ErrMag    Coda      Amp       Per  >   TTpred    Res       Weight    StaLoc(X  Y         Z)        SDist    SAzim  RAz  RDip RQual    Tcorr 
EREA   ?    N    ? S_1    ? 20110329 1904    5.8400 GAU  1.00e-01 -1.00e+00 -1.00e+00 -1.00e+00 >    6.9209    0.0386    1.2676  430.8126  501.9836   -0.4750   14.5017 137.76 317.8 140.0  9     0.0000
PTL    ?    E    ? S_1    ? 20110329 1904   15.2000 GAU  1.00e-01 -1.00e+00 -1.00e+00 -1.00e+00 >   16.7855   -0.4660    1.0551  427.0491  460.2731   -0.5000   52.7867 173.49 353.5 104.2  9     0.0000
SMIA   ?    E    ? S_1    ? 20110329 1904   19.6800 GAU  1.00e-01 -1.00e+00 -1.00e+00 -1.00e+00 >   20.8072   -0.0077    1.0982  365.3005  549.8513   -0.4480   66.9948 303.66 123.7  98.1  9     0.0000
AOS    ?    E    ? S_1    ? 20110329 1904   20.8200 GAU  1.00e-01 -1.00e+00 -1.00e+00 -1.00e+00 >   22.2906   -0.3511    1.0314  421.8273  585.0771   -0.2000   72.3618   0.60 180.6  90.1  8     0.0000
LKR    ?    E    ? S_1    ? 20110329 1904   21.2400 GAU  1.00e-01 -1.00e+00 -1.00e+00 -1.00e+00 >   22.6640   -0.3045    1.0382  348.1669  523.5278   -0.1850   73.6935 278.43  98.4  87.3  8     0.0000
SKIA   ?    E    ? S_1    ? 20110329 1904   22.9400 GAU  1.00e-01 -1.00e+00 -1.00e+00 -1.00e+00 >   23.9857    0.0738    1.0251  386.0535  582.8403   -0.3250   78.3750 333.47 153.5  78.0  8     0.0000
LTK    ?    E    ? S_1    ? 20110329 1904   26.7700 GAU  1.00e-01 -1.00e+00 -1.00e+00 -1.00e+00 >   28.0331   -0.1436    0.9629  348.4175  453.8043   -0.4080   93.5330 230.96  51.0  66.2 10     0.0000
NEO    ?    E    ? S_1    ? 20110329 1904   29.2100 GAU  1.00e-01 -1.00e+00 -1.00e+00 -1.00e+00 >   30.2706    0.0589    0.9171  364.2066  597.2781   -0.5100  101.8965 326.08 146.1  66.2 10     0.0000
THAL   ?    E    ? S_1    ? 20110329 1904   33.0600 GAU  1.00e-01 -1.00e+00 -1.00e+00 -1.00e+00 >   33.7452    0.4343    0.7914  321.6626  454.1401   -0.1960  115.3779 239.49  59.5  62.6 10     0.0000
DID    ?    N    ? S_1    ? 20110329 1904   35.1400 GAU  1.00e-01 -1.00e+00 -1.00e+00 -1.00e+00 >   36.0656    0.1939    0.8129  374.6984  397.4835   -0.5250  124.2136 201.92  21.9  61.2 10     0.0000
EREA   ?    Z    ? P_0    ? 20110329 1904    3.2100 GAU  5.00e-02 -1.00e+00 -1.00e+00 -1.00e+00 >    0.0000    0.0000    0.0000  430.8126  501.9836   -0.4750    0.0000   0.00 359.0  -1.0  0     0.0000
ATHU   ?    Z    ? P_0    ? 20110329 1904    8.1700 GAU  5.00e-02 -1.00e+00 -1.00e+00 -1.00e+00 >    0.0000    0.0000    0.0000  420.5452  450.9346   -0.3080    0.0000   0.00 359.0  -1.0  0     0.0000
PTL    ?    Z    ? P_0    ? 20110329 1904    8.5200 GAU  5.00e-02 -1.00e+00 -1.00e+00 -1.00e+00 >    0.0000    0.0000    0.0000  427.0491  460.2731   -0.5000    0.0000   0.00 359.0  -1.0  0     0.0000
VILL   ?    Z    ? P_0    ? 20110329 1904    9.4200 GAU  5.00e-02 -1.00e+00 -1.00e+00 -1.00e+00 >    0.0000    0.0000    0.0000  377.9901  470.8612   -0.6500    0.0000   0.00 359.0  -1.0  0     0.0000
SMIA   ?    Z    ? P_0    ? 20110329 1904   10.9000 GAU  5.00e-02 -1.00e+00 -1.00e+00 -1.00e+00 >    0.0000    0.0000    0.0000  365.3005  549.8513   -0.4480    0.0000   0.00 359.0  -1.0  0     0.0000
LKR    ?    Z    ? P_0    ? 20110329 1904   11.4000 GAU  5.00e-02 -1.00e+00 -1.00e+00 -1.00e+00 >    0.0000    0.0000    0.0000  348.1669  523.5278   -0.1850    0.0000   0.00 359.0  -1.0  0     0.0000
AOS    ?    Z    ? P_0    ? 20110329 1904   11.6400 GAU  5.00e-02 -1.00e+00 -1.00e+00 -1.00e+00 >    0.0000    0.0000    0.0000  421.8273  585.0771   -0.2000    0.0000   0.00 359.0  -1.0  0     0.0000
SKIA   ?    Z    ? P_0    ? 20110329 1904   12.8700 GAU  5.00e-02 -1.00e+00 -1.00e+00 -1.00e+00 >    0.0000    0.0000    0.0000  386.0535  582.8403   -0.3250    0.0000   0.00 359.0  -1.0  0     0.0000
LTK    ?    Z    ? P_0    ? 20110329 1904   15.1200 GAU  5.00e-02 -1.00e+00 -1.00e+00 -1.00e+00 >    0.0000    0.0000    0.0000  348.4175  453.8043   -0.4080    0.0000   0.00 359.0  -1.0  0     0.0000
NEO    ?    Z    ? P_0    ? 20110329 1904   16.7500 GAU  5.00e-02 -1.00e+00 -1.00e+00 -1.00e+00 >    0.0000    0.0000    0.0000  364.2066  597.2781   -0.5100    0.0000   0.00 359.0  -1.0  0     0.0000
XOR    ?    Z    ? P_0    ? 20110329 1904   17.5900 GAU  5.00e-02 -1.00e+00 -1.00e+00 -1.00e+00 >    0.0000    0.0000    0.0000  361.3232  603.8675   -0.5000    0.0000   0.00 359.0  -1.0  0     0.0000
DSF    ?    Z    ? P_0    ? 20110329 1904   17.9600 GAU  5.00e-02 -1.00e+00 -1.00e+00 -1.00e+00 >    0.0000    0.0000    0.0000  308.1008  495.3761   -0.7010    0.0000   0.00 359.0  -1.0  0     0.0000
THAL   ?    Z    ? P_0    ? 20110329 1904   18.5800 GAU  5.00e-02 -1.00e+00 -1.00e+00 -1.00e+00 >    0.0000    0.0000    0.0000  321.6626  454.1401   -0.1960    0.0000   0.00 359.0  -1.0  0     0.0000
DID    ?    Z    ? P_0    ? 20110329 1904   19.8800 GAU  5.00e-02 -1.00e+00 -1.00e+00 -1.00e+00 >    0.0000    0.0000    0.0000  374.6984  397.4835   -0.5250    0.0000   0.00 359.0  -1.0  0     0.0000
KRND   ?    Z    ? P_0    ? 20110329 1904   21.9700 GAU  5.00e-02 -1.00e+00 -1.00e+00 -1.00e+00 >    0.0000    0.0000    0.0000  367.6403  383.4474   -0.1400    0.0000   0.00 359.0  -1.0  0     0.0000
PAIG   ?    Z    ? P_0    ? 20110329 1904   23.9500 GAU  5.00e-02 -1.00e+00 -1.00e+00 -1.00e+00 >    0.0000    0.0000    0.0000  399.8196  669.2824   -0.2130    0.0000   0.00 359.0  -1.0  0     0.0000
END_PHASE
END_NLLOC

