NLLOC "./loc/husn.20150609.041119.grid0" "LOCATED" "Location completed."
SIGNATURE "Pratul Ranjan   obs:./obs/cornoth_shlw.pick   NLLoc:v7.00.00(27Oct2017)  run:21Jan2020 01h00m42"
COMMENT "2011/01/01-2019/05/31 Corinth North Locations HUSN"
GRID  900 900 250  -10 -10 0  1 1 1 PROB_DENSITY
SEARCH OCTREE nInitial 400 nEvaluated 10016 smallestNodeSide 0.175586/0.175586/0.122070 oct_tree_integral 2.722677e+01 scatter_volume 2.722677e+01
HYPOCENTER  x 384.981 y 522.289 z 17.0288  OT 12.6776  ix -1 iy -1 iz -1 MAXIMUM_LIKELIHOOD
GEOGRAPHIC  OT 2015 06 09  04 11 12.677635  Lat 38.623170 Long 23.419819 Depth 17.028809
QUALITY  Pmax 9.66593e+49 MFmin 14.788 MFmax 15.3395 RMS 0.389995 Nphs 22 Gap 85.9663 Dist 33.8674 Mamp -9.90 0 Mdur -9.90 0
VPVSRATIO  VpVsRatio -1  Npair 0  Diff -2e+30
STATISTICS  ExpectX 385.058 Y 522.423 Z 16.9676  CovXX 1.12747 XY 0.438295 XZ 0.219965 YY 1.3018 YZ 0.633521 ZZ 7.94944 EllAz1  130.749 Dip1  1.96673 Len1  1.6377 Az2  220.942 Dip2  5.60087 Len2  2.37639 Len3  5.320485e+00
STAT_GEOG  ExpectLat 38.624343 Long 23.420777 Depth 16.967611
TRANSFORM  TRANS_MERC RefEllipsoid WGS-84  LatOrig 34.000000  LongOrig 19.000000  RotCW 0.000000
QML_OriginQuality  assocPhCt 65  usedPhCt 22  assocStaCt -1  usedStaCt 22  depthPhCt -1  stdErr 0.389995  azGap 85.9663  secAzGap 101.442  gtLevel -  minDist 33.8674 maxDist 128.454 medDist 78.7699
QML_OriginUncertainty  horUnc -1  minHorUnc 1.32885  maxHorUnc 1.95486  azMaxHorUnc 39.3758
QML_ConfidenceEllipsoid  semiMajorAxisLength 5.32048  semiMinorAxisLength 1.6377  semiIntermediateAxisLength 2.37639  majorAxisPlunge 84.0618  majorAxisAzimuth 21.4716  majorAxisRotation 340.235
FOCALMECH  Hyp  38.623170 23.419819 17.028809 Mech  0 0 0 mf  0 nObs 0
PHASE ID Ins Cmp On Pha  FM Date     HrMn   Sec     Err  ErrMag    Coda      Amp       Per  >   TTpred    Res       Weight    StaLoc(X  Y         Z)        SDist    SAzim  RAz  RDip RQual    Tcorr 
SMIA   ?    E    ? S_1    ? 20150609 0411   24.4300 GAU  1.00e-01 -1.00e+00 -1.00e+00 -1.00e+00 >   11.5373    0.2150    1.2529  365.3005  549.8513   -0.4480   33.8674 324.47 144.5 113.0  9     0.0000
ATAL   ?    N    ? S_1    ? 20150609 0411   24.4100 GAU  1.00e-01 -1.00e+00 -1.00e+00 -1.00e+00 >   11.9726   -0.2402    1.2433  349.9163  528.4007   -0.2900   35.5929 279.89  99.9 111.7  9     0.0000
LKR    ?    N    ? S_1    ? 20150609 0411   24.4000 GAU  1.00e-01 -1.00e+00 -1.00e+00 -1.00e+00 >   12.2910   -0.5686    1.0274  348.1669  523.5278   -0.1850   36.8345 271.93  91.9 110.8  9     0.0000
EREA   ?    N    ? S_1    ? 20150609 0411   29.1700 GAU  1.00e-01 -1.00e+00 -1.00e+00 -1.00e+00 >   16.0203    0.4721    1.0738  430.8126  501.9836   -0.4750   50.1286 113.89 293.9 104.9  9     0.0000
VILL   ?    N    ? S_2    ? 20150609 0411   29.3100 GAU  1.50e-01 -1.00e+00 -1.00e+00 -1.00e+00 >   16.5469    0.0855    1.2122  377.9901  470.8612   -0.6500   51.9005 187.74   7.7 104.4  9     0.0000
KYMI   ?    E    ? S_2    ? 20150609 0411   31.0600 GAU  1.50e-01 -1.00e+00 -1.00e+00 -1.00e+00 >   18.5970   -0.2146    1.1534  444.2061  526.4736   -0.2590   59.3732  85.96 266.0 102.0  9     0.0000
PTL    ?    N    ? S_2    ? 20150609 0411   35.1600 GAU  1.50e-01 -1.00e+00 -1.00e+00 -1.00e+00 >   23.0744   -0.5920    0.9392  427.0491  460.2731   -0.5000   74.9380 145.85 325.8  88.8  8     0.0000
DION   ?    N    ? S_2    ? 20150609 0411   36.0300 GAU  1.50e-01 -1.00e+00 -1.00e+00 -1.00e+00 >   23.2274    0.1250    1.0889  432.9565  463.9943   -0.4600   75.4979 140.55 320.5  87.4  9     0.0000
ATH    ?    N    ? S_2    ? 20150609 0411   36.4600 GAU  1.50e-01 -1.00e+00 -1.00e+00 -1.00e+00 >   23.5322    0.2501    1.0607  414.6204  451.4447   -0.0930   76.7945 157.30 337.3  83.2  8     0.0000
LTK    ?    N    ? S_2    ? 20150609 0411   37.3700 GAU  1.50e-01 -1.00e+00 -1.00e+00 -1.00e+00 >   23.8161    0.8762    0.7730  348.4175  453.8043   -0.4080   77.6336 208.10  28.1  82.4  8     0.0000
NEO    ?    N    ? S_2    ? 20150609 0411   36.7400 GAU  1.50e-01 -1.00e+00 -1.00e+00 -1.00e+00 >   23.8834    0.1789    1.0694  364.2066  597.2781   -0.5100   77.8136 344.52 164.5  82.3  8     0.0000
ATHU   ?    E    ? S_2    ? 20150609 0411   36.8400 GAU  1.50e-01 -1.00e+00 -1.00e+00 -1.00e+00 >   24.3668   -0.2045    1.0574  420.5452  450.9346   -0.3080   79.7261 153.51 333.5  77.2  8     0.0000
LOUT   ?    E    ? S_2    ? 20150609 0411   37.6500 GAU  1.50e-01 -1.00e+00 -1.00e+00 -1.00e+00 >   24.6279    0.3444    1.0178  349.1983  449.9545   -0.3070   80.7007 206.32  26.3  75.0  8     0.0000
XOR    ?    E    ? S_2    ? 20150609 0411   38.9500 GAU  1.50e-01 -1.00e+00 -1.00e+00 -1.00e+00 >   25.7920    0.4804    0.9553  361.3232  603.8675   -0.5000   84.9398 343.83 163.8  68.2  9     0.0000
VLY    ?    N    ? S_2    ? 20150609 0411   39.7800 GAU  1.50e-01 -1.00e+00 -1.00e+00 -1.00e+00 >   27.5673   -0.4649    0.9396  422.0515  438.3032   -0.2560   91.8032 156.18 336.2  66.3 10     0.0000
THAL   ?    N    ? S_2    ? 20150609 0411   41.1100 GAU  1.50e-01 -1.00e+00 -1.00e+00 -1.00e+00 >   27.8807    0.5517    0.9032  321.6626  454.1401   -0.1960   93.0237 222.90  42.9  66.2 10     0.0000
SKY    ?    N    ? S_2    ? 20150609 0411   42.2500 GAU  1.50e-01 -1.00e+00 -1.00e+00 -1.00e+00 >   30.4013   -0.8289    0.7698  481.5709  556.5269   -0.2680  102.4790  70.48 250.5  66.2 10     0.0000
AGG    ?    N    ? S_2    ? 20150609 0411   43.8200 GAU  1.50e-01 -1.00e+00 -1.00e+00 -1.00e+00 >   30.9022    0.2402    0.9436  288.9340  562.4842   -0.6220  104.1183 292.71 112.7  66.2 10     0.0000
KARY   ?    N    ? S_2    ? 20150609 0411   45.0700 GAU  1.50e-01 -1.00e+00 -1.00e+00 -1.00e+00 >   32.5830   -0.1906    0.9249  477.5105  461.3819   -0.2200  110.7765 123.35 303.4  64.5 10     0.0000
MAKR   ?    N    ? S_1    ? 20150609 0411   47.3900 GAU  1.00e-01 -1.00e+00 -1.00e+00 -1.00e+00 >   35.0490   -0.3366    0.8717  271.2658  560.9773   -0.5320  120.1160 288.79 108.8  61.8 10     0.0000
SERG   ?    E    ? S_2    ? 20150609 0411   47.7800 GAU  1.50e-01 -1.00e+00 -1.00e+00 -1.00e+00 >   35.3424   -0.2401    0.8786  266.9841  494.1402   -0.4800  121.3075 256.58  76.6  61.6 10     0.0000
KLV    ?    E    ? S_2    ? 20150609 0411   49.5800 GAU  1.50e-01 -1.00e+00 -1.00e+00 -1.00e+00 >   37.2119   -0.3096    0.8441  276.5769  453.3757   -0.7580  128.4537 237.56  57.6  60.6 10     0.0000
ATAL   ?    Z    ? P_0    ? 20150609 0411   19.6300 GAU  5.00e-02 -1.00e+00 -1.00e+00 -1.00e+00 >    0.0000    0.0000    0.0000  349.9163  528.4007   -0.2900    0.0000   0.00 359.0  -1.0  0     0.0000
LKR    ?    Z    ? P_0    ? 20150609 0411   19.9800 GAU  5.00e-02 -1.00e+00 -1.00e+00 -1.00e+00 >    0.0000    0.0000    0.0000  348.1669  523.5278   -0.1850    0.0000   0.00 359.0  -1.0  0     0.0000
SMIA   ?    Z    ? P_0    ? 20150609 0411   20.0600 GAU  5.00e-02 -1.00e+00 -1.00e+00 -1.00e+00 >    0.0000    0.0000    0.0000  365.3005  549.8513   -0.4480    0.0000   0.00 359.0  -1.0  0     0.0000
VILL   ?    Z    ? P_0    ? 20150609 0411   22.3700 GAU  5.00e-02 -1.00e+00 -1.00e+00 -1.00e+00 >    0.0000    0.0000    0.0000  377.9901  470.8612   -0.6500    0.0000   0.00 359.0  -1.0  0     0.0000
EREA   ?    Z    ? P_0    ? 20150609 0411   22.3900 GAU  5.00e-02 -1.00e+00 -1.00e+00 -1.00e+00 >    0.0000    0.0000    0.0000  430.8126  501.9836   -0.4750    0.0000   0.00 359.0  -1.0  0     0.0000
KYMI   ?    Z    ? P_0    ? 20150609 0411   23.8000 GAU  5.00e-02 -1.00e+00 -1.00e+00 -1.00e+00 >    0.0000    0.0000    0.0000  444.2061  526.4736   -0.2590    0.0000   0.00 359.0  -1.0  0     0.0000
ALNA   ?    Z    ? P_0    ? 20150609 0411   25.9900 GAU  5.00e-02 -1.00e+00 -1.00e+00 -1.00e+00 >    0.0000    0.0000    0.0000 -100000000000000000000.0000 -100000000000000000000.0000 -100000000000000000000.0000    0.0000   0.00 359.0  -1.0  0     0.0000
PTL    ?    Z    ? P_0    ? 20150609 0411   26.3500 GAU  5.00e-02 -1.00e+00 -1.00e+00 -1.00e+00 >    0.0000    0.0000    0.0000  427.0491  460.2731   -0.5000    0.0000   0.00 359.0  -1.0  0     0.0000
LTK    ?    Z    ? P_1    ? 20150609 0411   26.4200 GAU  1.00e-01 -1.00e+00 -1.00e+00 -1.00e+00 >    0.0000    0.0000    0.0000  348.4175  453.8043   -0.4080    0.0000   0.00 359.0  -1.0  0     0.0000
DION   ?    Z    ? P_1    ? 20150609 0411   26.4700 GAU  1.00e-01 -1.00e+00 -1.00e+00 -1.00e+00 >    0.0000    0.0000    0.0000  432.9565  463.9943   -0.4600    0.0000   0.00 359.0  -1.0  0     0.0000
ATH    ?    Z    ? P_1    ? 20150609 0411   26.9100 GAU  1.00e-01 -1.00e+00 -1.00e+00 -1.00e+00 >    0.0000    0.0000    0.0000  414.6204  451.4447   -0.0930    0.0000   0.00 359.0  -1.0  0     0.0000
LOUT   ?    Z    ? P_0    ? 20150609 0411   27.0100 GAU  5.00e-02 -1.00e+00 -1.00e+00 -1.00e+00 >    0.0000    0.0000    0.0000  349.1983  449.9545   -0.3070    0.0000   0.00 359.0  -1.0  0     0.0000
DLFA   ?    Z    ? P_1    ? 20150609 0411   27.0300 GAU  1.00e-01 -1.00e+00 -1.00e+00 -1.00e+00 >    0.0000    0.0000    0.0000 -100000000000000000000.0000 -100000000000000000000.0000 -100000000000000000000.0000    0.0000   0.00 359.0  -1.0  0     0.0000
NEO    ?    Z    ? P_1    ? 20150609 0411   27.0400 GAU  1.00e-01 -1.00e+00 -1.00e+00 -1.00e+00 >    0.0000    0.0000    0.0000  364.2066  597.2781   -0.5100    0.0000   0.00 359.0  -1.0  0     0.0000
ATHU   ?    Z    ? P_0    ? 20150609 0411   27.1400 GAU  5.00e-02 -1.00e+00 -1.00e+00 -1.00e+00 >    0.0000    0.0000    0.0000  420.5452  450.9346   -0.3080    0.0000   0.00 359.0  -1.0  0     0.0000
XOR    ?    Z    ? P_1    ? 20150609 0411   27.5300 GAU  1.00e-01 -1.00e+00 -1.00e+00 -1.00e+00 >    0.0000    0.0000    0.0000  361.3232  603.8675   -0.5000    0.0000   0.00 359.0  -1.0  0     0.0000
THAL   ?    Z    ? P_1    ? 20150609 0411   28.5500 GAU  1.00e-01 -1.00e+00 -1.00e+00 -1.00e+00 >    0.0000    0.0000    0.0000  321.6626  454.1401   -0.1960    0.0000   0.00 359.0  -1.0  0     0.0000
VLY    ?    Z    ? P_0    ? 20150609 0411   28.9800 GAU  5.00e-02 -1.00e+00 -1.00e+00 -1.00e+00 >    0.0000    0.0000    0.0000  422.0515  438.3032   -0.2560    0.0000   0.00 359.0  -1.0  0     0.0000
SKY    ?    Z    ? P_0    ? 20150609 0411   30.7900 GAU  5.00e-02 -1.00e+00 -1.00e+00 -1.00e+00 >    0.0000    0.0000    0.0000  481.5709  556.5269   -0.2680    0.0000   0.00 359.0  -1.0  0     0.0000
AGG    ?    Z    ? P_1    ? 20150609 0411   31.1500 GAU  1.00e-01 -1.00e+00 -1.00e+00 -1.00e+00 >    0.0000    0.0000    0.0000  288.9340  562.4842   -0.6220    0.0000   0.00 359.0  -1.0  0     0.0000
KARY   ?    Z    ? P_1    ? 20150609 0411   32.2000 GAU  1.00e-01 -1.00e+00 -1.00e+00 -1.00e+00 >    0.0000    0.0000    0.0000  477.5105  461.3819   -0.2200    0.0000   0.00 359.0  -1.0  0     0.0000
TRIZ   ?    Z    ? P_1    ? 20150609 0411   33.0800 GAU  1.00e-01 -1.00e+00 -1.00e+00 -1.00e+00 >    0.0000    0.0000    0.0000  268.5677  488.8792   -0.0570    0.0000   0.00 359.0  -1.0  0     0.0000
SERG   ?    Z    ? P_1    ? 20150609 0411   33.1600 GAU  1.00e-01 -1.00e+00 -1.00e+00 -1.00e+00 >    0.0000    0.0000    0.0000  266.9841  494.1402   -0.4800    0.0000   0.00 359.0  -1.0  0     0.0000
ALNA   ?    E    ? S_1    ? 20150609 0411   34.0500 GAU  1.00e-01 -1.00e+00 -1.00e+00 -1.00e+00 >    0.0000    0.0000    0.0000 -100000000000000000000.0000 -100000000000000000000.0000 -100000000000000000000.0000    0.0000   0.00 359.0  -1.0  0     0.0000
MAKR   ?    Z    ? P_0    ? 20150609 0411   34.3200 GAU  5.00e-02 -1.00e+00 -1.00e+00 -1.00e+00 >    0.0000    0.0000    0.0000  271.2658  560.9773   -0.5320    0.0000   0.00 359.0  -1.0  0     0.0000
ANX    ?    Z    ? P_1    ? 20150609 0411   34.8600 GAU  1.00e-01 -1.00e+00 -1.00e+00 -1.00e+00 >    0.0000    0.0000    0.0000  254.4939  513.7426   -1.0200    0.0000   0.00 359.0  -1.0  0     0.0000
EFP    ?    Z    ? P_1    ? 20150609 0411   35.1500 GAU  1.00e-01 -1.00e+00 -1.00e+00 -1.00e+00 >    0.0000    0.0000    0.0000  253.7619  495.2240   -0.1350    0.0000   0.00 359.0  -1.0  0     0.0000
KLV    ?    Z    ? P_1    ? 20150609 0411   35.4200 GAU  1.00e-01 -1.00e+00 -1.00e+00 -1.00e+00 >    0.0000    0.0000    0.0000  276.5769  453.3757   -0.7580    0.0000   0.00 359.0  -1.0  0     0.0000
LAKA   ?    Z    ? P_1    ? 20150609 0411   35.9400 GAU  1.00e-01 -1.00e+00 -1.00e+00 -1.00e+00 >    0.0000    0.0000    0.0000  260.7815  474.6850   -0.5050    0.0000   0.00 359.0  -1.0  0     0.0000
KRND   ?    Z    ? P_2    ? 20150609 0411   36.5400 GAU  1.50e-01 -1.00e+00 -1.00e+00 -1.00e+00 >    0.0000    0.0000    0.0000  367.6403  383.4474   -0.1400    0.0000   0.00 359.0  -1.0  0     0.0000
YDRA   ?    Z    ? P_2    ? 20150609 0411   37.1100 GAU  1.50e-01 -1.00e+00 -1.00e+00 -1.00e+00 >    0.0000    0.0000    0.0000 -100000000000000000000.0000 -100000000000000000000.0000 -100000000000000000000.0000    0.0000   0.00 359.0  -1.0  0     0.0000
PAIG   ?    Z    ? P_2    ? 20150609 0411   37.3200 GAU  1.50e-01 -1.00e+00 -1.00e+00 -1.00e+00 >    0.0000    0.0000    0.0000  399.8196  669.2824   -0.2130    0.0000   0.00 359.0  -1.0  0     0.0000
DLFA   ?    N    ? S_2    ? 20150609 0411   38.2700 GAU  1.50e-01 -1.00e+00 -1.00e+00 -1.00e+00 >    0.0000    0.0000    0.0000 -100000000000000000000.0000 -100000000000000000000.0000 -100000000000000000000.0000    0.0000   0.00 359.0  -1.0  0     0.0000
THL    ?    Z    ? P_0    ? 20150609 0411   39.7500 GAU  5.00e-02 -1.00e+00 -1.00e+00 -1.00e+00 >    0.0000    0.0000    0.0000  259.0615  621.8678   -0.0860    0.0000   0.00 359.0  -1.0  0     0.0000
DRO    ?    Z    ? P_2    ? 20150609 0411   40.3400 GAU  1.50e-01 -1.00e+00 -1.00e+00 -1.00e+00 >    0.0000    0.0000    0.0000  238.2989  441.9997   -0.4710    0.0000   0.00 359.0  -1.0  0     0.0000
PVO    ?    Z    ? P_2    ? 20150609 0411   40.5600 GAU  1.50e-01 -1.00e+00 -1.00e+00 -1.00e+00 >    0.0000    0.0000    0.0000  220.0012  515.3193   -0.1880    0.0000   0.00 359.0  -1.0  0     0.0000
VLX    ?    Z    ? P_1    ? 20150609 0411   40.8600 GAU  1.00e-01 -1.00e+00 -1.00e+00 -1.00e+00 >    0.0000    0.0000    0.0000  299.3783  379.3080   -1.0310    0.0000   0.00 359.0  -1.0  0     0.0000
LIT    ?    Z    ? P_2    ? 20150609 0411   42.3300 GAU  1.50e-01 -1.00e+00 -1.00e+00 -1.00e+00 >    0.0000    0.0000    0.0000  297.5600  682.8446   -0.5680    0.0000   0.00 359.0  -1.0  0     0.0000
OUR    ?    Z    ? P_1    ? 20150609 0411   43.5500 GAU  1.00e-01 -1.00e+00 -1.00e+00 -1.00e+00 >    0.0000    0.0000    0.0000  423.4394  714.8860   -0.0600    0.0000   0.00 359.0  -1.0  0     0.0000
PLG    ?    Z    ? P_1    ? 20150609 0411   43.6300 GAU  1.00e-01 -1.00e+00 -1.00e+00 -1.00e+00 >    0.0000    0.0000    0.0000  377.4708  716.5992   -0.5900    0.0000   0.00 359.0  -1.0  0     0.0000
PDO    ?    Z    ? P_1    ? 20150609 0411   45.8400 GAU  1.00e-01 -1.00e+00 -1.00e+00 -1.00e+00 >    0.0000    0.0000    0.0000  190.2057  512.5439   -0.2270    0.0000   0.00 359.0  -1.0  0     0.0000
VLI    ?    Z    ? P_1    ? 20150609 0411   46.3900 GAU  1.00e-01 -1.00e+00 -1.00e+00 -1.00e+00 >    0.0000    0.0000    0.0000  352.6845  308.8238   -0.2200    0.0000   0.00 359.0  -1.0  0     0.0000
EVGI   ?    Z    ? P_2    ? 20150609 0411   51.5300 GAU  1.50e-01 -1.00e+00 -1.00e+00 -1.00e+00 >    0.0000    0.0000    0.0000  144.2200  514.0701   -0.2490    0.0000   0.00 359.0  -1.0  0     0.0000
END_PHASE
END_NLLOC

