NLLOC "./loc/husn.20111116.024005.grid0" "LOCATED" "Location completed."
SIGNATURE "Pratul Ranjan   obs:./obs/cornoth_shlw.pick   NLLoc:v7.00.00(27Oct2017)  run:21Jan2020 01h01m17"
COMMENT "2011/01/01-2019/05/31 Corinth North Locations HUSN"
GRID  900 900 250  -10 -10 0  1 1 1 PROB_DENSITY
SEARCH OCTREE nInitial 400 nEvaluated 10008 smallestNodeSide 0.175586/0.175586/0.122070 oct_tree_integral 2.302647e+01 scatter_volume 2.302647e+01
HYPOCENTER  x 311.761 y 484.713 z 14.8315  OT 1.64503  ix -1 iy -1 iz -1 MAXIMUM_LIKELIHOOD
GEOGRAPHIC  OT 2011 11 16  02 40 1.645033  Lat 38.314061 Long 22.564219 Depth 14.831543
QUALITY  Pmax 4.31341e+47 MFmin 14.9202 MFmax 15.2338 RMS 0.347512 Nphs 21 Gap 74.4569 Dist 11.2735 Mamp -9.90 0 Mdur -9.90 0
VPVSRATIO  VpVsRatio -1  Npair 0  Diff -2e+30
STATISTICS  ExpectX 311.772 Y 484.747 Z 14.8507  CovXX 0.552096 XY 0.34043 XZ -0.0307357 YY 1.8087 YZ 1.05474 ZZ 4.74304 EllAz1  107.443 Dip1  4.59307 Len1  1.24987 Az2  198.88 Dip2  17.3331 Len2  2.35957 Len3  4.236364e+00
STAT_GEOG  ExpectLat 38.314356 Long 22.564358 Depth 14.850728
TRANSFORM  TRANS_MERC RefEllipsoid WGS-84  LatOrig 34.000000  LongOrig 19.000000  RotCW 0.000000
QML_OriginQuality  assocPhCt 70  usedPhCt 21  assocStaCt -1  usedStaCt 21  depthPhCt -1  stdErr 0.347512  azGap 74.4569  secAzGap 115.796  gtLevel -  minDist 11.2735 maxDist 124.183 medDist 67.662
QML_OriginUncertainty  horUnc -1  minHorUnc 1.03505  maxHorUnc 2.0877  azMaxHorUnc 14.225
QML_ConfidenceEllipsoid  semiMajorAxisLength 4.23636  semiMinorAxisLength 1.24987  semiIntermediateAxisLength 2.35957  majorAxisPlunge 72.0311  majorAxisAzimuth 3.10099  majorAxisRotation 341.635
FOCALMECH  Hyp  38.314061 22.564219 14.831543 Mech  0 0 0 mf  0 nObs 0
PHASE ID Ins Cmp On Pha  FM Date     HrMn   Sec     Err  ErrMag    Coda      Amp       Per  >   TTpred    Res       Weight    StaLoc(X  Y         Z)        SDist    SAzim  RAz  RDip RQual    Tcorr 
DSF    ?    E    ? S_1    ? 20111116 0240    7.4800 GAU  1.00e-01 -1.00e+00 -1.00e+00 -1.00e+00 >    5.8583   -0.0234    1.4196  308.1008  495.3761   -0.7010   11.2735 341.05 161.1 143.3  9     0.0000
PROD   ?    E    ? S_2    ? 20111116 0240   12.0000 GAU  1.50e-01 -1.00e+00 -1.00e+00 -1.00e+00 >   10.2633    0.0916    1.3278  341.4534  479.7775   -0.3500   30.0996  99.44 279.4 111.8  9     0.0000
THAL   ?    N    ? S_1    ? 20111116 0240   12.1400 GAU  1.00e-01 -1.00e+00 -1.00e+00 -1.00e+00 >   10.7903   -0.2953    1.2399  321.6626  454.1401   -0.1960   32.1366 162.06 342.1 110.1  9     0.0000
KALE   ?    N    ? S_1    ? 20111116 0240   14.3400 GAU  1.00e-01 -1.00e+00 -1.00e+00 -1.00e+00 >   12.5332    0.1618    1.2625  274.3370  491.9195   -0.7600   38.1117 280.90 100.9 106.9  9     0.0000
TRIZ   ?    E    ? S_1    ? 20111116 0240   15.7700 GAU  1.00e-01 -1.00e+00 -1.00e+00 -1.00e+00 >   13.8997    0.2252    1.1995  268.5677  488.8792   -0.0570   43.3940 275.51  95.5 103.9  9     0.0000
KLV    ?    E    ? S_1    ? 20111116 0240   16.1400 GAU  1.00e-01 -1.00e+00 -1.00e+00 -1.00e+00 >   15.0626   -0.5676    0.9932  276.5769  453.3757   -0.7580   47.1167 228.31  48.3 102.9  9     0.0000
LTK    ?    E    ? S_1    ? 20111116 0240   17.1400 GAU  1.00e-01 -1.00e+00 -1.00e+00 -1.00e+00 >   15.2434    0.2516    1.1581  348.4175  453.8043   -0.4080   47.9485 130.14 310.1 102.4  9     0.0000
LOUT   ?    E    ? S_1    ? 20111116 0240   17.9600 GAU  1.00e-01 -1.00e+00 -1.00e+00 -1.00e+00 >   16.1189    0.1961    1.1696  349.1983  449.9545   -0.3070   51.0854 132.88 312.9 101.4  9     0.0000
LAKA   ?    N    ? S_1    ? 20111116 0240   18.2800 GAU  1.00e-01 -1.00e+00 -1.00e+00 -1.00e+00 >   16.3985    0.2365    1.1440  260.7815  474.6850   -0.5050   51.9568 258.87  78.9 101.2  9     0.0000
EFP    ?    N    ? S_2    ? 20111116 0240   19.3600 GAU  1.50e-01 -1.00e+00 -1.00e+00 -1.00e+00 >   18.3380   -0.6230    0.9365  253.7619  495.2240   -0.1350   58.9440 280.27 100.3  99.4  9     0.0000
VILL   ?    E    ? S_1    ? 20111116 0240   22.4100 GAU  1.00e-01 -1.00e+00 -1.00e+00 -1.00e+00 >   20.9178   -0.1529    1.1054  377.9901  470.8612   -0.6500   67.6620 101.81 281.8  97.9  9     0.0000
AGG    ?    E    ? S_1    ? 20111116 0240   25.5600 GAU  1.00e-01 -1.00e+00 -1.00e+00 -1.00e+00 >   24.7687   -0.8537    0.7680  288.9340  562.4842   -0.6220   81.0517 343.64 163.6  96.3  9     0.0000
DRO    ?    N    ? S_2    ? 20111116 0240   27.7100 GAU  1.50e-01 -1.00e+00 -1.00e+00 -1.00e+00 >   25.8780    0.1869    0.9704  238.2989  441.9997   -0.4710   84.9774 239.82  59.8  94.3  9     0.0000
TRIP   ?    E    ? S_2    ? 20111116 0240   28.0600 GAU  1.50e-01 -1.00e+00 -1.00e+00 -1.00e+00 >   27.6889   -1.2740    0.5436  289.1555  396.4568   -0.8200   91.1057 194.37  14.4  84.7  8     0.0000
RLS    ?    E    ? S_2    ? 20111116 0240   32.2900 GAU  1.50e-01 -1.00e+00 -1.00e+00 -1.00e+00 >   30.1258    0.5192    0.8035  216.3327  452.8994   -0.0970  100.5919 251.56  71.6  67.4  9     0.0000
DID    ?    E    ? S_2    ? 20111116 0240   33.7000 GAU  1.50e-01 -1.00e+00 -1.00e+00 -1.00e+00 >   32.0550   -0.0000    0.8871  374.6984  397.4835   -0.5250  107.5646 144.19 324.2  66.2 10     0.0000
ATHU   ?    E    ? S_2    ? 20111116 0240   34.6600 GAU  1.50e-01 -1.00e+00 -1.00e+00 -1.00e+00 >   33.6899   -0.6750    0.7732  420.5452  450.9346   -0.3080  113.9076 107.25 287.3  65.0 10     0.0000
KRND   ?    N    ? S_2    ? 20111116 0240   36.0500 GAU  1.50e-01 -1.00e+00 -1.00e+00 -1.00e+00 >   34.1167    0.2882    0.8182  367.6403  383.4474   -0.1400  115.6601 151.11 331.1  64.2 10     0.0000
PTL    ?    E    ? S_2    ? 20111116 0240   36.5000 GAU  1.50e-01 -1.00e+00 -1.00e+00 -1.00e+00 >   34.7549    0.1001    0.8369  427.0491  460.2731   -0.5000  117.8500 101.97 282.0  63.5 10     0.0000
VLY    ?    N    ? S_1    ? 20111116 0240   36.4900 GAU  1.00e-01 -1.00e+00 -1.00e+00 -1.00e+00 >   35.1736   -0.3286    0.8285  422.0515  438.3032   -0.2560  119.6572 112.82 292.8  62.8 10     0.0000
NEO    ?    N    ? S_1    ? 20111116 0240   37.7300 GAU  1.00e-01 -1.00e+00 -1.00e+00 -1.00e+00 >   36.3836   -0.2987    0.8147  364.2066  597.2781   -0.5100  124.1826  24.98 205.0  61.8 10     0.0000
DSF    ?    Z    ? P_0    ? 20111116 0240    5.1200 GAU  5.00e-02 -1.00e+00 -1.00e+00 -1.00e+00 >    0.0000    0.0000    0.0000  308.1008  495.3761   -0.7010    0.0000   0.00 359.0  -1.0  0     0.0000
PROD   ?    Z    ? P_1    ? 20111116 0240    7.3500 GAU  1.00e-01 -1.00e+00 -1.00e+00 -1.00e+00 >    0.0000    0.0000    0.0000  341.4534  479.7775   -0.3500    0.0000   0.00 359.0  -1.0  0     0.0000
THAL   ?    Z    ? P_1    ? 20111116 0240    7.8100 GAU  1.00e-01 -1.00e+00 -1.00e+00 -1.00e+00 >    0.0000    0.0000    0.0000  321.6626  454.1401   -0.1960    0.0000   0.00 359.0  -1.0  0     0.0000
KALE   ?    Z    ? P_0    ? 20111116 0240    8.8800 GAU  5.00e-02 -1.00e+00 -1.00e+00 -1.00e+00 >    0.0000    0.0000    0.0000  274.3370  491.9195   -0.7600    0.0000   0.00 359.0  -1.0  0     0.0000
TRIZ   ?    Z    ? P_1    ? 20111116 0240    9.6000 GAU  1.00e-01 -1.00e+00 -1.00e+00 -1.00e+00 >    0.0000    0.0000    0.0000  268.5677  488.8792   -0.0570    0.0000   0.00 359.0  -1.0  0     0.0000
SERG   ?    N    ? P_1    ? 20111116 0240   10.0000 GAU  1.00e-01 -1.00e+00 -1.00e+00 -1.00e+00 >    0.0000    0.0000    0.0000  266.9841  494.1402   -0.4800    0.0000   0.00 359.0  -1.0  0     0.0000
GUR    ?    Z    ? P_0    ? 20111116 0240   10.0000 GAU  5.00e-02 -1.00e+00 -1.00e+00 -1.00e+00 >    0.0000    0.0000    0.0000  293.8572  442.0388   -1.0800    0.0000   0.00 359.0  -1.0  0     0.0000
KLV    ?    Z    ? P_0    ? 20111116 0240   10.0300 GAU  5.00e-02 -1.00e+00 -1.00e+00 -1.00e+00 >    0.0000    0.0000    0.0000  276.5769  453.3757   -0.7580    0.0000   0.00 359.0  -1.0  0     0.0000
LTK    ?    Z    ? P_1    ? 20111116 0240   10.2000 GAU  1.00e-01 -1.00e+00 -1.00e+00 -1.00e+00 >    0.0000    0.0000    0.0000  348.4175  453.8043   -0.4080    0.0000   0.00 359.0  -1.0  0     0.0000
LKR    ?    Z    ? P_0    ? 20111116 0240   10.5900 GAU  5.00e-02 -1.00e+00 -1.00e+00 -1.00e+00 >    0.0000    0.0000    0.0000  348.1669  523.5278   -0.1850    0.0000   0.00 359.0  -1.0  0     0.0000
AXAR   ?    Z    ? P_0    ? 20111116 0240   10.7400 GAU  5.00e-02 -1.00e+00 -1.00e+00 -1.00e+00 >    0.0000    0.0000    0.0000  318.0527  535.2736   -0.4060    0.0000   0.00 359.0  -1.0  0     0.0000
LOUT   ?    Z    ? P_0    ? 20111116 0240   10.8900 GAU  5.00e-02 -1.00e+00 -1.00e+00 -1.00e+00 >    0.0000    0.0000    0.0000  349.1983  449.9545   -0.3070    0.0000   0.00 359.0  -1.0  0     0.0000
LAKA   ?    Z    ? P_1    ? 20111116 0240   11.2200 GAU  1.00e-01 -1.00e+00 -1.00e+00 -1.00e+00 >    0.0000    0.0000    0.0000  260.7815  474.6850   -0.5050    0.0000   0.00 359.0  -1.0  0     0.0000
EFP    ?    Z    ? P_2    ? 20111116 0240   12.3300 GAU  1.50e-01 -1.00e+00 -1.00e+00 -1.00e+00 >    0.0000    0.0000    0.0000  253.7619  495.2240   -0.1350    0.0000   0.00 359.0  -1.0  0     0.0000
VILL   ?    Z    ? P_1    ? 20111116 0240   13.0900 GAU  1.00e-01 -1.00e+00 -1.00e+00 -1.00e+00 >    0.0000    0.0000    0.0000  377.9901  470.8612   -0.6500    0.0000   0.00 359.0  -1.0  0     0.0000
UPR    ?    Z    ? P_3    ? 20111116 0240   14.3100 GAU  2.00e-01 -1.00e+00 -1.00e+00 -1.00e+00 >    0.0000    0.0000    0.0000  243.8134  478.9906   -0.1380    0.0000   0.00 359.0  -1.0  0     0.0000
AGG    ?    Z    ? P_1    ? 20111116 0240   15.7100 GAU  1.00e-01 -1.00e+00 -1.00e+00 -1.00e+00 >    0.0000    0.0000    0.0000  288.9340  562.4842   -0.6220    0.0000   0.00 359.0  -1.0  0     0.0000
GUR    ?    E    ? S_1    ? 20111116 0240   15.8600 GAU  1.00e-01 -1.00e+00 -1.00e+00 -1.00e+00 >    0.0000    0.0000    0.0000  293.8572  442.0388   -1.0800    0.0000   0.00 359.0  -1.0  0     0.0000
DRO    ?    Z    ? P_1    ? 20111116 0240   16.5000 GAU  1.00e-01 -1.00e+00 -1.00e+00 -1.00e+00 >    0.0000    0.0000    0.0000  238.2989  441.9997   -0.4710    0.0000   0.00 359.0  -1.0  0     0.0000
TRIP   ?    Z    ? P_1    ? 20111116 0240   17.2800 GAU  1.00e-01 -1.00e+00 -1.00e+00 -1.00e+00 >    0.0000    0.0000    0.0000  289.1555  396.4568   -0.8200    0.0000   0.00 359.0  -1.0  0     0.0000
EVR    ?    Z    ? P_1    ? 20111116 0240   18.1600 GAU  1.00e-01 -1.00e+00 -1.00e+00 -1.00e+00 >    0.0000    0.0000    0.0000  243.7702  549.3303   -1.0370    0.0000   0.00 359.0  -1.0  0     0.0000
PVO    ?    N    ? P_1    ? 20111116 0240   18.9600 GAU  1.00e-01 -1.00e+00 -1.00e+00 -1.00e+00 >    0.0000    0.0000    0.0000  220.0012  515.3193   -0.1880    0.0000   0.00 359.0  -1.0  0     0.0000
RLS    ?    Z    ? P_1    ? 20111116 0240   19.5300 GAU  1.00e-01 -1.00e+00 -1.00e+00 -1.00e+00 >    0.0000    0.0000    0.0000  216.3327  452.8994   -0.0970    0.0000   0.00 359.0  -1.0  0     0.0000
VLX    ?    Z    ? P_3    ? 20111116 0240   19.6100 GAU  2.00e-01 -1.00e+00 -1.00e+00 -1.00e+00 >    0.0000    0.0000    0.0000  299.3783  379.3080   -1.0310    0.0000   0.00 359.0  -1.0  0     0.0000
VLX    ?    Z    ? P_0    ? 20111116 0240   19.6300 GAU  5.00e-02 -1.00e+00 -1.00e+00 -1.00e+00 >    0.0000    0.0000    0.0000  299.3783  379.3080   -1.0310    0.0000   0.00 359.0  -1.0  0     0.0000
DID    ?    Z    ? P_1    ? 20111116 0240   19.9900 GAU  1.00e-01 -1.00e+00 -1.00e+00 -1.00e+00 >    0.0000    0.0000    0.0000  374.6984  397.4835   -0.5250    0.0000   0.00 359.0  -1.0  0     0.0000
ATH    ?    Z    ? P_3    ? 20111116 0240   20.5500 GAU  2.00e-01 -1.00e+00 -1.00e+00 -1.00e+00 >    0.0000    0.0000    0.0000  414.6204  451.4447   -0.0930    0.0000   0.00 359.0  -1.0  0     0.0000
ATHU   ?    Z    ? P_1    ? 20111116 0240   21.2200 GAU  1.00e-01 -1.00e+00 -1.00e+00 -1.00e+00 >    0.0000    0.0000    0.0000  420.5452  450.9346   -0.3080    0.0000   0.00 359.0  -1.0  0     0.0000
AMT    ?    Z    ? P_1    ? 20111116 0240   21.2500 GAU  1.00e-01 -1.00e+00 -1.00e+00 -1.00e+00 >    0.0000    0.0000    0.0000  239.4554  395.3867   -0.4820    0.0000   0.00 359.0  -1.0  0     0.0000
KRND   ?    Z    ? P_1    ? 20111116 0240   21.3400 GAU  1.00e-01 -1.00e+00 -1.00e+00 -1.00e+00 >    0.0000    0.0000    0.0000  367.6403  383.4474   -0.1400    0.0000   0.00 359.0  -1.0  0     0.0000
PTL    ?    Z    ? P_1    ? 20111116 0240   21.7800 GAU  1.00e-01 -1.00e+00 -1.00e+00 -1.00e+00 >    0.0000    0.0000    0.0000  427.0491  460.2731   -0.5000    0.0000   0.00 359.0  -1.0  0     0.0000
VLY    ?    Z    ? P_1    ? 20111116 0240   21.8600 GAU  1.00e-01 -1.00e+00 -1.00e+00 -1.00e+00 >    0.0000    0.0000    0.0000  422.0515  438.3032   -0.2560    0.0000   0.00 359.0  -1.0  0     0.0000
SKIA   ?    Z    ? P_1    ? 20111116 0240   22.5800 GAU  1.00e-01 -1.00e+00 -1.00e+00 -1.00e+00 >    0.0000    0.0000    0.0000  386.0535  582.8403   -0.3250    0.0000   0.00 359.0  -1.0  0     0.0000
NEO    ?    Z    ? P_1    ? 20111116 0240   22.8500 GAU  1.00e-01 -1.00e+00 -1.00e+00 -1.00e+00 >    0.0000    0.0000    0.0000  364.2066  597.2781   -0.5100    0.0000   0.00 359.0  -1.0  0     0.0000
FYTO   ?    N    ? P_1    ? 20111116 0240   23.2000 GAU  1.00e-01 -1.00e+00 -1.00e+00 -1.00e+00 >    0.0000    0.0000    0.0000  339.3542  607.6181   -0.1920    0.0000   0.00 359.0  -1.0  0     0.0000
XOR    ?    Z    ? P_3    ? 20111116 0240   23.2000 GAU  2.00e-01 -1.00e+00 -1.00e+00 -1.00e+00 >    0.0000    0.0000    0.0000  361.3232  603.8675   -0.5000    0.0000   0.00 359.0  -1.0  0     0.0000
MES4   ?    Z    ? P_3    ? 20111116 0240   23.2800 GAU  2.00e-01 -1.00e+00 -1.00e+00 -1.00e+00 >    0.0000    0.0000    0.0000 -100000000000000000000.0000 -100000000000000000000.0000 -100000000000000000000.0000    0.0000   0.00 359.0  -1.0  0     0.0000
PDO    ?    E    ? P_3    ? 20111116 0240   23.9700 GAU  2.00e-01 -1.00e+00 -1.00e+00 -1.00e+00 >    0.0000    0.0000    0.0000  190.2057  512.5439   -0.2270    0.0000   0.00 359.0  -1.0  0     0.0000
MES1   ?    Z    ? P_3    ? 20111116 0240   24.3000 GAU  2.00e-01 -1.00e+00 -1.00e+00 -1.00e+00 >    0.0000    0.0000    0.0000 -100000000000000000000.0000 -100000000000000000000.0000 -100000000000000000000.0000    0.0000   0.00 359.0  -1.0  0     0.0000
ITM    ?    Z    ? P_1    ? 20111116 0240   24.6900 GAU  1.00e-01 -1.00e+00 -1.00e+00 -1.00e+00 >    0.0000    0.0000    0.0000  259.7970  356.6912   -0.4230    0.0000   0.00 359.0  -1.0  0     0.0000
THL    ?    Z    ? P_1    ? 20111116 0240   26.4900 GAU  1.00e-01 -1.00e+00 -1.00e+00 -1.00e+00 >    0.0000    0.0000    0.0000  259.0615  621.8678   -0.0860    0.0000   0.00 359.0  -1.0  0     0.0000
MES3   ?    Z    ? P_3    ? 20111116 0240   26.6600 GAU  2.00e-01 -1.00e+00 -1.00e+00 -1.00e+00 >    0.0000    0.0000    0.0000 -100000000000000000000.0000 -100000000000000000000.0000 -100000000000000000000.0000    0.0000   0.00 359.0  -1.0  0     0.0000
DSL    ?    Z    ? P_2    ? 20111116 0240   29.0000 GAU  1.50e-01 -1.00e+00 -1.00e+00 -1.00e+00 >    0.0000    0.0000    0.0000  181.2694  571.7901   -0.5250    0.0000   0.00 359.0  -1.0  0     0.0000
KARY   ?    Z    ? P_1    ? 20111116 0240   29.6900 GAU  1.00e-01 -1.00e+00 -1.00e+00 -1.00e+00 >    0.0000    0.0000    0.0000  477.5105  461.3819   -0.2200    0.0000   0.00 359.0  -1.0  0     0.0000
EVR    ?    E    ? S_2    ? 20111116 0240   30.2700 GAU  1.50e-01 -1.00e+00 -1.00e+00 -1.00e+00 >    0.0000    0.0000    0.0000  243.7702  549.3303   -1.0370    0.0000   0.00 359.0  -1.0  0     0.0000
PYL    ?    Z    ? P_2    ? 20111116 0240   30.3700 GAU  1.50e-01 -1.00e+00 -1.00e+00 -1.00e+00 >    0.0000    0.0000    0.0000  244.4299  324.7654   -0.2200    0.0000   0.00 359.0  -1.0  0     0.0000
VLS    ?    Z    ? P_2    ? 20111116 0240   31.0900 GAU  1.50e-01 -1.00e+00 -1.00e+00 -1.00e+00 >    0.0000    0.0000    0.0000  139.1993  464.6540   -0.4020    0.0000   0.00 359.0  -1.0  0     0.0000
MES2   ?    Z    ? P_2    ? 20111116 0240   31.9300 GAU  1.50e-01 -1.00e+00 -1.00e+00 -1.00e+00 >    0.0000    0.0000    0.0000 -100000000000000000000.0000 -100000000000000000000.0000 -100000000000000000000.0000    0.0000   0.00 359.0  -1.0  0     0.0000
VLX    ?    E    ? S_2    ? 20111116 0240   32.4800 GAU  1.50e-01 -1.00e+00 -1.00e+00 -1.00e+00 >    0.0000    0.0000    0.0000  299.3783  379.3080   -1.0310    0.0000   0.00 359.0  -1.0  0     0.0000
END_PHASE
END_NLLOC

