NLLOC "./loc/husn.20140625.164920.grid0" "LOCATED" "Location completed."
SIGNATURE "Pratul Ranjan   obs:./obs/cornoth_shlw.pick   NLLoc:v7.00.00(27Oct2017)  run:21Jan2020 01h00m58"
COMMENT "2011/01/01-2019/05/31 Corinth North Locations HUSN"
GRID  900 900 250  -10 -10 0  1 1 1 PROB_DENSITY
SEARCH OCTREE nInitial 400 nEvaluated 10000 smallestNodeSide 0.175586/0.175586/0.122070 oct_tree_integral 2.605297e+01 scatter_volume 2.544765e+01
HYPOCENTER  x 388.141 y 516.319 z 17.7612  OT 15.8351  ix -1 iy -1 iz -1 MAXIMUM_LIKELIHOOD
GEOGRAPHIC  OT 2014 06 25  16 49 15.835113  Lat 38.568179 Long 23.452683 Depth 17.761230
QUALITY  Pmax 7.41308e+30 MFmin 10.7353 MFmax 11.1103 RMS 0.164484 Nphs 15 Gap 65.4973 Dist 19.3027 Mamp -9.90 0 Mdur -9.90 0
VPVSRATIO  VpVsRatio -1  Npair 0  Diff -2e+30
STATISTICS  ExpectX 388.139 Y 516.241 Z 16.2831  CovXX 1.049 XY -0.0626264 XZ 0.156572 YY 0.609535 YZ 0.405265 ZZ 15.663 EllAz1  188.294 Dip1  1.6097 Len1  1.44181 Az2  278.305 Dip2  0.378131 Len2  1.93172 Len3  7.438731e+00
STAT_GEOG  ExpectLat 38.567481 Long 23.452617 Depth 16.283080
TRANSFORM  TRANS_MERC RefEllipsoid WGS-84  LatOrig 34.000000  LongOrig 19.000000  RotCW 0.000000
QML_OriginQuality  assocPhCt 43  usedPhCt 15  assocStaCt -1  usedStaCt 15  depthPhCt -1  stdErr 0.164484  azGap 65.4973  secAzGap 111.019  gtLevel -  minDist 19.3027 maxDist 91.564 medDist 70.07
QML_OriginUncertainty  horUnc -1  minHorUnc 1.1755  maxHorUnc 1.55975  azMaxHorUnc 97.9542
QML_ConfidenceEllipsoid  semiMajorAxisLength 7.43873  semiMinorAxisLength 1.44181  semiIntermediateAxisLength 1.93172  majorAxisPlunge 88.3465  majorAxisAzimuth 21.5205  majorAxisRotation 283.2
FOCALMECH  Hyp  38.568179 23.452683 17.761230 Mech  0 0 0 mf  0 nObs 0
PHASE ID Ins Cmp On Pha  FM Date     HrMn   Sec     Err  ErrMag    Coda      Amp       Per  >   TTpred    Res       Weight    StaLoc(X  Y         Z)        SDist    SAzim  RAz  RDip RQual    Tcorr 
MRKA   ?    N    ? S_1    ? 20140625 1649   23.8400 GAU  1.00e-01 -1.00e+00 -1.00e+00 -1.00e+00 >    8.0049   -0.0000    1.2857  399.1327  532.1864   -0.4240   19.3027  34.71 214.7 130.1 10     0.0000
LKR    ?    E    ? S_1    ? 20140625 1649   29.0200 GAU  1.00e-01 -1.00e+00 -1.00e+00 -1.00e+00 >   13.3971   -0.2122    1.1262  348.1669  523.5278   -0.1850   40.6191 280.22 100.2 109.8  9     0.0000
VILL   ?    N    ? S_1    ? 20140625 1649   31.0600 GAU  1.00e-01 -1.00e+00 -1.00e+00 -1.00e+00 >   15.1177    0.1072    1.1374  377.9901  470.8612   -0.6500   46.5773 192.59  12.6 107.3  9     0.0000
KYMI   ?    N    ? S_1    ? 20140625 1649   33.8900 GAU  1.00e-01 -1.00e+00 -1.00e+00 -1.00e+00 >   17.9660    0.0889    1.0747  444.2061  526.4736   -0.2590   56.9772  79.73 259.7 103.5  9     0.0000
PROD   ?    E    ? S_1    ? 20140625 1649   34.5900 GAU  1.00e-01 -1.00e+00 -1.00e+00 -1.00e+00 >   18.6337    0.1212    1.0543  341.4534  479.7775   -0.3500   59.2876 231.95  52.0 102.5  9     0.0000
SKIA   ?    E    ? S_0    ? 20140625 1649   36.8500 GAU  5.00e-02 -1.00e+00 -1.00e+00 -1.00e+00 >   20.6925    0.3224    0.9549  386.0535  582.8403   -0.3250   66.5542 358.20 178.2  92.7  9     0.0000
PTL    ?    N    ? S_1    ? 20140625 1649   37.0300 GAU  1.00e-01 -1.00e+00 -1.00e+00 -1.00e+00 >   21.1956   -0.0007    1.0048  427.0491  460.2731   -0.5000   68.2272 145.23 325.2  90.3  9     0.0000
ATH    ?    E    ? S_1    ? 20140625 1649   37.3700 GAU  1.00e-01 -1.00e+00 -1.00e+00 -1.00e+00 >   21.6412   -0.1063    0.9856  414.6204  451.4447   -0.0930   70.0700 157.80 337.8  85.6  8     0.0000
ATHU   ?    E    ? S_1    ? 20140625 1649   37.8500 GAU  1.00e-01 -1.00e+00 -1.00e+00 -1.00e+00 >   22.4701   -0.4552    0.8501  420.5452  450.9346   -0.3080   72.9734 153.64 333.6  80.1  8     0.0000
LTK    ?    E    ? S_1    ? 20140625 1649   38.8700 GAU  1.00e-01 -1.00e+00 -1.00e+00 -1.00e+00 >   22.7847    0.2501    0.9368  348.4175  453.8043   -0.4080   74.0678 212.43  32.4  78.1  8     0.0000
AOS    ?    N    ? S_1    ? 20140625 1649   39.2400 GAU  1.00e-01 -1.00e+00 -1.00e+00 -1.00e+00 >   23.4231   -0.0182    0.9554  421.8273  585.0771   -0.2000   76.5667  26.10 206.1  72.8  8     0.0000
LOUT   ?    E    ? S_1    ? 20140625 1649   39.4500 GAU  1.00e-01 -1.00e+00 -1.00e+00 -1.00e+00 >   23.5437    0.0712    0.9515  349.1983  449.9545   -0.3070   76.9465 210.40  30.4  72.4  9     0.0000
NEO    ?    N    ? S_1    ? 20140625 1649   41.4100 GAU  1.00e-01 -1.00e+00 -1.00e+00 -1.00e+00 >   25.5714    0.0034    0.9112  364.2066  597.2781   -0.5100   84.4231 343.53 163.5  66.9  9     0.0000
VLY    ?    E    ? S_2    ? 20140625 1649   41.6300 GAU  1.50e-01 -1.00e+00 -1.00e+00 -1.00e+00 >   25.6948    0.1001    0.8999  422.0515  438.3032   -0.2560   85.0668 156.51 336.5  66.7  9     0.0000
XOR    ?    N    ? S_1    ? 20140625 1649   43.2400 GAU  1.00e-01 -1.00e+00 -1.00e+00 -1.00e+00 >   27.4639   -0.0590    0.8717  361.3232  603.8675   -0.5000   91.5640 342.97 163.0  66.2 10     0.0000
MRKA   ?    Z    ? P_0    ? 20140625 1649   20.7900 GAU  5.00e-02 -1.00e+00 -1.00e+00 -1.00e+00 >    0.0000    0.0000    0.0000  399.1327  532.1864   -0.4240    0.0000   0.00 359.0  -1.0  0     0.0000
LKR    ?    Z    ? P_0    ? 20140625 1649   23.5100 GAU  5.00e-02 -1.00e+00 -1.00e+00 -1.00e+00 >    0.0000    0.0000    0.0000  348.1669  523.5278   -0.1850    0.0000   0.00 359.0  -1.0  0     0.0000
VILL   ?    Z    ? P_0    ? 20140625 1649   24.5600 GAU  5.00e-02 -1.00e+00 -1.00e+00 -1.00e+00 >    0.0000    0.0000    0.0000  377.9901  470.8612   -0.6500    0.0000   0.00 359.0  -1.0  0     0.0000
KYMI   ?    Z    ? P_0    ? 20140625 1649   26.3700 GAU  5.00e-02 -1.00e+00 -1.00e+00 -1.00e+00 >    0.0000    0.0000    0.0000  444.2061  526.4736   -0.2590    0.0000   0.00 359.0  -1.0  0     0.0000
PROD   ?    Z    ? P_0    ? 20140625 1649   26.4700 GAU  5.00e-02 -1.00e+00 -1.00e+00 -1.00e+00 >    0.0000    0.0000    0.0000  341.4534  479.7775   -0.3500    0.0000   0.00 359.0  -1.0  0     0.0000
SKIA   ?    Z    ? P_0    ? 20140625 1649   28.3200 GAU  5.00e-02 -1.00e+00 -1.00e+00 -1.00e+00 >    0.0000    0.0000    0.0000  386.0535  582.8403   -0.3250    0.0000   0.00 359.0  -1.0  0     0.0000
PTL    ?    Z    ? P_0    ? 20140625 1649   28.3300 GAU  5.00e-02 -1.00e+00 -1.00e+00 -1.00e+00 >    0.0000    0.0000    0.0000  427.0491  460.2731   -0.5000    0.0000   0.00 359.0  -1.0  0     0.0000
DION   ?    Z    ? P_0    ? 20140625 1649   28.5600 GAU  5.00e-02 -1.00e+00 -1.00e+00 -1.00e+00 >    0.0000    0.0000    0.0000  432.9565  463.9943   -0.4600    0.0000   0.00 359.0  -1.0  0     0.0000
ATH    ?    Z    ? P_0    ? 20140625 1649   28.7700 GAU  5.00e-02 -1.00e+00 -1.00e+00 -1.00e+00 >    0.0000    0.0000    0.0000  414.6204  451.4447   -0.0930    0.0000   0.00 359.0  -1.0  0     0.0000
LTK    ?    Z    ? P_0    ? 20140625 1649   29.1000 GAU  5.00e-02 -1.00e+00 -1.00e+00 -1.00e+00 >    0.0000    0.0000    0.0000  348.4175  453.8043   -0.4080    0.0000   0.00 359.0  -1.0  0     0.0000
ATHU   ?    Z    ? P_0    ? 20140625 1649   29.1300 GAU  5.00e-02 -1.00e+00 -1.00e+00 -1.00e+00 >    0.0000    0.0000    0.0000  420.5452  450.9346   -0.3080    0.0000   0.00 359.0  -1.0  0     0.0000
AOS    ?    Z    ? P_0    ? 20140625 1649   29.3900 GAU  5.00e-02 -1.00e+00 -1.00e+00 -1.00e+00 >    0.0000    0.0000    0.0000  421.8273  585.0771   -0.2000    0.0000   0.00 359.0  -1.0  0     0.0000
LOUT   ?    Z    ? P_0    ? 20140625 1649   29.6600 GAU  5.00e-02 -1.00e+00 -1.00e+00 -1.00e+00 >    0.0000    0.0000    0.0000  349.1983  449.9545   -0.3070    0.0000   0.00 359.0  -1.0  0     0.0000
VLY    ?    Z    ? P_0    ? 20140625 1649   31.1200 GAU  5.00e-02 -1.00e+00 -1.00e+00 -1.00e+00 >    0.0000    0.0000    0.0000  422.0515  438.3032   -0.2560    0.0000   0.00 359.0  -1.0  0     0.0000
NEO    ?    Z    ? P_0    ? 20140625 1649   31.1400 GAU  5.00e-02 -1.00e+00 -1.00e+00 -1.00e+00 >    0.0000    0.0000    0.0000  364.2066  597.2781   -0.5100    0.0000   0.00 359.0  -1.0  0     0.0000
XOR    ?    Z    ? P_0    ? 20140625 1649   32.0900 GAU  5.00e-02 -1.00e+00 -1.00e+00 -1.00e+00 >    0.0000    0.0000    0.0000  361.3232  603.8675   -0.5000    0.0000   0.00 359.0  -1.0  0     0.0000
SKY    ?    Z    ? P_0    ? 20140625 1649   33.9500 GAU  5.00e-02 -1.00e+00 -1.00e+00 -1.00e+00 >    0.0000    0.0000    0.0000  481.5709  556.5269   -0.2680    0.0000   0.00 359.0  -1.0  0     0.0000
KARY   ?    Z    ? P_0    ? 20140625 1649   34.2500 GAU  5.00e-02 -1.00e+00 -1.00e+00 -1.00e+00 >    0.0000    0.0000    0.0000  477.5105  461.3819   -0.2200    0.0000   0.00 359.0  -1.0  0     0.0000
AGG    ?    Z    ? P_0    ? 20140625 1649   35.0300 GAU  5.00e-02 -1.00e+00 -1.00e+00 -1.00e+00 >    0.0000    0.0000    0.0000  288.9340  562.4842   -0.6220    0.0000   0.00 359.0  -1.0  0     0.0000
KALE   ?    Z    ? P_0    ? 20140625 1649   35.8500 GAU  5.00e-02 -1.00e+00 -1.00e+00 -1.00e+00 >    0.0000    0.0000    0.0000  274.3370  491.9195   -0.7600    0.0000   0.00 359.0  -1.0  0     0.0000
DID    ?    Z    ? P_0    ? 20140625 1649   36.5900 GAU  5.00e-02 -1.00e+00 -1.00e+00 -1.00e+00 >    0.0000    0.0000    0.0000  374.6984  397.4835   -0.5250    0.0000   0.00 359.0  -1.0  0     0.0000
GUR    ?    Z    ? P_0    ? 20140625 1649   36.8700 GAU  5.00e-02 -1.00e+00 -1.00e+00 -1.00e+00 >    0.0000    0.0000    0.0000  293.8572  442.0388   -1.0800    0.0000   0.00 359.0  -1.0  0     0.0000
MAKR   ?    Z    ? P_0    ? 20140625 1649   38.0400 GAU  5.00e-02 -1.00e+00 -1.00e+00 -1.00e+00 >    0.0000    0.0000    0.0000  271.2658  560.9773   -0.5320    0.0000   0.00 359.0  -1.0  0     0.0000
KLV    ?    Z    ? P_0    ? 20140625 1649   38.2300 GAU  5.00e-02 -1.00e+00 -1.00e+00 -1.00e+00 >    0.0000    0.0000    0.0000  276.5769  453.3757   -0.7580    0.0000   0.00 359.0  -1.0  0     0.0000
KRND   ?    Z    ? P_0    ? 20140625 1649   38.8800 GAU  5.00e-02 -1.00e+00 -1.00e+00 -1.00e+00 >    0.0000    0.0000    0.0000  367.6403  383.4474   -0.1400    0.0000   0.00 359.0  -1.0  0     0.0000
ANX    ?    Z    ? P_0    ? 20140625 1649   39.2100 GAU  5.00e-02 -1.00e+00 -1.00e+00 -1.00e+00 >    0.0000    0.0000    0.0000  254.4939  513.7426   -1.0200    0.0000   0.00 359.0  -1.0  0     0.0000
SERI   ?    Z    ? P_0    ? 20140625 1649   46.1400 GAU  5.00e-02 -1.00e+00 -1.00e+00 -1.00e+00 >    0.0000    0.0000    0.0000  487.4274  364.8248   -0.4600    0.0000   0.00 359.0  -1.0  0     0.0000
GUR    ?    E    ? S_1    ? 20140625 1649   51.9000 GAU  1.00e-01 -1.00e+00 -1.00e+00 -1.00e+00 >    0.0000    0.0000    0.0000  293.8572  442.0388   -1.0800    0.0000   0.00 359.0  -1.0  0     0.0000
END_PHASE
END_NLLOC

