NLLOC "./loc/husn.20150629.005245.grid0" "LOCATED" "Location completed."
SIGNATURE "Pratul Ranjan   obs:./obs/cornoth_shlw.pick   NLLoc:v7.00.00(27Oct2017)  run:21Jan2020 01h00m34"
COMMENT "2011/01/01-2019/05/31 Corinth North Locations HUSN"
GRID  900 900 250  -10 -10 0  1 1 1 PROB_DENSITY
SEARCH OCTREE nInitial 400 nEvaluated 10016 smallestNodeSide 0.175586/0.175586/0.122070 oct_tree_integral 3.643933e+01 scatter_volume 3.643933e+01
HYPOCENTER  x 354.955 y 502.974 z 16.4185  OT 40.4863  ix -1 iy -1 iz -1 MAXIMUM_LIKELIHOOD
GEOGRAPHIC  OT 2015 06 29  00 52 40.486343  Lat 38.462124 Long 23.066152 Depth 16.418457
QUALITY  Pmax 9.89326e+43 MFmin 13.5751 MFmax 13.9951 RMS 0.363543 Nphs 20 Gap 54.6289 Dist 21.6455 Mamp -9.90 0 Mdur -9.90 0
VPVSRATIO  VpVsRatio -1  Npair 0  Diff -2e+30
STATISTICS  ExpectX 354.887 Y 502.803 Z 15.2192  CovXX 1.02342 XY 0.129274 XZ -0.3952 YY 0.935618 YZ 0.0325375 ZZ 12.0559 EllAz1  322.917 Dip1  -1.34929 Len1  1.71885 Az2  232.881 Dip2  -1.54605 Len2  1.97758 Len3  6.527450e+00
STAT_GEOG  ExpectLat 38.460608 Long 23.065289 Depth 15.219220
TRANSFORM  TRANS_MERC RefEllipsoid WGS-84  LatOrig 34.000000  LongOrig 19.000000  RotCW 0.000000
QML_OriginQuality  assocPhCt 73  usedPhCt 20  assocStaCt -1  usedStaCt 20  depthPhCt -1  stdErr 0.363543  azGap 54.6289  secAzGap 76.1021  gtLevel -  minDist 21.6455 maxDist 137.475 medDist 85.4948
QML_OriginUncertainty  horUnc -1  minHorUnc 1.39244  maxHorUnc 1.60216  azMaxHorUnc 54.3791
QML_ConfidenceEllipsoid  semiMajorAxisLength 6.52745  semiMinorAxisLength 1.71885  semiIntermediateAxisLength 1.97758  majorAxisPlunge -87.9478  majorAxisAzimuth 94.0121  majorAxisRotation 138.814
FOCALMECH  Hyp  38.462124 23.066152 16.418457 Mech  0 0 0 mf  0 nObs 0
PHASE ID Ins Cmp On Pha  FM Date     HrMn   Sec     Err  ErrMag    Coda      Amp       Per  >   TTpred    Res       Weight    StaLoc(X  Y         Z)        SDist    SAzim  RAz  RDip RQual    Tcorr 
LKR    ?    N    ? S_1    ? 20150629 0052   48.6300 GAU  1.00e-01 -1.00e+00 -1.00e+00 -1.00e+00 >    8.2625   -0.1189    1.3168  348.1669  523.5278   -0.1850   21.6455 341.72 161.7 123.6  9     0.0000
VILL   ?    N    ? S_1    ? 20150629 0052   53.6700 GAU  1.00e-01 -1.00e+00 -1.00e+00 -1.00e+00 >   13.0470    0.1366    1.2816  377.9901  470.8612   -0.6500   39.5203 144.35 324.3 108.7  9     0.0000
SMIA   ?    N    ? S_1    ? 20150629 0052   56.3800 GAU  1.00e-01 -1.00e+00 -1.00e+00 -1.00e+00 >   15.3748    0.5188    1.0589  365.3005  549.8513   -0.4480   48.0049  12.44 192.4 104.8  9     0.0000
LTK    ?    N    ? S_1    ? 20150629 0052   56.2100 GAU  1.00e-01 -1.00e+00 -1.00e+00 -1.00e+00 >   15.8177   -0.0940    1.2218  348.4175  453.8043   -0.4080   49.6028 187.57   7.6 104.2  9     0.0000
LOUT   ?    N    ? S_1    ? 20150629 0052   57.7200 GAU  1.00e-01 -1.00e+00 -1.00e+00 -1.00e+00 >   16.8541    0.3796    1.1285  349.1983  449.9545   -0.3070   53.3314 186.20   6.2 102.9  9     0.0000
THAL   ?    N    ? S_1    ? 20150629 0052   58.9700 GAU  1.00e-01 -1.00e+00 -1.00e+00 -1.00e+00 >   18.4761    0.0075    1.1842  321.6626  454.1401   -0.1960   59.1032 214.28  34.3 101.3  9     0.0000
EREA   ?    N    ? S_1    ? 20150629 0053    2.9100 GAU  1.00e-01 -1.00e+00 -1.00e+00 -1.00e+00 >   23.3118   -0.8881    0.7255  430.8126  501.9836   -0.4750   75.8637  90.75 270.7  93.3  9     0.0000
ATH    ?    N    ? S_0    ? 20150629 0053    4.7900 GAU  5.00e-02 -1.00e+00 -1.00e+00 -1.00e+00 >   24.0922    0.2115    1.0603  414.6204  451.4447   -0.0930   78.8366 130.82 310.8  87.4  8     0.0000
ATHU   ?    N    ? S_1    ? 20150629 0053    5.3400 GAU  1.00e-01 -1.00e+00 -1.00e+00 -1.00e+00 >   25.4864   -0.6327    0.8620  420.5452  450.9346   -0.3080   83.7266 128.43 308.4  77.8  8     0.0000
PTL    ?    N    ? S_1    ? 20150629 0053    6.0500 GAU  1.00e-01 -1.00e+00 -1.00e+00 -1.00e+00 >   25.5374    0.0263    1.0447  427.0491  460.2731   -0.5000   83.7908 120.64 300.6  78.2  9     0.0000
DION   ?    N    ? S_0    ? 20150629 0053    6.9700 GAU  5.00e-02 -1.00e+00 -1.00e+00 -1.00e+00 >   26.4514    0.0323    1.0305  432.9565  463.9943   -0.4600   87.1987 116.55 296.6  72.1  8     0.0000
TRIZ   ?    N    ? S_1    ? 20150629 0053    7.1800 GAU  1.00e-01 -1.00e+00 -1.00e+00 -1.00e+00 >   26.4664    0.2273    1.0111  268.5677  488.8792   -0.0570   87.5300 260.73  80.7  70.7  8     0.0000
SERG   ?    N    ? S_1    ? 20150629 0053    6.2100 GAU  1.00e-01 -1.00e+00 -1.00e+00 -1.00e+00 >   26.7793   -1.0556    0.6316  266.9841  494.1402   -0.4800   88.4137 264.27  84.3  70.4  9     0.0000
AGG    ?    E    ? S_1    ? 20150629 0053    7.6800 GAU  1.00e-01 -1.00e+00 -1.00e+00 -1.00e+00 >   26.9307    0.2629    0.9965  288.9340  562.4842   -0.6220   88.8833 312.03 132.0  70.0  8     0.0000
KYMI   ?    N    ? S_1    ? 20150629 0053    8.8100 GAU  1.00e-01 -1.00e+00 -1.00e+00 -1.00e+00 >   27.7688    0.5548    0.8989  444.2061  526.4736   -0.2590   92.2925  75.25 255.2  66.9  9     0.0000
KLV    ?    N    ? S_1    ? 20150629 0053    8.7200 GAU  1.00e-01 -1.00e+00 -1.00e+00 -1.00e+00 >   27.9836    0.2500    0.9807  276.5769  453.3757   -0.7580   92.7534 237.67  57.7  67.1  9     0.0000
VLY    ?    E    ? S_1    ? 20150629 0053    8.5200 GAU  1.00e-01 -1.00e+00 -1.00e+00 -1.00e+00 >   28.0062    0.0275    0.9991  422.0515  438.3032   -0.2560   93.1893 133.95 313.9  66.6  9     0.0000
XOR    ?    N    ? S_1    ? 20150629 0053   10.1900 GAU  1.00e-01 -1.00e+00 -1.00e+00 -1.00e+00 >   30.1486   -0.4449    0.8872  361.3232  603.8675   -0.5000  101.0940   3.61 183.6  66.2 10     0.0000
EFP    ?    N    ? S_2    ? 20150629 0053   10.6500 GAU  1.50e-01 -1.00e+00 -1.00e+00 -1.00e+00 >   30.1863   -0.0226    0.9559  253.7619  495.2240   -0.1350  101.4898 265.62  85.6  66.2 10     0.0000
SKY    ?    N    ? S_1    ? 20150629 0053   20.6500 GAU  1.00e-01 -1.00e+00 -1.00e+00 -1.00e+00 >   39.4483    0.7153    0.7241  481.5709  556.5269   -0.2680  137.4750  67.07 247.1  58.2 10     0.0000
LKR    ?    Z    ? P_0    ? 20150629 0052   45.6100 GAU  5.00e-02 -1.00e+00 -1.00e+00 -1.00e+00 >    0.0000    0.0000    0.0000  348.1669  523.5278   -0.1850    0.0000   0.00 359.0  -1.0  0     0.0000
VILL   ?    Z    ? P_0    ? 20150629 0052   47.8600 GAU  5.00e-02 -1.00e+00 -1.00e+00 -1.00e+00 >    0.0000    0.0000    0.0000  377.9901  470.8612   -0.6500    0.0000   0.00 359.0  -1.0  0     0.0000
DLFA   ?    Z    ? P_0    ? 20150629 0052   49.4300 GAU  5.00e-02 -1.00e+00 -1.00e+00 -1.00e+00 >    0.0000    0.0000    0.0000 -100000000000000000000.0000 -100000000000000000000.0000 -100000000000000000000.0000    0.0000   0.00 359.0  -1.0  0     0.0000
LTK    ?    Z    ? P_0    ? 20150629 0052   49.7200 GAU  5.00e-02 -1.00e+00 -1.00e+00 -1.00e+00 >    0.0000    0.0000    0.0000  348.4175  453.8043   -0.4080    0.0000   0.00 359.0  -1.0  0     0.0000
SMIA   ?    Z    ? P_0    ? 20150629 0052   49.8800 GAU  5.00e-02 -1.00e+00 -1.00e+00 -1.00e+00 >    0.0000    0.0000    0.0000  365.3005  549.8513   -0.4480    0.0000   0.00 359.0  -1.0  0     0.0000
LOUT   ?    Z    ? P_0    ? 20150629 0052   50.0000 GAU  5.00e-02 -1.00e+00 -1.00e+00 -1.00e+00 >    0.0000    0.0000    0.0000  349.1983  449.9545   -0.3070    0.0000   0.00 359.0  -1.0  0     0.0000
THAL   ?    Z    ? P_0    ? 20150629 0052   51.3000 GAU  5.00e-02 -1.00e+00 -1.00e+00 -1.00e+00 >    0.0000    0.0000    0.0000  321.6626  454.1401   -0.1960    0.0000   0.00 359.0  -1.0  0     0.0000
EREA   ?    Z    ? P_0    ? 20150629 0052   54.0200 GAU  5.00e-02 -1.00e+00 -1.00e+00 -1.00e+00 >    0.0000    0.0000    0.0000  430.8126  501.9836   -0.4750    0.0000   0.00 359.0  -1.0  0     0.0000
ATH    ?    Z    ? P_0    ? 20150629 0052   54.9500 GAU  5.00e-02 -1.00e+00 -1.00e+00 -1.00e+00 >    0.0000    0.0000    0.0000  414.6204  451.4447   -0.0930    0.0000   0.00 359.0  -1.0  0     0.0000
TRIZ   ?    Z    ? P_0    ? 20150629 0052   55.2100 GAU  5.00e-02 -1.00e+00 -1.00e+00 -1.00e+00 >    0.0000    0.0000    0.0000  268.5677  488.8792   -0.0570    0.0000   0.00 359.0  -1.0  0     0.0000
PTL    ?    Z    ? P_0    ? 20150629 0052   55.4300 GAU  5.00e-02 -1.00e+00 -1.00e+00 -1.00e+00 >    0.0000    0.0000    0.0000  427.0491  460.2731   -0.5000    0.0000   0.00 359.0  -1.0  0     0.0000
SERG   ?    Z    ? P_0    ? 20150629 0052   55.5400 GAU  5.00e-02 -1.00e+00 -1.00e+00 -1.00e+00 >    0.0000    0.0000    0.0000  266.9841  494.1402   -0.4800    0.0000   0.00 359.0  -1.0  0     0.0000
ATHU   ?    Z    ? P_0    ? 20150629 0052   55.5600 GAU  5.00e-02 -1.00e+00 -1.00e+00 -1.00e+00 >    0.0000    0.0000    0.0000  420.5452  450.9346   -0.3080    0.0000   0.00 359.0  -1.0  0     0.0000
DION   ?    Z    ? P_0    ? 20150629 0052   55.9000 GAU  5.00e-02 -1.00e+00 -1.00e+00 -1.00e+00 >    0.0000    0.0000    0.0000  432.9565  463.9943   -0.4600    0.0000   0.00 359.0  -1.0  0     0.0000
AGG    ?    Z    ? P_0    ? 20150629 0052   56.2600 GAU  5.00e-02 -1.00e+00 -1.00e+00 -1.00e+00 >    0.0000    0.0000    0.0000  288.9340  562.4842   -0.6220    0.0000   0.00 359.0  -1.0  0     0.0000
DLFA   ?    N    ? S_1    ? 20150629 0052   56.3200 GAU  1.00e-01 -1.00e+00 -1.00e+00 -1.00e+00 >    0.0000    0.0000    0.0000 -100000000000000000000.0000 -100000000000000000000.0000 -100000000000000000000.0000    0.0000   0.00 359.0  -1.0  0     0.0000
KYMI   ?    Z    ? P_0    ? 20150629 0052   56.4100 GAU  5.00e-02 -1.00e+00 -1.00e+00 -1.00e+00 >    0.0000    0.0000    0.0000  444.2061  526.4736   -0.2590    0.0000   0.00 359.0  -1.0  0     0.0000
KLV    ?    Z    ? P_0    ? 20150629 0052   56.4500 GAU  5.00e-02 -1.00e+00 -1.00e+00 -1.00e+00 >    0.0000    0.0000    0.0000  276.5769  453.3757   -0.7580    0.0000   0.00 359.0  -1.0  0     0.0000
VLY    ?    Z    ? P_0    ? 20150629 0052   56.6900 GAU  5.00e-02 -1.00e+00 -1.00e+00 -1.00e+00 >    0.0000    0.0000    0.0000  422.0515  438.3032   -0.2560    0.0000   0.00 359.0  -1.0  0     0.0000
NEO    ?    Z    ? P_0    ? 20150629 0052   57.5200 GAU  5.00e-02 -1.00e+00 -1.00e+00 -1.00e+00 >    0.0000    0.0000    0.0000  364.2066  597.2781   -0.5100    0.0000   0.00 359.0  -1.0  0     0.0000
LAKA   ?    Z    ? P_0    ? 20150629 0052   57.5700 GAU  5.00e-02 -1.00e+00 -1.00e+00 -1.00e+00 >    0.0000    0.0000    0.0000  260.7815  474.6850   -0.5050    0.0000   0.00 359.0  -1.0  0     0.0000
EFP    ?    Z    ? P_0    ? 20150629 0052   57.6200 GAU  5.00e-02 -1.00e+00 -1.00e+00 -1.00e+00 >    0.0000    0.0000    0.0000  253.7619  495.2240   -0.1350    0.0000   0.00 359.0  -1.0  0     0.0000
ANX    ?    Z    ? P_0    ? 20150629 0052   57.7400 GAU  5.00e-02 -1.00e+00 -1.00e+00 -1.00e+00 >    0.0000    0.0000    0.0000  254.4939  513.7426   -1.0200    0.0000   0.00 359.0  -1.0  0     0.0000
XOR    ?    Z    ? P_0    ? 20150629 0052   58.5100 GAU  5.00e-02 -1.00e+00 -1.00e+00 -1.00e+00 >    0.0000    0.0000    0.0000  361.3232  603.8675   -0.5000    0.0000   0.00 359.0  -1.0  0     0.0000
ALNA   ?    Z    ? P_1    ? 20150629 0052   58.5100 GAU  1.00e-01 -1.00e+00 -1.00e+00 -1.00e+00 >    0.0000    0.0000    0.0000 -100000000000000000000.0000 -100000000000000000000.0000 -100000000000000000000.0000    0.0000   0.00 359.0  -1.0  0     0.0000
MAKR   ?    Z    ? P_1    ? 20150629 0052   59.0000 GAU  1.00e-01 -1.00e+00 -1.00e+00 -1.00e+00 >    0.0000    0.0000    0.0000  271.2658  560.9773   -0.5320    0.0000   0.00 359.0  -1.0  0     0.0000
KRND   ?    Z    ? P_0    ? 20150629 0053    1.6100 GAU  5.00e-02 -1.00e+00 -1.00e+00 -1.00e+00 >    0.0000    0.0000    0.0000  367.6403  383.4474   -0.1400    0.0000   0.00 359.0  -1.0  0     0.0000
EVR    ?    Z    ? P_1    ? 20150629 0053    1.7400 GAU  1.00e-01 -1.00e+00 -1.00e+00 -1.00e+00 >    0.0000    0.0000    0.0000  243.7702  549.3303   -1.0370    0.0000   0.00 359.0  -1.0  0     0.0000
KARY   ?    Z    ? P_0    ? 20150629 0053    2.5500 GAU  5.00e-02 -1.00e+00 -1.00e+00 -1.00e+00 >    0.0000    0.0000    0.0000  477.5105  461.3819   -0.2200    0.0000   0.00 359.0  -1.0  0     0.0000
DRO    ?    Z    ? P_0    ? 20150629 0053    3.0100 GAU  5.00e-02 -1.00e+00 -1.00e+00 -1.00e+00 >    0.0000    0.0000    0.0000  238.2989  441.9997   -0.4710    0.0000   0.00 359.0  -1.0  0     0.0000
SKY    ?    Z    ? P_1    ? 20150629 0053    3.7400 GAU  1.00e-01 -1.00e+00 -1.00e+00 -1.00e+00 >    0.0000    0.0000    0.0000  481.5709  556.5269   -0.2680    0.0000   0.00 359.0  -1.0  0     0.0000
VLX    ?    Z    ? P_1    ? 20150629 0053    3.7700 GAU  1.00e-01 -1.00e+00 -1.00e+00 -1.00e+00 >    0.0000    0.0000    0.0000  299.3783  379.3080   -1.0310    0.0000   0.00 359.0  -1.0  0     0.0000
PVO    ?    Z    ? P_1    ? 20150629 0053    4.6300 GAU  1.00e-01 -1.00e+00 -1.00e+00 -1.00e+00 >    0.0000    0.0000    0.0000  220.0012  515.3193   -0.1880    0.0000   0.00 359.0  -1.0  0     0.0000
RLS    ?    Z    ? P_0    ? 20150629 0053    5.7400 GAU  5.00e-02 -1.00e+00 -1.00e+00 -1.00e+00 >    0.0000    0.0000    0.0000  216.3327  452.8994   -0.0970    0.0000   0.00 359.0  -1.0  0     0.0000
THL    ?    Z    ? P_1    ? 20150629 0053    6.3100 GAU  1.00e-01 -1.00e+00 -1.00e+00 -1.00e+00 >    0.0000    0.0000    0.0000  259.0615  621.8678   -0.0860    0.0000   0.00 359.0  -1.0  0     0.0000
PAIG   ?    Z    ? P_1    ? 20150629 0053    7.8900 GAU  1.00e-01 -1.00e+00 -1.00e+00 -1.00e+00 >    0.0000    0.0000    0.0000  399.8196  669.2824   -0.2130    0.0000   0.00 359.0  -1.0  0     0.0000
AMT    ?    Z    ? P_0    ? 20150629 0053    8.0000 GAU  5.00e-02 -1.00e+00 -1.00e+00 -1.00e+00 >    0.0000    0.0000    0.0000  239.4554  395.3867   -0.4820    0.0000   0.00 359.0  -1.0  0     0.0000
ANX    ?    N    ? S_1    ? 20150629 0053    9.9000 GAU  1.00e-01 -1.00e+00 -1.00e+00 -1.00e+00 >    0.0000    0.0000    0.0000  254.4939  513.7426   -1.0200    0.0000   0.00 359.0  -1.0  0     0.0000
ALNA   ?    N    ? S_1    ? 20150629 0053   11.6700 GAU  1.00e-01 -1.00e+00 -1.00e+00 -1.00e+00 >    0.0000    0.0000    0.0000 -100000000000000000000.0000 -100000000000000000000.0000 -100000000000000000000.0000    0.0000   0.00 359.0  -1.0  0     0.0000
DRAG   ?    Z    ? P_2    ? 20150629 0053   14.7100 GAU  1.50e-01 -1.00e+00 -1.00e+00 -1.00e+00 >    0.0000    0.0000    0.0000  137.0106  520.9284   -0.3480    0.0000   0.00 359.0  -1.0  0     0.0000
PYL    ?    Z    ? P_1    ? 20150629 0053   15.1300 GAU  1.00e-01 -1.00e+00 -1.00e+00 -1.00e+00 >    0.0000    0.0000    0.0000  244.4299  324.7654   -0.2200    0.0000   0.00 359.0  -1.0  0     0.0000
NYDR   ?    Z    ? P_0    ? 20150629 0053   15.5500 GAU  5.00e-02 -1.00e+00 -1.00e+00 -1.00e+00 >    0.0000    0.0000    0.0000  147.7138  524.4068   -0.0140    0.0000   0.00 359.0  -1.0  0     0.0000
LTHK   ?    Z    ? P_1    ? 20150629 0053   15.9200 GAU  1.00e-01 -1.00e+00 -1.00e+00 -1.00e+00 >    0.0000    0.0000    0.0000  161.9632  413.1810   -0.0350    0.0000   0.00 359.0  -1.0  0     0.0000
EVGI   ?    Z    ? P_2    ? 20150629 0053   15.9700 GAU  1.50e-01 -1.00e+00 -1.00e+00 -1.00e+00 >    0.0000    0.0000    0.0000  144.2200  514.0701   -0.2490    0.0000   0.00 359.0  -1.0  0     0.0000
VLS    ?    Z    ? P_0    ? 20150629 0053   16.2000 GAU  5.00e-02 -1.00e+00 -1.00e+00 -1.00e+00 >    0.0000    0.0000    0.0000  139.1993  464.6540   -0.4020    0.0000   0.00 359.0  -1.0  0     0.0000
FSK    ?    Z    ? P_1    ? 20150629 0053   16.5800 GAU  1.00e-01 -1.00e+00 -1.00e+00 -1.00e+00 >    0.0000    0.0000    0.0000  136.3643  495.9757   -0.1130    0.0000   0.00 359.0  -1.0  0     0.0000
LKD2   ?    Z    ? P_1    ? 20150629 0053   16.5900 GAU  1.00e-01 -1.00e+00 -1.00e+00 -1.00e+00 >    0.0000    0.0000    0.0000  144.0394  532.7132   -0.4850    0.0000   0.00 359.0  -1.0  0     0.0000
PSDA   ?    Z    ? P_2    ? 20150629 0053   16.6400 GAU  1.50e-01 -1.00e+00 -1.00e+00 -1.00e+00 >    0.0000    0.0000    0.0000  138.9240  457.6758   -0.0480    0.0000   0.00 359.0  -1.0  0     0.0000
TSLK   ?    Z    ? P_2    ? 20150629 0053   16.8900 GAU  1.50e-01 -1.00e+00 -1.00e+00 -1.00e+00 >    0.0000    0.0000    0.0000  143.7584  536.7062   -0.2120    0.0000   0.00 359.0  -1.0  0     0.0000
KEF5   ?    Z    ? P_0    ? 20150629 0053   17.7000 GAU  5.00e-02 -1.00e+00 -1.00e+00 -1.00e+00 >    0.0000    0.0000    0.0000  128.4797  475.6921   -0.3030    0.0000   0.00 359.0  -1.0  0     0.0000
KEF4   ?    Z    ? P_2    ? 20150629 0053   18.5000 GAU  1.50e-01 -1.00e+00 -1.00e+00 -1.00e+00 >    0.0000    0.0000    0.0000  124.6720  473.4340   -0.0410    0.0000   0.00 359.0  -1.0  0     0.0000
KEF3   ?    Z    ? P_2    ? 20150629 0053   19.4300 GAU  1.50e-01 -1.00e+00 -1.00e+00 -1.00e+00 >    0.0000    0.0000    0.0000  120.8266  469.4562   -0.3470    0.0000   0.00 359.0  -1.0  0     0.0000
VLX    ?    E    ? S_1    ? 20150629 0053   19.9800 GAU  1.00e-01 -1.00e+00 -1.00e+00 -1.00e+00 >    0.0000    0.0000    0.0000  299.3783  379.3080   -1.0310    0.0000   0.00 359.0  -1.0  0     0.0000
END_PHASE
END_NLLOC

