NLLOC "./loc/husn.20130626.214704.grid0" "LOCATED" "Location completed."
SIGNATURE "Pratul Ranjan   obs:./obs/cornoth_shlw.pick   NLLoc:v7.00.00(27Oct2017)  run:21Jan2020 01h01m04"
COMMENT "2011/01/01-2019/05/31 Corinth North Locations HUSN"
GRID  900 900 250  -10 -10 0  1 1 1 PROB_DENSITY
SEARCH OCTREE nInitial 400 nEvaluated 10008 smallestNodeSide 0.175586/0.175586/0.122070 oct_tree_integral 2.345774e+01 scatter_volume 2.345774e+01
HYPOCENTER  x 313.517 y 503.852 z 11.9019  OT 1.77084  ix -1 iy -1 iz -1 MAXIMUM_LIKELIHOOD
GEOGRAPHIC  OT 2013 06 26  21 47 1.770836  Lat 38.485527 Long 22.592774 Depth 11.901855
QUALITY  Pmax 6.24923e+25 MFmin 10.3695 MFmax 10.5253 RMS 0.231021 Nphs 13 Gap 75.4691 Dist 10.0589 Mamp -9.90 0 Mdur -9.90 0
VPVSRATIO  VpVsRatio -1  Npair 0  Diff -2e+30
STATISTICS  ExpectX 313.576 Y 503.881 Z 10.4564  CovXX 0.541146 XY -0.174998 XZ -0.0892995 YY 0.903671 YZ -0.440147 ZZ 11.9636 EllAz1  247.074 Dip1  -1.26396 Len1  1.28118 Az2  337.031 Dip2  1.92828 Len2  1.84254 Len3  6.503478e+00
STAT_GEOG  ExpectLat 38.485768 Long 22.593459 Depth 10.456415
TRANSFORM  TRANS_MERC RefEllipsoid WGS-84  LatOrig 34.000000  LongOrig 19.000000  RotCW 0.000000
QML_OriginQuality  assocPhCt 53  usedPhCt 13  assocStaCt -1  usedStaCt 13  depthPhCt -1  stdErr 0.231021  azGap 75.4691  secAzGap 146.602  gtLevel -  minDist 10.0589 maxDist 70.4716 medDist 47.5357
QML_OriginUncertainty  horUnc -1  minHorUnc 1.04021  maxHorUnc 1.49701  azMaxHorUnc 158.004
QML_ConfidenceEllipsoid  semiMajorAxisLength 6.50348  semiMinorAxisLength 1.28118  semiIntermediateAxisLength 1.84254  majorAxisPlunge -87.6941  majorAxisAzimuth 10.2996  majorAxisRotation 146.668
FOCALMECH  Hyp  38.485527 22.592774 11.901855 Mech  0 0 0 mf  0 nObs 0
PHASE ID Ins Cmp On Pha  FM Date     HrMn   Sec     Err  ErrMag    Coda      Amp       Per  >   TTpred    Res       Weight    StaLoc(X  Y         Z)        SDist    SAzim  RAz  RDip RQual    Tcorr 
DSF    ?    E    ? S_2    ? 20130626 2147    6.7800 GAU  1.50e-01 -1.00e+00 -1.00e+00 -1.00e+00 >    4.9709    0.0383    1.2592  308.1008  495.3761   -0.7010   10.0589 212.58  32.6 139.9  9     0.0000
PROD   ?    N    ? S_2    ? 20130626 2147   13.1800 GAU  1.50e-01 -1.00e+00 -1.00e+00 -1.00e+00 >   11.9102   -0.5010    0.8434  341.4534  479.7775   -0.3500   36.8786 130.75 310.8 101.2  9     0.0000
LKR    ?    E    ? S_1    ? 20130626 2147   14.5000 GAU  1.00e-01 -1.00e+00 -1.00e+00 -1.00e+00 >   12.7343   -0.0051    1.1576  348.1669  523.5278   -0.1850   39.8464  60.41 240.4  99.7  9     0.0000
KALE   ?    N    ? S_2    ? 20130626 2147   14.8800 GAU  1.50e-01 -1.00e+00 -1.00e+00 -1.00e+00 >   13.1392   -0.0301    1.1330  274.3370  491.9195   -0.7600   40.9569 253.06  73.1  99.6  9     0.0000
ATAL   ?    E    ? S_2    ? 20130626 2147   15.5800 GAU  1.50e-01 -1.00e+00 -1.00e+00 -1.00e+00 >   13.9137   -0.1046    1.1020  349.9163  528.4007   -0.2900   43.9037  56.00 236.0  98.3  9     0.0000
TRIZ   ?    E    ? S_2    ? 20130626 2147   16.6000 GAU  1.50e-01 -1.00e+00 -1.00e+00 -1.00e+00 >   14.8793   -0.0502    1.0867  268.5677  488.8792   -0.0570   47.3777 251.58  71.6  97.2  9     0.0000
SERG   ?    N    ? S_2    ? 20130626 2147   16.3500 GAU  1.50e-01 -1.00e+00 -1.00e+00 -1.00e+00 >   14.9881   -0.4089    0.9102  266.9841  494.1402   -0.4800   47.5357 258.21  78.2  97.4  9     0.0000
THAL   ?    E    ? S_2    ? 20130626 2147   17.6200 GAU  1.50e-01 -1.00e+00 -1.00e+00 -1.00e+00 >   15.7643    0.0849    1.0566  321.6626  454.1401   -0.1960   50.3751 170.69 350.7  96.6  9     0.0000
EFP    ?    N    ? S_2    ? 20130626 2147   20.8400 GAU  1.50e-01 -1.00e+00 -1.00e+00 -1.00e+00 >   18.6425    0.4267    0.8469  253.7619  495.2240   -0.1350   60.3749 261.78  81.8  95.0  9     0.0000
AGG    ?    E    ? S_2    ? 20130626 2147   21.5000 GAU  1.50e-01 -1.00e+00 -1.00e+00 -1.00e+00 >   19.6403    0.0889    0.9618  288.9340  562.4842   -0.6220   63.5770 337.25 157.3  94.8  9     0.0000
LOUT   ?    E    ? S_2    ? 20130626 2147   22.0500 GAU  1.50e-01 -1.00e+00 -1.00e+00 -1.00e+00 >   19.8995    0.3796    0.8564  349.1983  449.9545   -0.3070   64.6383 146.49 326.5  94.6  9     0.0000
SMIA   ?    E    ? S_2    ? 20130626 2147   23.2500 GAU  1.50e-01 -1.00e+00 -1.00e+00 -1.00e+00 >   21.2586    0.2206    0.8969  365.3005  549.8513   -0.4480   69.2635  48.39 228.4  94.2  9     0.0000
ACOR   ?    E    ? S_2    ? 20130626 2147   23.6000 GAU  1.50e-01 -1.00e+00 -1.00e+00 -1.00e+00 >   21.6064    0.2227    0.8892  340.4115  438.7144   -0.4370   70.4716 157.57 337.6  94.1  9     0.0000
DLFA   ?    Z    ? P_0    ? 20130626 2147    4.6900 GAU  5.00e-02 -1.00e+00 -1.00e+00 -1.00e+00 >    0.0000    0.0000    0.0000 -100000000000000000000.0000 -100000000000000000000.0000 -100000000000000000000.0000    0.0000   0.00 359.0  -1.0  0     0.0000
DSF    ?    Z    ? P_0    ? 20130626 2147    4.8100 GAU  5.00e-02 -1.00e+00 -1.00e+00 -1.00e+00 >    0.0000    0.0000    0.0000  308.1008  495.3761   -0.7010    0.0000   0.00 359.0  -1.0  0     0.0000
DLFA   ?    N    ? S_2    ? 20130626 2147    6.5400 GAU  1.50e-01 -1.00e+00 -1.00e+00 -1.00e+00 >    0.0000    0.0000    0.0000 -100000000000000000000.0000 -100000000000000000000.0000 -100000000000000000000.0000    0.0000   0.00 359.0  -1.0  0     0.0000
PROD   ?    Z    ? P_0    ? 20130626 2147    8.3300 GAU  5.00e-02 -1.00e+00 -1.00e+00 -1.00e+00 >    0.0000    0.0000    0.0000  341.4534  479.7775   -0.3500    0.0000   0.00 359.0  -1.0  0     0.0000
LKR    ?    Z    ? P_0    ? 20130626 2147    8.9100 GAU  5.00e-02 -1.00e+00 -1.00e+00 -1.00e+00 >    0.0000    0.0000    0.0000  348.1669  523.5278   -0.1850    0.0000   0.00 359.0  -1.0  0     0.0000
KALE   ?    Z    ? P_0    ? 20130626 2147    9.1400 GAU  5.00e-02 -1.00e+00 -1.00e+00 -1.00e+00 >    0.0000    0.0000    0.0000  274.3370  491.9195   -0.7600    0.0000   0.00 359.0  -1.0  0     0.0000
ATAL   ?    Z    ? P_0    ? 20130626 2147    9.6200 GAU  5.00e-02 -1.00e+00 -1.00e+00 -1.00e+00 >    0.0000    0.0000    0.0000  349.9163  528.4007   -0.2900    0.0000   0.00 359.0  -1.0  0     0.0000
TRIZ   ?    Z    ? P_2    ? 20130626 2147    9.7900 GAU  1.50e-01 -1.00e+00 -1.00e+00 -1.00e+00 >    0.0000    0.0000    0.0000  268.5677  488.8792   -0.0570    0.0000   0.00 359.0  -1.0  0     0.0000
SERG   ?    Z    ? P_0    ? 20130626 2147   10.0200 GAU  5.00e-02 -1.00e+00 -1.00e+00 -1.00e+00 >    0.0000    0.0000    0.0000  266.9841  494.1402   -0.4800    0.0000   0.00 359.0  -1.0  0     0.0000
THAL   ?    Z    ? P_2    ? 20130626 2147   10.8500 GAU  1.50e-01 -1.00e+00 -1.00e+00 -1.00e+00 >    0.0000    0.0000    0.0000  321.6626  454.1401   -0.1960    0.0000   0.00 359.0  -1.0  0     0.0000
EFP    ?    Z    ? P_0    ? 20130626 2147   11.7900 GAU  5.00e-02 -1.00e+00 -1.00e+00 -1.00e+00 >    0.0000    0.0000    0.0000  253.7619  495.2240   -0.1350    0.0000   0.00 359.0  -1.0  0     0.0000
ANX    ?    Z    ? P_0    ? 20130626 2147   12.2100 GAU  5.00e-02 -1.00e+00 -1.00e+00 -1.00e+00 >    0.0000    0.0000    0.0000  254.4939  513.7426   -1.0200    0.0000   0.00 359.0  -1.0  0     0.0000
KLV    ?    Z    ? P_2    ? 20130626 2147   12.4600 GAU  1.50e-01 -1.00e+00 -1.00e+00 -1.00e+00 >    0.0000    0.0000    0.0000  276.5769  453.3757   -0.7580    0.0000   0.00 359.0  -1.0  0     0.0000
LOUT   ?    Z    ? P_2    ? 20130626 2147   12.6800 GAU  1.50e-01 -1.00e+00 -1.00e+00 -1.00e+00 >    0.0000    0.0000    0.0000  349.1983  449.9545   -0.3070    0.0000   0.00 359.0  -1.0  0     0.0000
AGG    ?    Z    ? P_0    ? 20130626 2147   13.0700 GAU  5.00e-02 -1.00e+00 -1.00e+00 -1.00e+00 >    0.0000    0.0000    0.0000  288.9340  562.4842   -0.6220    0.0000   0.00 359.0  -1.0  0     0.0000
LAKA   ?    Z    ? P_2    ? 20130626 2147   13.0900 GAU  1.50e-01 -1.00e+00 -1.00e+00 -1.00e+00 >    0.0000    0.0000    0.0000  260.7815  474.6850   -0.5050    0.0000   0.00 359.0  -1.0  0     0.0000
GUR    ?    Z    ? P_0    ? 20130626 2147   13.0900 GAU  5.00e-02 -1.00e+00 -1.00e+00 -1.00e+00 >    0.0000    0.0000    0.0000  293.8572  442.0388   -1.0800    0.0000   0.00 359.0  -1.0  0     0.0000
SMIA   ?    Z    ? P_2    ? 20130626 2147   13.7200 GAU  1.50e-01 -1.00e+00 -1.00e+00 -1.00e+00 >    0.0000    0.0000    0.0000  365.3005  549.8513   -0.4480    0.0000   0.00 359.0  -1.0  0     0.0000
VILL   ?    Z    ? P_0    ? 20130626 2147   13.7500 GAU  5.00e-02 -1.00e+00 -1.00e+00 -1.00e+00 >    0.0000    0.0000    0.0000  377.9901  470.8612   -0.6500    0.0000   0.00 359.0  -1.0  0     0.0000
ACOR   ?    Z    ? P_2    ? 20130626 2147   13.9200 GAU  1.50e-01 -1.00e+00 -1.00e+00 -1.00e+00 >    0.0000    0.0000    0.0000  340.4115  438.7144   -0.4370    0.0000   0.00 359.0  -1.0  0     0.0000
EVR    ?    Z    ? P_2    ? 20130626 2147   16.1400 GAU  1.50e-01 -1.00e+00 -1.00e+00 -1.00e+00 >    0.0000    0.0000    0.0000  243.7702  549.3303   -1.0370    0.0000   0.00 359.0  -1.0  0     0.0000
MRKA   ?    Z    ? P_2    ? 20130626 2147   17.0100 GAU  1.50e-01 -1.00e+00 -1.00e+00 -1.00e+00 >    0.0000    0.0000    0.0000  399.1327  532.1864   -0.4240    0.0000   0.00 359.0  -1.0  0     0.0000
DRO    ?    Z    ? P_2    ? 20130626 2147   18.3900 GAU  1.50e-01 -1.00e+00 -1.00e+00 -1.00e+00 >    0.0000    0.0000    0.0000  238.2989  441.9997   -0.4710    0.0000   0.00 359.0  -1.0  0     0.0000
PVO    ?    Z    ? P_3    ? 20130626 2147   18.5800 GAU  2.00e-01 -1.00e+00 -1.00e+00 -1.00e+00 >    0.0000    0.0000    0.0000  220.0012  515.3193   -0.1880    0.0000   0.00 359.0  -1.0  0     0.0000
ANX    ?    E    ? S_2    ? 20130626 2147   20.2600 GAU  1.50e-01 -1.00e+00 -1.00e+00 -1.00e+00 >    0.0000    0.0000    0.0000  254.4939  513.7426   -1.0200    0.0000   0.00 359.0  -1.0  0     0.0000
RLS    ?    Z    ? P_2    ? 20130626 2147   20.5900 GAU  1.50e-01 -1.00e+00 -1.00e+00 -1.00e+00 >    0.0000    0.0000    0.0000  216.3327  452.8994   -0.0970    0.0000   0.00 359.0  -1.0  0     0.0000
TRIP   ?    Z    ? P_1    ? 20130626 2147   20.7400 GAU  1.00e-01 -1.00e+00 -1.00e+00 -1.00e+00 >    0.0000    0.0000    0.0000  289.1555  396.4568   -0.8200    0.0000   0.00 359.0  -1.0  0     0.0000
EPID   ?    Z    ? P_2    ? 20130626 2147   20.8600 GAU  1.50e-01 -1.00e+00 -1.00e+00 -1.00e+00 >    0.0000    0.0000    0.0000  363.7397  409.0254   -0.4440    0.0000   0.00 359.0  -1.0  0     0.0000
NEO    ?    Z    ? P_2    ? 20130626 2147   21.2800 GAU  1.50e-01 -1.00e+00 -1.00e+00 -1.00e+00 >    0.0000    0.0000    0.0000  364.2066  597.2781   -0.5100    0.0000   0.00 359.0  -1.0  0     0.0000
EREA   ?    Z    ? P_2    ? 20130626 2147   21.3200 GAU  1.50e-01 -1.00e+00 -1.00e+00 -1.00e+00 >    0.0000    0.0000    0.0000  430.8126  501.9836   -0.4750    0.0000   0.00 359.0  -1.0  0     0.0000
ATHU   ?    Z    ? P_2    ? 20130626 2147   21.6400 GAU  1.50e-01 -1.00e+00 -1.00e+00 -1.00e+00 >    0.0000    0.0000    0.0000  420.5452  450.9346   -0.3080    0.0000   0.00 359.0  -1.0  0     0.0000
XOR    ?    Z    ? P_2    ? 20130626 2147   21.7100 GAU  1.50e-01 -1.00e+00 -1.00e+00 -1.00e+00 >    0.0000    0.0000    0.0000  361.3232  603.8675   -0.5000    0.0000   0.00 359.0  -1.0  0     0.0000
VLX    ?    Z    ? P_2    ? 20130626 2147   22.8700 GAU  1.50e-01 -1.00e+00 -1.00e+00 -1.00e+00 >    0.0000    0.0000    0.0000  299.3783  379.3080   -1.0310    0.0000   0.00 359.0  -1.0  0     0.0000
PTL    ?    Z    ? P_2    ? 20130626 2147   22.9000 GAU  1.50e-01 -1.00e+00 -1.00e+00 -1.00e+00 >    0.0000    0.0000    0.0000  427.0491  460.2731   -0.5000    0.0000   0.00 359.0  -1.0  0     0.0000
DID    ?    Z    ? P_1    ? 20130626 2147   22.9200 GAU  1.00e-01 -1.00e+00 -1.00e+00 -1.00e+00 >    0.0000    0.0000    0.0000  374.6984  397.4835   -0.5250    0.0000   0.00 359.0  -1.0  0     0.0000
VLY    ?    Z    ? P_2    ? 20130626 2147   23.2600 GAU  1.50e-01 -1.00e+00 -1.00e+00 -1.00e+00 >    0.0000    0.0000    0.0000  422.0515  438.3032   -0.2560    0.0000   0.00 359.0  -1.0  0     0.0000
PDO    ?    Z    ? P_2    ? 20130626 2147   23.6100 GAU  1.50e-01 -1.00e+00 -1.00e+00 -1.00e+00 >    0.0000    0.0000    0.0000  190.2057  512.5439   -0.2270    0.0000   0.00 359.0  -1.0  0     0.0000
KRND   ?    Z    ? P_2    ? 20130626 2147   23.8500 GAU  1.50e-01 -1.00e+00 -1.00e+00 -1.00e+00 >    0.0000    0.0000    0.0000  367.6403  383.4474   -0.1400    0.0000   0.00 359.0  -1.0  0     0.0000
AMT    ?    Z    ? P_2    ? 20130626 2147   24.0600 GAU  1.50e-01 -1.00e+00 -1.00e+00 -1.00e+00 >    0.0000    0.0000    0.0000  239.4554  395.3867   -0.4820    0.0000   0.00 359.0  -1.0  0     0.0000
THL    ?    Z    ? P_3    ? 20130626 2147   24.0900 GAU  2.00e-01 -1.00e+00 -1.00e+00 -1.00e+00 >    0.0000    0.0000    0.0000  259.0615  621.8678   -0.0860    0.0000   0.00 359.0  -1.0  0     0.0000
END_PHASE
END_NLLOC

