NLLOC "./loc/husn.20170711.202412.grid0" "LOCATED" "Location completed."
SIGNATURE "Pratul Ranjan   obs:./obs/cornoth_shlw.pick   NLLoc:v7.00.00(27Oct2017)  run:21Jan2020 01h00m09"
COMMENT "2011/01/01-2019/05/31 Corinth North Locations HUSN"
GRID  900 900 250  -10 -10 0  1 1 1 PROB_DENSITY
SEARCH OCTREE nInitial 400 nEvaluated 10024 smallestNodeSide 0.351172/0.351172/0.244141 oct_tree_integral 6.905003e+01 scatter_volume 6.905003e+01
HYPOCENTER  x 390.512 y 505.696 z 13.7939  OT 6.25545  ix -1 iy -1 iz -1 MAXIMUM_LIKELIHOOD
GEOGRAPHIC  OT 2017 07 11  20 24 6.255450  Lat 38.471738 Long 23.473878 Depth 13.793945
QUALITY  Pmax 9.6371e+20 MFmin 7.91541 MFmax 8.1819 RMS 0.340065 Nphs 12 Gap 84.871 Dist 37.0168 Mamp -9.90 0 Mdur -9.90 0
VPVSRATIO  VpVsRatio -1  Npair 0  Diff -2e+30
STATISTICS  ExpectX 390.549 Y 505.517 Z 12.5488  CovXX 1.79145 XY 0.604134 XZ 0.312091 YY 1.49887 YZ -1.25168 ZZ 21.07 EllAz1  143.17 Dip1  -3.3825 Len1  1.83511 Az2  233.26 Dip2  -1.51795 Len2  2.81996 Len3  8.641297e+00
STAT_GEOG  ExpectLat 38.470119 Long 23.474211 Depth 12.548789
TRANSFORM  TRANS_MERC RefEllipsoid WGS-84  LatOrig 34.000000  LongOrig 19.000000  RotCW 0.000000
QML_OriginQuality  assocPhCt 41  usedPhCt 12  assocStaCt -1  usedStaCt 12  depthPhCt -1  stdErr 0.340065  azGap 84.871  secAzGap 157.213  gtLevel -  minDist 37.0168 maxDist 125.373 medDist 66.8874
QML_OriginUncertainty  horUnc -1  minHorUnc 1.53434  maxHorUnc 2.28332  azMaxHorUnc 51.806
QML_ConfidenceEllipsoid  semiMajorAxisLength 8.6413  semiMinorAxisLength 1.83511  semiIntermediateAxisLength 2.81996  majorAxisPlunge 86.2918  majorAxisAzimuth 167.394  majorAxisRotation 113.999
FOCALMECH  Hyp  38.471738 23.473878 13.793945 Mech  0 0 0 mf  0 nObs 0
PHASE ID Ins Cmp On Pha  FM Date     HrMn   Sec     Err  ErrMag    Coda      Amp       Per  >   TTpred    Res       Weight    StaLoc(X  Y         Z)        SDist    SAzim  RAz  RDip RQual    Tcorr 
VILL   ?    E    ? S_1    ? 20170711 2024   18.4100 GAU  1.00e-01 -1.00e+00 -1.00e+00 -1.00e+00 >   12.1260    0.0286    1.2892  377.9901  470.8612   -0.6500   37.0168 199.77  19.8 105.5  9     0.0000
LKR    ?    E    ? S_1    ? 20170711 2024   20.9800 GAU  1.00e-01 -1.00e+00 -1.00e+00 -1.00e+00 >   14.5780    0.1466    1.2258  348.1669  523.5278   -0.1850   45.9461 292.84 112.8 101.3  9     0.0000
ATAL   ?    E    ? S_1    ? 20170711 2024   20.8900 GAU  1.00e-01 -1.00e+00 -1.00e+00 -1.00e+00 >   14.7549   -0.1204    1.2361  349.9163  528.4007   -0.2900   46.5132 299.22 119.2 101.1  9     0.0000
KYMI   ?    E    ? S_1    ? 20170711 2024   24.1800 GAU  1.00e-01 -1.00e+00 -1.00e+00 -1.00e+00 >   17.9169    0.0077    1.1881  444.2061  526.4736   -0.2590   57.5745  68.85 248.8  98.3  9     0.0000
PTL    ?    E    ? S_1    ? 20170711 2024   23.8400 GAU  1.00e-01 -1.00e+00 -1.00e+00 -1.00e+00 >   18.1609   -0.5764    0.9489  427.0491  460.2731   -0.5000   58.2943 141.19 321.2  98.2  9     0.0000
ATH    ?    N    ? S_1    ? 20170711 2024   25.2700 GAU  1.00e-01 -1.00e+00 -1.00e+00 -1.00e+00 >   18.4079    0.6067    0.9038  414.6204  451.4447   -0.0930   59.3669 156.04 336.0  97.8  9     0.0000
VLY    ?    N    ? S_1    ? 20170711 2024   28.7900 GAU  1.00e-01 -1.00e+00 -1.00e+00 -1.00e+00 >   22.7647   -0.2302    1.0633  422.0515  438.3032   -0.2560   74.4080 154.92 334.9  95.9  9     0.0000
NEO    ?    N    ? S_1    ? 20170711 2024   34.8200 GAU  1.00e-01 -1.00e+00 -1.00e+00 -1.00e+00 >   28.8322   -0.2677    0.9508  364.2066  597.2781   -0.5100   95.2851 343.97 164.0  87.0  9     0.0000
XOR    ?    E    ? S_1    ? 20170711 2024   37.7200 GAU  1.00e-01 -1.00e+00 -1.00e+00 -1.00e+00 >   30.7984    0.6662    0.7900  361.3232  603.8675   -0.5000  102.4189 343.44 163.4  71.8  8     0.0000
AGG    ?    N    ? S_1    ? 20170711 2024   40.3900 GAU  1.00e-01 -1.00e+00 -1.00e+00 -1.00e+00 >   34.5237   -0.3892    0.8425  288.9340  562.4842   -0.6220  116.3740 299.21 119.2  65.0 10     0.0000
SERG   ?    N    ? S_1    ? 20170711 2024   43.2200 GAU  1.00e-01 -1.00e+00 -1.00e+00 -1.00e+00 >   36.4891    0.4755    0.7919  266.9841  494.1402   -0.4800  124.0667 264.66  84.7  62.3 10     0.0000
KLV    ?    E    ? S_1    ? 20170711 2024   42.5500 GAU  1.00e-01 -1.00e+00 -1.00e+00 -1.00e+00 >   36.8784   -0.5838    0.7696  276.5769  453.3757   -0.7580  125.3734 245.33  65.3  62.0 10     0.0000
VILL   ?    Z    ? P_0    ? 20170711 2024   12.9000 GAU  5.00e-02 -1.00e+00 -1.00e+00 -1.00e+00 >    0.0000    0.0000    0.0000  377.9901  470.8612   -0.6500    0.0000   0.00 359.0  -1.0  0     0.0000
LKR    ?    Z    ? P_0    ? 20170711 2024   14.4900 GAU  5.00e-02 -1.00e+00 -1.00e+00 -1.00e+00 >    0.0000    0.0000    0.0000  348.1669  523.5278   -0.1850    0.0000   0.00 359.0  -1.0  0     0.0000
ATAL   ?    Z    ? P_0    ? 20170711 2024   14.7000 GAU  5.00e-02 -1.00e+00 -1.00e+00 -1.00e+00 >    0.0000    0.0000    0.0000  349.9163  528.4007   -0.2900    0.0000   0.00 359.0  -1.0  0     0.0000
KYMI   ?    Z    ? P_0    ? 20170711 2024   16.7200 GAU  5.00e-02 -1.00e+00 -1.00e+00 -1.00e+00 >    0.0000    0.0000    0.0000  444.2061  526.4736   -0.2590    0.0000   0.00 359.0  -1.0  0     0.0000
ATH    ?    Z    ? P_0    ? 20170711 2024   16.9400 GAU  5.00e-02 -1.00e+00 -1.00e+00 -1.00e+00 >    0.0000    0.0000    0.0000  414.6204  451.4447   -0.0930    0.0000   0.00 359.0  -1.0  0     0.0000
ATHU   ?    Z    ? P_0    ? 20170711 2024   17.3200 GAU  5.00e-02 -1.00e+00 -1.00e+00 -1.00e+00 >    0.0000    0.0000    0.0000  420.5452  450.9346   -0.3080    0.0000   0.00 359.0  -1.0  0     0.0000
PTL    ?    Z    ? P_0    ? 20170711 2024   17.6200 GAU  5.00e-02 -1.00e+00 -1.00e+00 -1.00e+00 >    0.0000    0.0000    0.0000  427.0491  460.2731   -0.5000    0.0000   0.00 359.0  -1.0  0     0.0000
DION   ?    Z    ? P_0    ? 20170711 2024   17.8400 GAU  5.00e-02 -1.00e+00 -1.00e+00 -1.00e+00 >    0.0000    0.0000    0.0000  432.9565  463.9943   -0.4600    0.0000   0.00 359.0  -1.0  0     0.0000
LTK    ?    Z    ? P_0    ? 20170711 2024   18.0200 GAU  5.00e-02 -1.00e+00 -1.00e+00 -1.00e+00 >    0.0000    0.0000    0.0000  348.4175  453.8043   -0.4080    0.0000   0.00 359.0  -1.0  0     0.0000
LOUT   ?    Z    ? P_0    ? 20170711 2024   18.3700 GAU  5.00e-02 -1.00e+00 -1.00e+00 -1.00e+00 >    0.0000    0.0000    0.0000  349.1983  449.9545   -0.3070    0.0000   0.00 359.0  -1.0  0     0.0000
VLY    ?    Z    ? P_0    ? 20170711 2024   19.1300 GAU  5.00e-02 -1.00e+00 -1.00e+00 -1.00e+00 >    0.0000    0.0000    0.0000  422.0515  438.3032   -0.2560    0.0000   0.00 359.0  -1.0  0     0.0000
AXAR   ?    Z    ? P_0    ? 20170711 2024   19.6600 GAU  5.00e-02 -1.00e+00 -1.00e+00 -1.00e+00 >    0.0000    0.0000    0.0000  318.0527  535.2736   -0.4060    0.0000   0.00 359.0  -1.0  0     0.0000
ALNA   ?    Z    ? P_0    ? 20170711 2024   21.9100 GAU  5.00e-02 -1.00e+00 -1.00e+00 -1.00e+00 >    0.0000    0.0000    0.0000 -100000000000000000000.0000 -100000000000000000000.0000 -100000000000000000000.0000    0.0000   0.00 359.0  -1.0  0     0.0000
NEO    ?    Z    ? P_0    ? 20170711 2024   23.5700 GAU  5.00e-02 -1.00e+00 -1.00e+00 -1.00e+00 >    0.0000    0.0000    0.0000  364.2066  597.2781   -0.5100    0.0000   0.00 359.0  -1.0  0     0.0000
XOR    ?    Z    ? P_0    ? 20170711 2024   24.6800 GAU  5.00e-02 -1.00e+00 -1.00e+00 -1.00e+00 >    0.0000    0.0000    0.0000  361.3232  603.8675   -0.5000    0.0000   0.00 359.0  -1.0  0     0.0000
AGG    ?    Z    ? P_1    ? 20170711 2024   26.5200 GAU  1.00e-01 -1.00e+00 -1.00e+00 -1.00e+00 >    0.0000    0.0000    0.0000  288.9340  562.4842   -0.6220    0.0000   0.00 359.0  -1.0  0     0.0000
GUR    ?    Z    ? P_0    ? 20170711 2024   26.8100 GAU  5.00e-02 -1.00e+00 -1.00e+00 -1.00e+00 >    0.0000    0.0000    0.0000  293.8572  442.0388   -1.0800    0.0000   0.00 359.0  -1.0  0     0.0000
SERG   ?    Z    ? P_1    ? 20170711 2024   27.0300 GAU  1.00e-01 -1.00e+00 -1.00e+00 -1.00e+00 >    0.0000    0.0000    0.0000  266.9841  494.1402   -0.4800    0.0000   0.00 359.0  -1.0  0     0.0000
KLV    ?    Z    ? P_0    ? 20170711 2024   27.3400 GAU  5.00e-02 -1.00e+00 -1.00e+00 -1.00e+00 >    0.0000    0.0000    0.0000  276.5769  453.3757   -0.7580    0.0000   0.00 359.0  -1.0  0     0.0000
KRND   ?    Z    ? P_0    ? 20170711 2024   27.7400 GAU  5.00e-02 -1.00e+00 -1.00e+00 -1.00e+00 >    0.0000    0.0000    0.0000  367.6403  383.4474   -0.1400    0.0000   0.00 359.0  -1.0  0     0.0000
ANX    ?    Z    ? P_0    ? 20170711 2024   29.3800 GAU  5.00e-02 -1.00e+00 -1.00e+00 -1.00e+00 >    0.0000    0.0000    0.0000  254.4939  513.7426   -1.0200    0.0000   0.00 359.0  -1.0  0     0.0000
MAKR   ?    Z    ? P_2    ? 20170711 2024   29.4900 GAU  1.50e-01 -1.00e+00 -1.00e+00 -1.00e+00 >    0.0000    0.0000    0.0000  271.2658  560.9773   -0.5320    0.0000   0.00 359.0  -1.0  0     0.0000
EFP    ?    Z    ? P_1    ? 20170711 2024   29.5000 GAU  1.00e-01 -1.00e+00 -1.00e+00 -1.00e+00 >    0.0000    0.0000    0.0000  253.7619  495.2240   -0.1350    0.0000   0.00 359.0  -1.0  0     0.0000
ALNA   ?    N    ? S_1    ? 20170711 2024   32.2500 GAU  1.00e-01 -1.00e+00 -1.00e+00 -1.00e+00 >    0.0000    0.0000    0.0000 -100000000000000000000.0000 -100000000000000000000.0000 -100000000000000000000.0000    0.0000   0.00 359.0  -1.0  0     0.0000
PAIG   ?    Z    ? P_0    ? 20170711 2024   32.7500 GAU  5.00e-02 -1.00e+00 -1.00e+00 -1.00e+00 >    0.0000    0.0000    0.0000  399.8196  669.2824   -0.2130    0.0000   0.00 359.0  -1.0  0     0.0000
DRO    ?    Z    ? P_0    ? 20170711 2024   33.8900 GAU  5.00e-02 -1.00e+00 -1.00e+00 -1.00e+00 >    0.0000    0.0000    0.0000  238.2989  441.9997   -0.4710    0.0000   0.00 359.0  -1.0  0     0.0000
TYRN   ?    Z    ? P_0    ? 20170711 2024   35.3100 GAU  5.00e-02 -1.00e+00 -1.00e+00 -1.00e+00 >    0.0000    0.0000    0.0000 -100000000000000000000.0000 -100000000000000000000.0000 -100000000000000000000.0000    0.0000   0.00 359.0  -1.0  0     0.0000
GUR    ?    N    ? S_1    ? 20170711 2024   40.9000 GAU  1.00e-01 -1.00e+00 -1.00e+00 -1.00e+00 >    0.0000    0.0000    0.0000  293.8572  442.0388   -1.0800    0.0000   0.00 359.0  -1.0  0     0.0000
KTHA   ?    Z    ? P_0    ? 20170711 2024   43.8900 GAU  5.00e-02 -1.00e+00 -1.00e+00 -1.00e+00 >    0.0000    0.0000    0.0000  365.1564  258.0166   -0.3600    0.0000   0.00 359.0  -1.0  0     0.0000
END_PHASE
END_NLLOC

