NLLOC "./loc/cyc.20030515.222651.grid0" "LOCATED" "Location completed."
SIGNATURE "Pratul Ranjan   obs:./obs/Seisgram_salo_0902_0503.pick   NLLoc:v7.00.00(27Oct2017)  run:01Aug2019 16h43m50"
COMMENT "Cyclades Events"
GRID  1900 900 80  10 10 0  1 1 1 PROB_DENSITY
SEARCH OCTREE nInitial 4000 nEvaluated 50016 smallestNodeSide 0.370898/0.175586/0.031250 oct_tree_integral 1.079824e+02 scatter_volume 1.079311e+02
HYPOCENTER  x 844.707 y 365.825 z 14.3594  OT 44.1917  ix -1 iy -1 iz -1 MAXIMUM_LIKELIHOOD
GEOGRAPHIC  OT 2003 05 15  22 26 44.191665  Lat 36.906134 Long 26.509070 Depth 14.359375
QUALITY  Pmax 7.41116e+44 MFmin 16.9456 MFmax 21.3862 RMS 0.255934 Nphs 19 Gap 250.99 Dist 37.2055 Mamp -9.90 0 Mdur -9.90 0
VPVSRATIO  VpVsRatio 2  Npair 6  Diff 10.041
STATISTICS  ExpectX 844.673 Y 366.077 Z 13.8555  CovXX 5.21816 XY 1.94749 XZ -0.397385 YY 4.20629 YZ -2.44354 ZZ 5.83104 EllAz1  332.957 Dip1  26.5682 Len1  2.54871 Az2  265.512 Dip2  -37.4897 Len2  4.22852 Len3  5.429140e+00
STAT_GEOG  ExpectLat 36.908430 Long 26.508978 Depth 13.855538
TRANSFORM  LAMBERT RefEllipsoid WGS-84  LatOrig 34.000000  LongOrig 17.000000  FirstStdParal 34.883300  SecondStdParal 41.766600  RotCW 0.000000
QML_OriginQuality  assocPhCt 19  usedPhCt 19  assocStaCt -1  usedStaCt 13  depthPhCt -1  stdErr 0.255934  azGap 250.99  secAzGap 250.99  gtLevel -  minDist 37.2055 maxDist 173.166 medDist 116.083
QML_OriginUncertainty  horUnc -1  minHorUnc 2.49203  maxHorUnc 3.93269  azMaxHorUnc 52.2814
QML_ConfidenceEllipsoid  semiMajorAxisLength 5.42914  semiMinorAxisLength 2.54871  semiIntermediateAxisLength 4.22852  majorAxisPlunge -40.9494  majorAxisAzimuth 37.2396  majorAxisRotation 100.855
FOCALMECH  Hyp  36.906134 26.509070 14.359375 Mech  0 0 0 mf  0 nObs 0
PHASE ID Ins Cmp On Pha  FM Date     HrMn   Sec     Err  ErrMag    Coda      Amp       Per  >   TTpred    Res       Weight    StaLoc(X  Y         Z)        SDist    SAzim  RAz  RDip RQual    Tcorr 
ASTY   ?    Z    ? P      ? 20030515 2226   51.1300 GAU  0.00e+00 -1.00e+00 -1.00e+00 -1.00e+00 >    6.8760    0.1265    1.2409  839.6137  328.9697   -0.1920   37.2055 187.87   7.9 109.9  9    -0.0642
ASTY   ?    E    ? S      ? 20030515 2226   55.9000 GAU  0.00e+00 -1.00e+00 -1.00e+00 -1.00e+00 >   12.1490   -0.4285    0.9673  839.6137  328.9697   -0.1920   37.2055 187.87   7.9 106.0  9    -0.0121
AMOW   ?    Z    ? P      ? 20030515 2226   55.4900 GAU  0.00e+00 -1.00e+00 -1.00e+00 -1.00e+00 >   11.2903   -0.0178    1.3148  783.7378  346.1576   -0.3250   64.0627 252.12  72.1 101.4  9     0.0258
AMOW   ?    N    ? S      ? 20030515 2227    3.9670 GAU  0.00e+00 -1.00e+00 -1.00e+00 -1.00e+00 >   19.8147   -0.0178    1.1310  783.7378  346.1576   -0.3250   64.0627 252.12  72.1  97.9  9    -0.0216
SCHI   ?    Z    ? P      ? 20030515 2226   59.4700 GAU  0.00e+00 -1.00e+00 -1.00e+00 -1.00e+00 >   15.3108   -0.0696    1.2363  757.4791  353.2589   -0.1000   88.1283 261.80  81.8  97.9  9     0.0371
SCHI   ?    N    ? S      ? 20030515 2227    9.8500 GAU  0.00e+00 -1.00e+00 -1.00e+00 -1.00e+00 >   26.7193   -0.9518    0.4531  757.4791  353.2589   -0.1000   88.1283 261.80  81.8  92.1  9    -0.1092
ANAF   ?    Z    ? P      ? 20030515 2226   59.7200 GAU  0.00e+00 -1.00e+00 -1.00e+00 -1.00e+00 >   15.4519    0.1432    1.1439  785.8920  299.1604   -0.3500   88.9007 221.42  41.4  97.9  9    -0.0668
ANAF   ?    N    ? S      ? 20030515 2227   11.2990 GAU  0.00e+00 -1.00e+00 -1.00e+00 -1.00e+00 >   26.9784    0.4526    0.7402  785.8920  299.1604   -0.3500   88.9007 221.42  41.4  91.7  9    -0.3236
SANN   ?    Z    ? P      ? 20030515 2227    3.4400 GAU  0.00e+00 -1.00e+00 -1.00e+00 -1.00e+00 >   19.2420   -0.0541    1.1475  750.0761  306.9519   -0.1540  111.4496 238.11  58.1  90.2  7     0.0604
SANN   ?    N    ? S      ? 20030515 2227   17.7230 GAU  0.00e+00 -1.00e+00 -1.00e+00 -1.00e+00 >   33.0706    0.4750    0.6885  750.0761  306.9519   -0.1540  111.4496 238.11  58.1  65.8 10    -0.0143
NEAK   ?    Z    ? P      ? 20030515 2227    3.5400 GAU  0.00e+00 -1.00e+00 -1.00e+00 -1.00e+00 >   19.5371   -0.2811    1.0650  751.4711  301.5147   -0.1570  113.2640 235.40  55.4  82.1  6     0.0923
SANS   ?    Z    ? P      ? 20030515 2227    4.0600 GAU  0.00e+00 -1.00e+00 -1.00e+00 -1.00e+00 >   19.9615   -0.1743    1.1119  751.9745  295.9960   -0.1030  116.0835 233.02  53.0  64.9  6     0.0812
THIR   ?    Z    ? P      ? 20030515 2227    4.3600 GAU  0.00e+00 -1.00e+00 -1.00e+00 -1.00e+00 >   20.0873    0.0441    1.1093  745.9182  303.2357   -0.1590  116.9471 237.64  57.6  60.9  6     0.0369
MYKO   ?    Z    ? P      ? 20030515 2227    4.3800 GAU  0.00e+00 -1.00e+00 -1.00e+00 -1.00e+00 >   20.3054   -0.1743    1.1048  738.9410  419.4329   -0.1500  118.5759 296.88 116.9  54.6  9     0.0572
MYKO   ?    N    ? S      ? 20030515 2227   19.1910 GAU  0.00e+00 -1.00e+00 -1.00e+00 -1.00e+00 >   34.9361    0.1648    0.8076  738.9410  419.4329   -0.1500  118.5759 296.88 116.9  63.5 10    -0.1016
PARO   ?    Z    ? P      ? 20030515 2227    4.9400 GAU  0.00e+00 -1.00e+00 -1.00e+00 -1.00e+00 >   20.5465    0.1565    1.0427  724.8810  378.1189   -0.0720  120.4550 275.86  95.9  51.9  9     0.0453
FOLE   ?    Z    ? P      ? 20030515 2227    8.0300 GAU  0.00e+00 -1.00e+00 -1.00e+00 -1.00e+00 >   23.8553   -0.0494    1.0454  706.6447  320.9074   -0.2920  145.1853 251.98  72.0  51.5 10     0.0324
SIFN   ?    Z    ? P      ? 20030515 2227    9.3000 GAU  0.00e+00 -1.00e+00 -1.00e+00 -1.00e+00 >   25.5950   -0.5283    0.8068  686.6747  355.9118   -0.2220  158.3429 266.41  86.4  51.5 10     0.0416
KIMO   ?    Z    ? P      ? 20030515 2227   11.3700 GAU  0.00e+00 -1.00e+00 -1.00e+00 -1.00e+00 >   27.5568   -0.4519    0.8429  673.9456  337.0638   -0.1610  173.1665 260.44  80.4  51.5 10     0.0734
END_PHASE
END_NLLOC

NLLOC "./loc/cyc.20021119.125951.grid0" "LOCATED" "Location completed."
SIGNATURE "Pratul Ranjan   obs:./obs/Seisgram_salo_0902_0503.pick   NLLoc:v7.00.00(27Oct2017)  run:01Aug2019 16h40m20"
COMMENT "Cyclades Events"
GRID  1900 900 80  10 10 0  1 1 1 PROB_DENSITY
SEARCH OCTREE nInitial 4000 nEvaluated 50000 smallestNodeSide 0.370898/0.175586/0.031250 oct_tree_integral 3.296837e+01 scatter_volume 3.296837e+01
HYPOCENTER  x 683.737 y 360.557 z 9.98438  OT 46.6632  ix -1 iy -1 iz -1 MAXIMUM_LIKELIHOOD
GEOGRAPHIC  OT 2002 11 19  12 59 46.663245  Lat 36.993990 Long 24.701435 Depth 9.984375
QUALITY  Pmax 2.96608e+37 MFmin 16.492 MFmax 17.7937 RMS 0.161927 Nphs 16 Gap 189.287 Dist 25.4522 Mamp -9.90 0 Mdur -9.90 0
VPVSRATIO  VpVsRatio 2  Npair 7  Diff 8.773
STATISTICS  ExpectX 683.476 Y 360.753 Z 9.14388  CovXX 1.05133 XY -0.632719 XZ -1.53688 YY 0.938428 YZ 0.00662469 ZZ 14.1183 EllAz1  46.3079 Dip1  4.57137 Len1  0.98868 Az2  316.693 Dip2  -4.81015 Len2  2.32705 Len3  7.104127e+00
STAT_GEOG  ExpectLat 36.995946 Long 24.698697 Depth 9.143878
TRANSFORM  LAMBERT RefEllipsoid WGS-84  LatOrig 34.000000  LongOrig 17.000000  FirstStdParal 34.883300  SecondStdParal 41.766600  RotCW 0.000000
QML_OriginQuality  assocPhCt 16  usedPhCt 16  assocStaCt -1  usedStaCt 9  depthPhCt -1  stdErr 0.161927  azGap 189.287  secAzGap 189.287  gtLevel -  minDist 25.4522 maxDist 113.994 medDist 74.1024
QML_OriginUncertainty  horUnc -1  minHorUnc 0.909497  maxHorUnc 1.9363  azMaxHorUnc 132.451
QML_ConfidenceEllipsoid  semiMajorAxisLength 7.10413  semiMinorAxisLength 0.98868  semiIntermediateAxisLength 2.32705  majorAxisPlunge -83.3567  majorAxisAzimuth 92.9554  majorAxisRotation 224.322
FOCALMECH  Hyp  36.993990 24.701435 9.984375 Mech  0 0 0 mf  0 nObs 0
PHASE ID Ins Cmp On Pha  FM Date     HrMn   Sec     Err  ErrMag    Coda      Amp       Per  >   TTpred    Res       Weight    StaLoc(X  Y         Z)        SDist    SAzim  RAz  RDip RQual    Tcorr 
KIMO   ?    Z    ? P      ? 20021119 1259   51.3460 GAU  0.00e+00 -1.00e+00 -1.00e+00 -1.00e+00 >    4.7377   -0.1284    1.2062  673.9456  337.0638   -0.1610   25.4522 202.62  22.6 109.7  9     0.0734
KIMO   ?    N    ? S      ? 20021119 1259   54.9590 GAU  0.00e+00 -1.00e+00 -1.00e+00 -1.00e+00 >    8.5102    0.0441    1.2861  673.9456  337.0638   -0.1610   25.4522 202.62  22.6 105.2  9    -0.2586
MILO   ?    Z    ? P      ? 20021119 1259   54.2550 GAU  0.00e+00 -1.00e+00 -1.00e+00 -1.00e+00 >    7.6374   -0.2111    1.0664  659.7307  324.7908   -0.1760   43.0761 213.87  33.9 101.2  9     0.1654
MILO   ?    E    ? S      ? 20021119 1300    0.2810 GAU  0.00e+00 -1.00e+00 -1.00e+00 -1.00e+00 >   13.5995    0.2109    1.0176  659.7307  324.7908   -0.1760   43.0761 213.87  33.9  96.0  9    -0.1927
PARO   ?    Z    ? P      ? 20021119 1259   54.6700 GAU  0.00e+00 -1.00e+00 -1.00e+00 -1.00e+00 >    7.9093    0.0521    1.2819  724.8810  378.1189   -0.0720   44.7352  66.89 246.9 100.6  9     0.0453
PARO   ?    E    ? S      ? 20021119 1300    0.5580 GAU  0.00e+00 -1.00e+00 -1.00e+00 -1.00e+00 >   14.0652   -0.0170    1.1559  724.8810  378.1189   -0.0720   44.7352  66.89 246.9  95.2  9    -0.1535
FOLE   ?    Z    ? P      ? 20021119 1259   54.8080 GAU  0.00e+00 -1.00e+00 -1.00e+00 -1.00e+00 >    8.0963    0.0160    1.2955  706.6447  320.9074   -0.2920   45.7916 149.98 330.0 100.5  9     0.0324
FOLE   ?    E    ? S      ? 20021119 1300    0.6110 GAU  0.00e+00 -1.00e+00 -1.00e+00 -1.00e+00 >   14.4028   -0.1210    1.0943  706.6447  320.9074   -0.2920   45.7916 149.98 330.0  94.9  9    -0.3340
SCHI   ?    Z    ? P      ? 20021119 1259   59.6780 GAU  0.00e+00 -1.00e+00 -1.00e+00 -1.00e+00 >   12.8534    0.1243    1.1382  757.4791  353.2589   -0.1000   74.1024  95.65 275.7  96.1  9     0.0371
MYKO   ?    Z    ? P      ? 20021119 1300    0.6770 GAU  0.00e+00 -1.00e+00 -1.00e+00 -1.00e+00 >   13.9721   -0.0156    1.1592  738.9410  419.4329   -0.1500   80.7082  43.16 223.2  95.5  9     0.0572
MYKO   ?    E    ? S      ? 20021119 1300    9.9150 GAU  0.00e+00 -1.00e+00 -1.00e+00 -1.00e+00 >   24.5051   -1.1517    0.1421  738.9410  419.4329   -0.1500   80.7082  43.16 223.2  85.0  9    -0.1016
ANID   ?    Z    ? P      ? 20021119 1300    3.5930 GAU  0.00e+00 -1.00e+00 -1.00e+00 -1.00e+00 >   16.5726    0.2621    0.9004  774.1589  328.1052   -0.1790   96.0691 109.74 289.7  94.6  9     0.0950
ANID   ?    E    ? S      ? 20021119 1300   15.9270 GAU  0.00e+00 -1.00e+00 -1.00e+00 -1.00e+00 >   28.9618    0.3062    0.6812  774.1589  328.1052   -0.1790   96.0691 109.74 289.7  84.8  9    -0.0043
AMOW   ?    Z    ? P      ? 20021119 1300    4.1310 GAU  0.00e+00 -1.00e+00 -1.00e+00 -1.00e+00 >   17.4187    0.0232    1.0455  783.7378  346.1576   -0.3250  101.0322  98.19 278.2  94.4  9     0.0258
AMOW   ?    E    ? S      ? 20021119 1300   16.5170 GAU  0.00e+00 -1.00e+00 -1.00e+00 -1.00e+00 >   30.4209   -0.5455    0.5482  783.7378  346.1576   -0.3250  101.0322  98.19 278.2  84.7  9    -0.0216
AMOE   ?    Z    ? P      ? 20021119 1300    6.3020 GAU  0.00e+00 -1.00e+00 -1.00e+00 -1.00e+00 >   19.6103    0.0035    0.9813  797.7122  362.6484   -0.2100  113.9944  88.95 268.9  93.8  9     0.0250
END_PHASE
END_NLLOC

NLLOC "./loc/cyc.20030118.205144.grid0" "LOCATED" "Location completed."
SIGNATURE "Pratul Ranjan   obs:./obs/Seisgram_salo_0902_0503.pick   NLLoc:v7.00.00(27Oct2017)  run:01Aug2019 16h41m01"
COMMENT "Cyclades Events"
GRID  1900 900 80  10 10 0  1 1 1 PROB_DENSITY
SEARCH OCTREE nInitial 4000 nEvaluated 50000 smallestNodeSide 0.370898/0.175586/0.031250 oct_tree_integral 4.902467e+01 scatter_volume 4.876312e+01
HYPOCENTER  x 772.196 y 288.655 z 17.5312  OT 39.7258  ix -1 iy -1 iz -1 MAXIMUM_LIKELIHOOD
GEOGRAPHIC  OT 2003 01 18  20 51 39.725835  Lat 36.277258 Long 25.616965 Depth 17.531250
QUALITY  Pmax 2.77741e+30 MFmin 13.7541 MFmax 15.6446 RMS 0.203787 Nphs 14 Gap 270.926 Dist 21.5131 Mamp -9.90 0 Mdur -9.90 0
VPVSRATIO  VpVsRatio 2  Npair 7  Diff 8.958
STATISTICS  ExpectX 772.271 Y 288.195 Z 17.2161  CovXX 2.00974 XY -0.995308 XZ -0.531001 YY 4.23014 YZ -0.996325 ZZ 3.58216 EllAz1  243.964 Dip1  -21.7316 Len1  2.13226 Az2  304.178 Dip2  51.2571 Len2  3.5077 Len3  4.221531e+00
STAT_GEOG  ExpectLat 36.273061 Long 25.617319 Depth 17.216150
TRANSFORM  LAMBERT RefEllipsoid WGS-84  LatOrig 34.000000  LongOrig 17.000000  FirstStdParal 34.883300  SecondStdParal 41.766600  RotCW 0.000000
QML_OriginQuality  assocPhCt 14  usedPhCt 14  assocStaCt -1  usedStaCt 7  depthPhCt -1  stdErr 0.203787  azGap 270.926  secAzGap 270.926  gtLevel -  minDist 21.5131 maxDist 108.8 medDist 73.0564
QML_OriginUncertainty  horUnc -1  minHorUnc 1.93558  maxHorUnc 3.25657  azMaxHorUnc 159.062
QML_ConfidenceEllipsoid  semiMajorAxisLength 4.22153  semiMinorAxisLength 2.13226  semiIntermediateAxisLength 3.5077  majorAxisPlunge 30.3013  majorAxisAzimuth 167.434  majorAxisRotation 315.958
FOCALMECH  Hyp  36.277258 25.616965 17.531250 Mech  0 0 0 mf  0 nObs 0
PHASE ID Ins Cmp On Pha  FM Date     HrMn   Sec     Err  ErrMag    Coda      Amp       Per  >   TTpred    Res       Weight    StaLoc(X  Y         Z)        SDist    SAzim  RAz  RDip RQual    Tcorr 
SANS   ?    Z    ? P      ? 20030118 2051   44.3110 GAU  0.00e+00 -1.00e+00 -1.00e+00 -1.00e+00 >    4.7647   -0.2607    1.0440  751.9745  295.9960   -0.1030   21.5131 289.95 110.0 127.6 10     0.0812
SANS   ?    N    ? S      ? 20030118 2051   48.3110 GAU  0.00e+00 -1.00e+00 -1.00e+00 -1.00e+00 >    8.3969    0.2002    1.1180  751.9745  295.9960   -0.1030   21.5131 289.95 110.0 125.8  9    -0.0120
SANN   ?    Z    ? P      ? 20030118 2051   45.3510 GAU  0.00e+00 -1.00e+00 -1.00e+00 -1.00e+00 >    5.7858   -0.2210    1.1047  750.0761  306.9519   -0.1540   28.7069 309.60 129.6 120.0  9     0.0604
SANN   ?    E    ? S      ? 20030118 2051   49.9470 GAU  0.00e+00 -1.00e+00 -1.00e+00 -1.00e+00 >   10.1891    0.0463    1.2533  750.0761  306.9519   -0.1540   28.7069 309.60 129.6 117.7  9    -0.0143
SCHI   ?    Z    ? P      ? 20030118 2051   51.9350 GAU  0.00e+00 -1.00e+00 -1.00e+00 -1.00e+00 >   11.7558    0.4163    0.7611  757.4791  353.2589   -0.1000   66.2592 347.17 167.2 103.2  9     0.0371
SCHI   ?    E    ? S      ? 20030118 2052    0.0040 GAU  0.00e+00 -1.00e+00 -1.00e+00 -1.00e+00 >   20.5616   -0.1742    0.9787  757.4791  353.2589   -0.1000   66.2592 347.17 167.2  94.9  9    -0.1092
FOLE   ?    Z    ? P      ? 20030118 2051   52.7000 GAU  0.00e+00 -1.00e+00 -1.00e+00 -1.00e+00 >   12.8899    0.0518    1.2037  706.6447  320.9074   -0.2920   73.0564 296.20 116.2 102.0  9     0.0324
FOLE   ?    N    ? S      ? 20030118 2052    1.8240 GAU  0.00e+00 -1.00e+00 -1.00e+00 -1.00e+00 >   22.4942   -0.0620    0.9762  706.6447  320.9074   -0.2920   73.0564 296.20 116.2  83.7  8    -0.3340
AMOE   ?    Z    ? P      ? 20030118 2051   53.5440 GAU  0.00e+00 -1.00e+00 -1.00e+00 -1.00e+00 >   13.7517    0.0415    1.1881  797.7122  362.6484   -0.2100   78.2694  19.03 199.0 101.0  9     0.0250
AMOE   ?    N    ? S      ? 20030118 2052    3.6060 GAU  0.00e+00 -1.00e+00 -1.00e+00 -1.00e+00 >   23.9046    0.1079    0.9327  797.7122  362.6484   -0.2100   78.2694  19.03 199.0  73.6  8    -0.1323
PARO   ?    Z    ? P      ? 20030118 2051   56.9900 GAU  0.00e+00 -1.00e+00 -1.00e+00 -1.00e+00 >   17.5581   -0.3393    0.8823  724.8810  378.1189   -0.0720  101.2055 332.13 152.1  83.1  8     0.0453
PARO   ?    N    ? S      ? 20030118 2052    9.2880 GAU  0.00e+00 -1.00e+00 -1.00e+00 -1.00e+00 >   29.9690   -0.2534    0.7752  724.8810  378.1189   -0.0720  101.2055 332.13 152.1  66.2 10    -0.1535
SIFN   ?    Z    ? P      ? 20030118 2051   58.6200 GAU  0.00e+00 -1.00e+00 -1.00e+00 -1.00e+00 >   18.6821    0.1704    1.0146  686.6747  355.9118   -0.2220  108.8000 308.18 128.2  53.5  9     0.0416
SIFN   ?    E    ? S      ? 20030118 2052   11.5780 GAU  0.00e+00 -1.00e+00 -1.00e+00 -1.00e+00 >   32.0037    0.1699    0.7675  686.6747  355.9118   -0.2220  108.8000 308.18 128.2  64.8 10    -0.3215
END_PHASE
END_NLLOC

NLLOC "./loc/cyc.20021024.061113.grid0" "LOCATED" "Location completed."
SIGNATURE "Pratul Ranjan   obs:./obs/Seisgram_salo_0902_0503.pick   NLLoc:v7.00.00(27Oct2017)  run:01Aug2019 16h39m35"
COMMENT "Cyclades Events"
GRID  1900 900 80  10 10 0  1 1 1 PROB_DENSITY
SEARCH OCTREE nInitial 4000 nEvaluated 50032 smallestNodeSide 0.370898/0.175586/0.031250 oct_tree_integral 7.868708e+01 scatter_volume 7.868708e+01
HYPOCENTER  x 749.942 y 420.696 z 4.96875  OT 11.7484  ix -1 iy -1 iz -1 MAXIMUM_LIKELIHOOD
GEOGRAPHIC  OT 2002 10 24  06 11 11.748414  Lat 37.482282 Long 25.505377 Depth 4.968750
QUALITY  Pmax 1.20873e+17 MFmin 9.5955 MFmax 10.7768 RMS 0.139514 Nphs 9 Gap 237.094 Dist 11.0736 Mamp -9.90 0 Mdur -9.90 0
VPVSRATIO  VpVsRatio 2  Npair 2  Diff 4.628
STATISTICS  ExpectX 749.413 Y 421.442 Z 6.77357  CovXX 1.88306 XY -0.64971 XZ -2.43364 YY 7.58529 YZ 5.90732 ZZ 12.6211 EllAz1  280.638 Dip1  -17.0225 Len1  2.09806 Az2  200.185 Dip2  28.4467 Len2  3.72782 Len3  7.725108e+00
STAT_GEOG  ExpectLat 37.489430 Long 25.500184 Depth 6.773566
TRANSFORM  LAMBERT RefEllipsoid WGS-84  LatOrig 34.000000  LongOrig 17.000000  FirstStdParal 34.883300  SecondStdParal 41.766600  RotCW 0.000000
QML_OriginQuality  assocPhCt 9  usedPhCt 9  assocStaCt -1  usedStaCt 7  depthPhCt -1  stdErr 0.139514  azGap 237.094  secAzGap 252.158  gtLevel -  minDist 11.0736 maxDist 113.003 medDist 75.1759
QML_OriginUncertainty  horUnc -1  minHorUnc 2.04033  maxHorUnc 4.19694  azMaxHorUnc 173.581
QML_ConfidenceEllipsoid  semiMajorAxisLength 7.72511  semiMinorAxisLength 2.09806  semiIntermediateAxisLength 3.72782  majorAxisPlunge -56.0059  majorAxisAzimuth 163.637  majorAxisRotation 58.6231
FOCALMECH  Hyp  37.482282 25.505377 4.968750 Mech  0 0 0 mf  0 nObs 0
PHASE ID Ins Cmp On Pha  FM Date     HrMn   Sec     Err  ErrMag    Coda      Amp       Per  >   TTpred    Res       Weight    StaLoc(X  Y         Z)        SDist    SAzim  RAz  RDip RQual    Tcorr 
MYKO   ?    Z    ? P      ? 20021024 0611   13.8200 GAU  0.00e+00 -1.00e+00 -1.00e+00 -1.00e+00 >    2.1359   -0.1215    1.1117  738.9410  419.4329   -0.1500   11.0736 263.45  83.5 113.0  9     0.0572
MYKO   ?    E    ? S      ? 20021024 0611   15.6980 GAU  0.00e+00 -1.00e+00 -1.00e+00 -1.00e+00 >    3.9802    0.0709    1.1411  738.9410  419.4329   -0.1500   11.0736 263.45  83.5 109.3  9    -0.1016
PARO   ?    Z    ? P      ? 20021024 0611   20.4570 GAU  0.00e+00 -1.00e+00 -1.00e+00 -1.00e+00 >    8.6053    0.0580    1.1515  724.8810  378.1189   -0.0720   49.4049 210.48  30.5  85.5  9     0.0453
PARO   ?    E    ? S      ? 20021024 0611   26.9630 GAU  0.00e+00 -1.00e+00 -1.00e+00 -1.00e+00 >   15.3184    0.0496    1.0111  724.8810  378.1189   -0.0720   49.4049 210.48  30.5  78.0  8    -0.1535
SCHI   ?    Z    ? P      ? 20021024 0611   23.2570 GAU  0.00e+00 -1.00e+00 -1.00e+00 -1.00e+00 >   11.7392   -0.2677    0.8669  757.4791  353.2589   -0.1000   67.8564 173.62 353.6  84.2  9     0.0371
AMOE   ?    Z    ? P      ? 20021024 0611   25.0200 GAU  0.00e+00 -1.00e+00 -1.00e+00 -1.00e+00 >   12.9865    0.2601    0.8298  797.7122  362.6484   -0.2100   75.1759 140.55 320.5  84.1  9     0.0250
AMOW   ?    Z    ? P      ? 20021024 0611   25.9240 GAU  0.00e+00 -1.00e+00 -1.00e+00 -1.00e+00 >   14.1224    0.0274    1.0539  783.7378  346.1576   -0.3250   81.8415 155.61 335.6  84.0  9     0.0258
ANID   ?    Z    ? P      ? 20021024 0611   28.1710 GAU  0.00e+00 -1.00e+00 -1.00e+00 -1.00e+00 >   16.4706   -0.1430    0.9432  774.1589  328.1052   -0.1790   95.7048 165.34 345.3  83.9  9     0.0950
KIMO   ?    Z    ? P      ? 20021024 0611   31.1300 GAU  0.00e+00 -1.00e+00 -1.00e+00 -1.00e+00 >   19.4068   -0.0986    0.8909  673.9456  337.0638   -0.1610  113.0034 222.26  42.3  83.8  9     0.0734
END_PHASE
END_NLLOC

