NLLOC "./loc/cyc.20021116.044112.grid0" "LOCATED" "Location completed."
SIGNATURE "Pratul Ranjan   obs:./obs/Seisgram_salo_0902_0503.pick   NLLoc:v7.00.00(27Oct2017)  run:01Aug2019 16h40m18"
COMMENT "Cyclades Events"
GRID  1900 900 80  10 10 0  1 1 1 PROB_DENSITY
SEARCH OCTREE nInitial 4000 nEvaluated 50000 smallestNodeSide 0.370898/0.175586/0.031250 oct_tree_integral 2.772007e+01 scatter_volume 2.741261e+01
HYPOCENTER  x 812.439 y 348.442 z 13.6719  OT 8.08643  ix -1 iy -1 iz -1 MAXIMUM_LIKELIHOOD
GEOGRAPHIC  OT 2002 11 16  04 41 8.086431  Lat 36.779403 Long 26.128950 Depth 13.671875
QUALITY  Pmax 3.77362e+17 MFmin 10.6418 MFmax 10.8071 RMS 0.130542 Nphs 9 Gap 171.653 Dist 20.4621 Mamp -9.90 0 Mdur -9.90 0
VPVSRATIO  VpVsRatio 2  Npair 4  Diff 3.503
STATISTICS  ExpectX 812.339 Y 348.708 Z 13.4481  CovXX 0.724212 XY 0.210114 XZ -0.178078 YY 2.14344 YZ 3.60345 ZZ 14.5534 EllAz1  293.135 Dip1  -6.46412 Len1  1.47042 Az2  24.6999 Dip2  -13.5555 Len2  2.12879 Len3  7.402873e+00
STAT_GEOG  ExpectLat 36.781884 Long 26.128132 Depth 13.448128
TRANSFORM  LAMBERT RefEllipsoid WGS-84  LatOrig 34.000000  LongOrig 17.000000  FirstStdParal 34.883300  SecondStdParal 41.766600  RotCW 0.000000
QML_OriginQuality  assocPhCt 9  usedPhCt 9  assocStaCt -1  usedStaCt 5  depthPhCt -1  stdErr 0.130542  azGap 171.653  secAzGap 171.653  gtLevel -  minDist 20.4621 maxDist 55.1704 medDist 33.4312
QML_OriginUncertainty  horUnc -1  minHorUnc 1.26319  maxHorUnc 2.23606  azMaxHorUnc 8.24691
QML_ConfidenceEllipsoid  semiMajorAxisLength 7.40287  semiMinorAxisLength 1.47042  semiIntermediateAxisLength 2.12879  majorAxisPlunge -74.9286  majorAxisAzimuth 178.253  majorAxisRotation 29.049
FOCALMECH  Hyp  36.779403 26.128950 13.671875 Mech  0 0 0 mf  0 nObs 0
PHASE ID Ins Cmp On Pha  FM Date     HrMn   Sec     Err  ErrMag    Coda      Amp       Per  >   TTpred    Res       Weight    StaLoc(X  Y         Z)        SDist    SAzim  RAz  RDip RQual    Tcorr 
AMOE   ?    Z    ? P      ? 20021116 0441   12.2980 GAU  0.00e+00 -1.00e+00 -1.00e+00 -1.00e+00 >    4.2536   -0.0670    1.1273  797.7122  362.6484   -0.2100   20.4621 313.97 134.0 122.4  9     0.0250
AMOE   ?    E    ? S      ? 20021116 0441   15.4980 GAU  0.00e+00 -1.00e+00 -1.00e+00 -1.00e+00 >    7.5573   -0.0134    1.1502  797.7122  362.6484   -0.2100   20.4621 313.97 134.0 119.2  9    -0.1323
AMOW   ?    Z    ? P      ? 20021116 0441   13.6570 GAU  0.00e+00 -1.00e+00 -1.00e+00 -1.00e+00 >    5.5138    0.0310    1.1397  783.7378  346.1576   -0.3250   28.7917 265.45  85.4 114.4  9     0.0258
AMOW   ?    E    ? S      ? 20021116 0441   17.9300 GAU  0.00e+00 -1.00e+00 -1.00e+00 -1.00e+00 >    9.7828    0.0824    1.0945  783.7378  346.1576   -0.3250   28.7917 265.45  85.4 110.4  9    -0.0216
ASTY   ?    Z    ? P      ? 20021116 0441   14.4480 GAU  0.00e+00 -1.00e+00 -1.00e+00 -1.00e+00 >    6.2333    0.1925    0.8970  839.6137  328.9697   -0.1920   33.4312 125.62 305.6 111.0  9    -0.0642
ASTY   ?    N    ? S      ? 20021116 0441   18.9200 GAU  0.00e+00 -1.00e+00 -1.00e+00 -1.00e+00 >   11.0399   -0.1942    0.9286  839.6137  328.9697   -0.1920   33.4312 125.62 305.6 106.9  9    -0.0121
ANID   ?    Z    ? P      ? 20021116 0441   15.9670 GAU  0.00e+00 -1.00e+00 -1.00e+00 -1.00e+00 >    7.8323   -0.0468    1.1404  774.1589  328.1052   -0.1790   43.3466 242.02  62.0 106.3  9     0.0950
SCHI   ?    Z    ? P      ? 20021116 0441   17.9170 GAU  0.00e+00 -1.00e+00 -1.00e+00 -1.00e+00 >    9.7761    0.0174    1.1457  757.4791  353.2589   -0.1000   55.1704 275.01  95.0 102.6  9     0.0371
SCHI   ?    N    ? S      ? 20021116 0441   24.6200 GAU  0.00e+00 -1.00e+00 -1.00e+00 -1.00e+00 >   17.1984   -0.5556    0.3766  757.4791  353.2589   -0.1000   55.1704 275.01  95.0  98.5  9    -0.1092
END_PHASE
END_NLLOC

NLLOC "./loc/cyc.20030506.070353.grid0" "LOCATED" "Location completed."
SIGNATURE "Pratul Ranjan   obs:./obs/Seisgram_salo_0902_0503.pick   NLLoc:v7.00.00(27Oct2017)  run:01Aug2019 16h43m42"
COMMENT "Cyclades Events"
GRID  1900 900 80  10 10 0  1 1 1 PROB_DENSITY
SEARCH OCTREE nInitial 4000 nEvaluated 50000 smallestNodeSide 0.185449/0.087793/0.015625 oct_tree_integral 1.104677e+01 scatter_volume 1.104677e+01
HYPOCENTER  x 768.951 y 321.182 z 5.00781  OT 49.0582  ix -1 iy -1 iz -1 MAXIMUM_LIKELIHOOD
GEOGRAPHIC  OT 2003 05 06  07 03 49.058221  Lat 36.572198 Long 25.614726 Depth 5.007812
QUALITY  Pmax 5.97229e+38 MFmin 19.1109 MFmax 19.3614 RMS 0.161171 Nphs 16 Gap 111.801 Dist 26.3126 Mamp -9.90 0 Mdur -9.90 0
VPVSRATIO  VpVsRatio 2  Npair 7  Diff 3.445
STATISTICS  ExpectX 768.838 Y 321.14 Z 8.79775  CovXX 0.458182 XY -0.0724328 XZ 0.402664 YY 0.207266 YZ -0.432994 ZZ 9.82815 EllAz1  191.606 Dip1  -2.03612 Len1  0.789721 Az2  281.502 Dip2  2.93617 Len2  1.26294 Len3  5.901164e+00
STAT_GEOG  ExpectLat 36.571910 Long 25.613428 Depth 8.797754
TRANSFORM  LAMBERT RefEllipsoid WGS-84  LatOrig 34.000000  LongOrig 17.000000  FirstStdParal 34.883300  SecondStdParal 41.766600  RotCW 0.000000
QML_OriginQuality  assocPhCt 16  usedPhCt 16  assocStaCt -1  usedStaCt 9  depthPhCt -1  stdErr 0.161171  azGap 111.801  secAzGap 111.801  gtLevel -  minDist 26.3126 maxDist 89.3058 medDist 30.3734
QML_OriginUncertainty  horUnc -1  minHorUnc 0.657322  maxHorUnc 1.04807  azMaxHorUnc 105
QML_ConfidenceEllipsoid  semiMajorAxisLength 5.90116  semiMinorAxisLength 0.789721  semiIntermediateAxisLength 1.26294  majorAxisPlunge 86.4259  majorAxisAzimuth 136.3  majorAxisRotation 34.9556
FOCALMECH  Hyp  36.572198 25.614726 5.007812 Mech  0 0 0 mf  0 nObs 0
PHASE ID Ins Cmp On Pha  FM Date     HrMn   Sec     Err  ErrMag    Coda      Amp       Per  >   TTpred    Res       Weight    StaLoc(X  Y         Z)        SDist    SAzim  RAz  RDip RQual    Tcorr 
NEAK   ?    Z    ? P      ? 20030506 0703   53.8200 GAU  0.00e+00 -1.00e+00 -1.00e+00 -1.00e+00 >    4.6873   -0.0178    1.2144  751.4711  301.5147   -0.1570   26.3126 221.63  41.6  98.5  9     0.0923
NEAK   ?    N    ? S      ? 20030506 0703   57.4400 GAU  0.00e+00 -1.00e+00 -1.00e+00 -1.00e+00 >    8.4939   -0.3118    0.7720  751.4711  301.5147   -0.1570   26.3126 221.63  41.6  80.3  8     0.1997
ANAF   ?    Z    ? P      ? 20030506 0703   54.0220 GAU  0.00e+00 -1.00e+00 -1.00e+00 -1.00e+00 >    4.9445    0.0860    1.1648  785.8920  299.1604   -0.3500   27.7841 142.43 322.4  98.1  9    -0.0668
ANAF   ?    N    ? S      ? 20030506 0703   57.5910 GAU  0.00e+00 -1.00e+00 -1.00e+00 -1.00e+00 >    8.9546   -0.0982    1.1652  785.8920  299.1604   -0.3500   27.7841 142.43 322.4  79.9  8    -0.3236
AMOW   ?    Z    ? P      ? 20030506 0703   54.4300 GAU  0.00e+00 -1.00e+00 -1.00e+00 -1.00e+00 >    5.1541    0.1919    0.9958  783.7378  346.1576   -0.3250   29.0246  30.63 210.6  97.4  9     0.0258
AMOW   ?    E    ? S      ? 20030506 0703   58.2110 GAU  0.00e+00 -1.00e+00 -1.00e+00 -1.00e+00 >    9.3181   -0.1437    1.1069  783.7378  346.1576   -0.3250   29.0246  30.63 210.6  79.6  8    -0.0216
THIR   ?    Z    ? P      ? 20030506 0703   54.2070 GAU  0.00e+00 -1.00e+00 -1.00e+00 -1.00e+00 >    5.1774   -0.0655    1.1941  745.9182  303.2357   -0.1590   29.1991 232.08  52.1  96.8  9     0.0369
THIR   ?    N    ? S      ? 20030506 0703   58.2870 GAU  0.00e+00 -1.00e+00 -1.00e+00 -1.00e+00 >    9.3481   -0.0218    1.2137  745.9182  303.2357   -0.1590   29.1991 232.08  52.1  79.5  8    -0.0976
SANS   ?    Z    ? P      ? 20030506 0703   54.5950 GAU  0.00e+00 -1.00e+00 -1.00e+00 -1.00e+00 >    5.3744    0.0812    1.1698  751.9745  295.9960   -0.1030   30.3734 213.98  34.0  96.0  9     0.0812
SANS   ?    E    ? S      ? 20030506 0703   58.9910 GAU  0.00e+00 -1.00e+00 -1.00e+00 -1.00e+00 >    9.6879    0.2569    0.8517  751.9745  295.9960   -0.1030   30.3734 213.98  34.0  79.4  8    -0.0120
SCHI   ?    Z    ? P      ? 20030506 0703   55.0300 GAU  0.00e+00 -1.00e+00 -1.00e+00 -1.00e+00 >    6.0013   -0.0666    1.1933  757.4791  353.2589   -0.1000   34.0664 340.32 160.3  93.7  9     0.0371
SCHI   ?    N    ? S      ? 20030506 0703   59.8570 GAU  0.00e+00 -1.00e+00 -1.00e+00 -1.00e+00 >   10.7801    0.1279    1.0880  757.4791  353.2589   -0.1000   34.0664 340.32 160.3  79.1  8    -0.1092
FOLE   ?    Z    ? P      ? 20030506 0703   59.9850 GAU  0.00e+00 -1.00e+00 -1.00e+00 -1.00e+00 >   10.8033    0.0911    1.1323  706.6447  320.9074   -0.2920   62.3068 269.75  89.7  84.6  9     0.0324
FOLE   ?    N    ? S      ? 20030506 0704    6.9990 GAU  0.00e+00 -1.00e+00 -1.00e+00 -1.00e+00 >   19.1602   -0.8854    0.1793  706.6447  320.9074   -0.2920   62.3068 269.75  89.7  78.3  8    -0.3340
PARO   ?    Z    ? P      ? 20030506 0704    1.4000 GAU  0.00e+00 -1.00e+00 -1.00e+00 -1.00e+00 >   12.4404   -0.1439    1.0423  724.8810  378.1189   -0.0720   71.9997 322.26 142.3  84.4  9     0.0453
SIFN   ?    N    ? S      ? 20030506 0704   15.3650 GAU  0.00e+00 -1.00e+00 -1.00e+00 -1.00e+00 >   27.1397   -0.5115    0.5165  686.6747  355.9118   -0.2220   89.3058 292.89 112.9  78.0  8    -0.3215
END_PHASE
END_NLLOC

NLLOC "./loc/cyc.20021026.215711.grid0" "LOCATED" "Location completed."
SIGNATURE "Pratul Ranjan   obs:./obs/Seisgram_salo_0902_0503.pick   NLLoc:v7.00.00(27Oct2017)  run:01Aug2019 16h39m38"
COMMENT "Cyclades Events"
GRID  1900 900 80  10 10 0  1 1 1 PROB_DENSITY
SEARCH OCTREE nInitial 4000 nEvaluated 50024 smallestNodeSide 0.185449/0.087793/0.015625 oct_tree_integral 1.092066e+01 scatter_volume 1.092066e+01
HYPOCENTER  x 755.877 y 317.1 z 5.53125  OT 8.70372  ix -1 iy -1 iz -1 MAXIMUM_LIKELIHOOD
GEOGRAPHIC  OT 2002 10 26  21 57 8.703725  Lat 36.546414 Long 25.464899 Depth 5.531250
QUALITY  Pmax 2.02178e+20 MFmin 11.2666 MFmax 11.8723 RMS 0.123925 Nphs 10 Gap 135.259 Dist 11.6887 Mamp -9.90 0 Mdur -9.90 0
VPVSRATIO  VpVsRatio 2  Npair 5  Diff 8.628
STATISTICS  ExpectX 756.061 Y 316.873 Z 6.15687  CovXX 0.571722 XY -0.367334 XZ 0.672629 YY 0.686959 YZ -1.11873 ZZ 6.14375 EllAz1  223.792 Dip1  -3.31895 Len1  0.92983 Az2  313.025 Dip2  12.9882 Len2  1.57458 Len3  4.773542e+00
STAT_GEOG  ExpectLat 36.544221 Long 25.466715 Depth 6.156871
TRANSFORM  LAMBERT RefEllipsoid WGS-84  LatOrig 34.000000  LongOrig 17.000000  FirstStdParal 34.883300  SecondStdParal 41.766600  RotCW 0.000000
QML_OriginQuality  assocPhCt 10  usedPhCt 10  assocStaCt -1  usedStaCt 5  depthPhCt -1  stdErr 0.123925  azGap 135.259  secAzGap 135.259  gtLevel -  minDist 11.6887 maxDist 84.3284 medDist 21.4615
QML_OriginUncertainty  horUnc -1  minHorUnc 0.7696  maxHorUnc 1.51746  azMaxHorUnc 139.457
QML_ConfidenceEllipsoid  semiMajorAxisLength 4.77354  semiMinorAxisLength 0.92983  semiIntermediateAxisLength 1.57458  majorAxisPlunge 76.58  majorAxisAzimuth 147.858  majorAxisRotation 16.1031
FOCALMECH  Hyp  36.546414 25.464899 5.531250 Mech  0 0 0 mf  0 nObs 0
PHASE ID Ins Cmp On Pha  FM Date     HrMn   Sec     Err  ErrMag    Coda      Amp       Per  >   TTpred    Res       Weight    StaLoc(X  Y         Z)        SDist    SAzim  RAz  RDip RQual    Tcorr 
SANN   ?    Z    ? P      ? 20021026 2157   11.0250 GAU  0.00e+00 -1.00e+00 -1.00e+00 -1.00e+00 >    2.2719   -0.0110    1.1745  750.0761  306.9519   -0.1540   11.6887 209.75  29.8 113.4  9     0.0604
SANN   ?    E    ? S      ? 20021026 2157   12.9400 GAU  0.00e+00 -1.00e+00 -1.00e+00 -1.00e+00 >    4.2064    0.0441    1.1641  750.0761  306.9519   -0.1540   11.6887 209.75  29.8 108.0  9    -0.0143
ANID   ?    Z    ? P      ? 20021026 2157   12.6680 GAU  0.00e+00 -1.00e+00 -1.00e+00 -1.00e+00 >    3.8597    0.0095    1.1754  774.1589  328.1052   -0.1790   21.3391  58.95 239.0 101.8  9     0.0950
ANID   ?    E    ? S      ? 20021026 2157   15.7340 GAU  0.00e+00 -1.00e+00 -1.00e+00 -1.00e+00 >    7.0422   -0.0077    1.1750  774.1589  328.1052   -0.1790   21.3391  58.95 239.0  92.8  9    -0.0043
SANS   ?    Z    ? P      ? 20021026 2157   12.5100 GAU  0.00e+00 -1.00e+00 -1.00e+00 -1.00e+00 >    3.8767   -0.1516    1.0251  751.9745  295.9960   -0.1030   21.4615 190.48  10.5 101.5  9     0.0812
SANS   ?    E    ? S      ? 20021026 2157   15.8360 GAU  0.00e+00 -1.00e+00 -1.00e+00 -1.00e+00 >    7.0678    0.0764    1.1397  751.9745  295.9960   -0.1030   21.4615 190.48  10.5  92.3  9    -0.0120
FOLE   ?    Z    ? P      ? 20021026 2157   17.3490 GAU  0.00e+00 -1.00e+00 -1.00e+00 -1.00e+00 >    8.6128   -0.0000    1.1757  706.6447  320.9074   -0.2920   49.3791 274.42  94.4  90.0  9     0.0324
FOLE   ?    N    ? S      ? 20021026 2157   23.4730 GAU  0.00e+00 -1.00e+00 -1.00e+00 -1.00e+00 >   15.3420   -0.2387    0.7922  706.6447  320.9074   -0.2920   49.3791 274.42  94.4  86.2  8    -0.3340
KIMO   ?    Z    ? P      ? 20021026 2157   23.7590 GAU  0.00e+00 -1.00e+00 -1.00e+00 -1.00e+00 >   14.5395    0.4423    0.5094  673.9456  337.0638   -0.1610   84.3284 283.69 103.7  88.3  9     0.0734
KIMO   ?    N    ? S      ? 20021026 2157   34.3020 GAU  0.00e+00 -1.00e+00 -1.00e+00 -1.00e+00 >   25.6625    0.1944    0.6690  673.9456  337.0638   -0.1610   84.3284 283.69 103.7  85.3  8    -0.2586
END_PHASE
END_NLLOC

NLLOC "./loc/cyc.20030302.195852.grid0" "LOCATED" "Location completed."
SIGNATURE "Pratul Ranjan   obs:./obs/Seisgram_salo_0902_0503.pick   NLLoc:v7.00.00(27Oct2017)  run:01Aug2019 16h41m40"
COMMENT "Cyclades Events"
GRID  1900 900 80  10 10 0  1 1 1 PROB_DENSITY
SEARCH OCTREE nInitial 4000 nEvaluated 50000 smallestNodeSide 0.370898/0.175586/0.031250 oct_tree_integral 2.509774e+01 scatter_volume 2.470787e+01
HYPOCENTER  x 779.058 y 332.99 z 4.95312  OT 50.1532  ix -1 iy -1 iz -1 MAXIMUM_LIKELIHOOD
GEOGRAPHIC  OT 2003 03 02  19 58 50.153160  Lat 36.669722 Long 25.739771 Depth 4.953125
QUALITY  Pmax 1.81795e+37 MFmin 16.7694 MFmax 18.4742 RMS 0.19835 Nphs 16 Gap 196.642 Dist 13.9743 Mamp -9.90 0 Mdur -9.90 0
VPVSRATIO  VpVsRatio 2  Npair 8  Diff 10.626
STATISTICS  ExpectX 779.574 Y 333.036 Z 7.62781  CovXX 2.18578 XY -0.188518 XZ 2.95407 YY 0.420422 YZ 0.19125 ZZ 9.11786 EllAz1  196.56 Dip1  6.66305 Len1  1.09724 Az2  288.865 Dip2  18.9927 Len2  2.03724 Len3  6.002639e+00
STAT_GEOG  ExpectLat 36.669690 Long 25.745574 Depth 7.627810
TRANSFORM  LAMBERT RefEllipsoid WGS-84  LatOrig 34.000000  LongOrig 17.000000  FirstStdParal 34.883300  SecondStdParal 41.766600  RotCW 0.000000
QML_OriginQuality  assocPhCt 16  usedPhCt 16  assocStaCt -1  usedStaCt 8  depthPhCt -1  stdErr 0.19835  azGap 196.642  secAzGap 196.642  gtLevel -  minDist 13.9743 maxDist 105.191 medDist 58.1795
QML_OriginUncertainty  horUnc -1  minHorUnc 0.959784  maxHorUnc 2.25235  azMaxHorUnc 96.0279
QML_ConfidenceEllipsoid  semiMajorAxisLength 6.00264  semiMinorAxisLength 1.09724  semiIntermediateAxisLength 2.03724  majorAxisPlunge 69.7869  majorAxisAzimuth 88.0617  majorAxisRotation 334.904
FOCALMECH  Hyp  36.669722 25.739771 4.953125 Mech  0 0 0 mf  0 nObs 0
PHASE ID Ins Cmp On Pha  FM Date     HrMn   Sec     Err  ErrMag    Coda      Amp       Per  >   TTpred    Res       Weight    StaLoc(X  Y         Z)        SDist    SAzim  RAz  RDip RQual    Tcorr 
AMOW   ?    Z    ? P      ? 20030302 1958   52.5870 GAU  0.00e+00 -1.00e+00 -1.00e+00 -1.00e+00 >    2.6162   -0.2082    1.1108  783.7378  346.1576   -0.3250   13.9743  19.57 199.6 109.1  9     0.0258
AMOW   ?    E    ? S      ? 20030302 1958   54.9890 GAU  0.00e+00 -1.00e+00 -1.00e+00 -1.00e+00 >    4.8609   -0.0034    1.2710  783.7378  346.1576   -0.3250   13.9743  19.57 199.6 104.2  9    -0.0216
SCHI   ?    Z    ? P      ? 20030302 1958   55.4100 GAU  0.00e+00 -1.00e+00 -1.00e+00 -1.00e+00 >    5.2427   -0.0230    1.2704  757.4791  353.2589   -0.1000   29.6051 313.21 133.2  96.4  9     0.0371
SCHI   ?    E    ? S      ? 20030302 1958   59.7700 GAU  0.00e+00 -1.00e+00 -1.00e+00 -1.00e+00 >    9.4663    0.2598    0.9766  757.4791  353.2589   -0.1000   29.6051 313.21 133.2  78.9  8    -0.1092
SANN   ?    Z    ? P      ? 20030302 1958   57.1900 GAU  0.00e+00 -1.00e+00 -1.00e+00 -1.00e+00 >    6.8347    0.1418    1.1713  750.0761  306.9519   -0.1540   38.9608 228.06  48.1  91.0  9     0.0604
SANN   ?    N    ? S      ? 20030302 1959    2.2880 GAU  0.00e+00 -1.00e+00 -1.00e+00 -1.00e+00 >   12.2416   -0.0925    1.1914  750.0761  306.9519   -0.1540   38.9608 228.06  48.1  78.1  8    -0.0143
SANS   ?    Z    ? P      ? 20030302 1958   58.4200 GAU  0.00e+00 -1.00e+00 -1.00e+00 -1.00e+00 >    8.0030    0.1827    1.1131  751.9745  295.9960   -0.1030   45.8485 216.21  36.2  86.7  9     0.0812
SANS   ?    N    ? S      ? 20030302 1959    4.3360 GAU  0.00e+00 -1.00e+00 -1.00e+00 -1.00e+00 >   14.2725   -0.0777    1.1455  751.9745  295.9960   -0.1030   45.8485 216.21  36.2  77.9  8    -0.0120
PARO   ?    Z    ? P      ? 20030302 1959    2.1790 GAU  0.00e+00 -1.00e+00 -1.00e+00 -1.00e+00 >   12.1893   -0.2088    1.0840  724.8810  378.1189   -0.0720   70.5105 309.79 129.8  84.0  9     0.0453
PARO   ?    E    ? S      ? 20030302 1959   11.4860 GAU  0.00e+00 -1.00e+00 -1.00e+00 -1.00e+00 >   21.5648   -0.0785    0.9530  724.8810  378.1189   -0.0720   70.5105 309.79 129.8  77.5  8    -0.1535
FOLE   ?    Z    ? P      ? 20030302 1959    2.4740 GAU  0.00e+00 -1.00e+00 -1.00e+00 -1.00e+00 >   12.6909   -0.4025    0.7804  706.6447  320.9074   -0.2920   73.4144 260.53  80.5  84.0  9     0.0324
FOLE   ?    E    ? S      ? 20030302 1959   12.0580 GAU  0.00e+00 -1.00e+00 -1.00e+00 -1.00e+00 >   22.4527   -0.2138    0.8841  706.6447  320.9074   -0.2920   73.4144 260.53  80.5  77.4  8    -0.3340
MYKO   ?    Z    ? P      ? 20030302 1959    7.0540 GAU  0.00e+00 -1.00e+00 -1.00e+00 -1.00e+00 >   16.4009    0.4428    0.6626  738.9410  419.4329   -0.1500   95.2979 335.10 155.1  83.8  9     0.0572
MYKO   ?    E    ? S      ? 20030302 1959   18.5730 GAU  0.00e+00 -1.00e+00 -1.00e+00 -1.00e+00 >   28.9089   -0.3875    0.6909  738.9410  419.4329   -0.1500   95.2979 335.10 155.1  77.2  8    -0.1016
KIMO   ?    Z    ? P      ? 20030302 1959    8.4700 GAU  0.00e+00 -1.00e+00 -1.00e+00 -1.00e+00 >   18.0810    0.1624    0.9793  673.9456  337.0638   -0.1610  105.1912 272.22  92.2  83.7  9     0.0734
KIMO   ?    E    ? S      ? 20030302 1959   21.4980 GAU  0.00e+00 -1.00e+00 -1.00e+00 -1.00e+00 >   31.8374   -0.2339    0.7156  673.9456  337.0638   -0.1610  105.1912 272.22  92.2  76.1  8    -0.2586
END_PHASE
END_NLLOC

