NLLOC "./loc/cyc.20021101.095509.grid0" "LOCATED" "Location completed."
SIGNATURE "Pratul Ranjan   obs:./obs/Seisgram_salo_0902_0503.pick   NLLoc:v7.00.00(27Oct2017)  run:01Aug2019 16h40m00"
COMMENT "Cyclades Events"
GRID  1900 900 80  10 10 0  1 1 1 PROB_DENSITY
SEARCH OCTREE nInitial 4000 nEvaluated 50024 smallestNodeSide 0.370898/0.175586/0.031250 oct_tree_integral 2.005822e+01 scatter_volume 2.005822e+01
HYPOCENTER  x 739.743 y 367.054 z 10.1406  OT 5.88948  ix -1 iy -1 iz -1 MAXIMUM_LIKELIHOOD
GEOGRAPHIC  OT 2002 11 01  09 55 5.889477  Lat 37.008563 Long 25.335566 Depth 10.140625
QUALITY  Pmax 1.22532e+12 MFmin 7.94991 MFmax 8.71912 RMS 0.0836581 Nphs 7 Gap 147.677 Dist 18.5284 Mamp -9.90 0 Mdur -9.90 0
VPVSRATIO  VpVsRatio 2  Npair 2  Diff 0.496
STATISTICS  ExpectX 739.592 Y 366.852 Z 7.86115  CovXX 1.15962 XY 1.17152 XZ 0.33859 YY 2.06857 YZ 1.35561 ZZ 15.3186 EllAz1  125.408 Dip1  1.94814 Len1  1.09708 Az2  215.609 Dip2  5.89512 Len2  3.10741 Len3  7.389907e+00
STAT_GEOG  ExpectLat 37.006874 Long 25.333668 Depth 7.861147
TRANSFORM  LAMBERT RefEllipsoid WGS-84  LatOrig 34.000000  LongOrig 17.000000  FirstStdParal 34.883300  SecondStdParal 41.766600  RotCW 0.000000
QML_OriginQuality  assocPhCt 7  usedPhCt 7  assocStaCt -1  usedStaCt 5  depthPhCt -1  stdErr 0.0836581  azGap 147.677  secAzGap 178.793  gtLevel -  minDist 18.5284 maxDist 106.886 medDist 56.7889
QML_OriginUncertainty  horUnc -1  minHorUnc 0.906792  maxHorUnc 2.56955  azMaxHorUnc 34.3985
QML_ConfidenceEllipsoid  semiMajorAxisLength 7.38991  semiMinorAxisLength 1.09708  semiIntermediateAxisLength 3.10741  majorAxisPlunge 83.7892  majorAxisAzimuth 17.1942  majorAxisRotation 341.277
FOCALMECH  Hyp  37.008563 25.335566 10.140625 Mech  0 0 0 mf  0 nObs 0
PHASE ID Ins Cmp On Pha  FM Date     HrMn   Sec     Err  ErrMag    Coda      Amp       Per  >   TTpred    Res       Weight    StaLoc(X  Y         Z)        SDist    SAzim  RAz  RDip RQual    Tcorr 
PARO   ?    Z    ? P      ? 20021101 0955    9.5930 GAU  0.00e+00 -1.00e+00 -1.00e+00 -1.00e+00 >    3.6559    0.0023    1.1526  724.8810  378.1189   -0.0720   18.5284 306.67 126.7 116.9  9     0.0453
PARO   ?    N    ? S      ? 20021101 0955   12.3090 GAU  0.00e+00 -1.00e+00 -1.00e+00 -1.00e+00 >    6.5781   -0.0052    1.1518  724.8810  378.1189   -0.0720   18.5284 306.67 126.7 112.6  9    -0.1535
SCHI   ?    Z    ? P      ? 20021101 0955   10.2370 GAU  0.00e+00 -1.00e+00 -1.00e+00 -1.00e+00 >    4.2690    0.0415    1.1419  757.4791  353.2589   -0.1000   22.4697 127.88 307.9 112.5  9     0.0371
SCHI   ?    E    ? S      ? 20021101 0955   13.4490 GAU  0.00e+00 -1.00e+00 -1.00e+00 -1.00e+00 >    7.6715   -0.0028    1.1521  757.4791  353.2589   -0.1000   22.4697 127.88 307.9 107.9  9    -0.1092
FOLE   ?    Z    ? P      ? 20021101 0955   15.8550 GAU  0.00e+00 -1.00e+00 -1.00e+00 -1.00e+00 >    9.9456   -0.0126    1.1500  706.6447  320.9074   -0.2920   56.7889 215.65  35.6  98.4  9     0.0324
AMOE   ?    Z    ? P      ? 20021101 0955   16.0580 GAU  0.00e+00 -1.00e+00 -1.00e+00 -1.00e+00 >   10.1691   -0.0256    1.1376  797.7122  362.6484   -0.2100   58.1367  94.35 274.3  98.2  9     0.0250
ASTY   ?    Z    ? P      ? 20021101 0955   25.0900 GAU  0.00e+00 -1.00e+00 -1.00e+00 -1.00e+00 >   18.4072    0.8575    0.1141  839.6137  328.9697   -0.1920  106.8861 110.87 290.9  94.2  9    -0.0642
END_PHASE
END_NLLOC

NLLOC "./loc/cyc.20020928.191154.grid0" "LOCATED" "Location completed."
SIGNATURE "Pratul Ranjan   obs:./obs/Seisgram_salo_0902_0503.pick   NLLoc:v7.00.00(27Oct2017)  run:01Aug2019 16h38m59"
COMMENT "Cyclades Events"
GRID  1900 900 80  10 10 0  1 1 1 PROB_DENSITY
SEARCH OCTREE nInitial 4000 nEvaluated 50000 smallestNodeSide 0.185449/0.087793/0.015625 oct_tree_integral 5.404646e+00 scatter_volume 5.340889e+00
HYPOCENTER  x 768.951 y 327.767 z 12.9453  OT 52.1615  ix -1 iy -1 iz -1 MAXIMUM_LIKELIHOOD
GEOGRAPHIC  OT 2002 09 28  19 11 52.161454  Lat 36.631355 Long 25.621593 Depth 12.945312
QUALITY  Pmax 2.74126e+45 MFmin 20.7382 MFmax 20.9092 RMS 0.162968 Nphs 18 Gap 119.093 Dist 5.219 Mamp -9.90 0 Mdur -9.90 0
VPVSRATIO  VpVsRatio 2  Npair 9  Diff 8.477
STATISTICS  ExpectX 768.802 Y 327.852 Z 13.3395  CovXX 0.350722 XY -0.153553 XZ 0.192199 YY 0.340764 YZ -0.0153576 ZZ 2.29291 EllAz1  225.701 Dip1  3.4429 Len1  0.807519 Az2  315.978 Dip2  4.57939 Len2  1.31176 Len3  2.856944e+00
STAT_GEOG  ExpectLat 36.632247 Long 25.620017 Depth 13.339537
TRANSFORM  LAMBERT RefEllipsoid WGS-84  LatOrig 34.000000  LongOrig 17.000000  FirstStdParal 34.883300  SecondStdParal 41.766600  RotCW 0.000000
QML_OriginQuality  assocPhCt 18  usedPhCt 18  assocStaCt -1  usedStaCt 9  depthPhCt -1  stdErr 0.162968  azGap 119.093  secAzGap 119.093  gtLevel -  minDist 5.219 maxDist 86.9571 medDist 36.0218
QML_OriginUncertainty  horUnc -1  minHorUnc 0.664719  maxHorUnc 1.07171  azMaxHorUnc 134.071
QML_ConfidenceEllipsoid  semiMajorAxisLength 2.85694  semiMinorAxisLength 0.807519  semiIntermediateAxisLength 1.31176  majorAxisPlunge 84.2663  majorAxisAzimuth 98.8899  majorAxisRotation 322.494
FOCALMECH  Hyp  36.631355 25.621593 12.945312 Mech  0 0 0 mf  0 nObs 0
PHASE ID Ins Cmp On Pha  FM Date     HrMn   Sec     Err  ErrMag    Coda      Amp       Per  >   TTpred    Res       Weight    StaLoc(X  Y         Z)        SDist    SAzim  RAz  RDip RQual    Tcorr 
ANID   ?    Z    ? P      ? 20020928 1911   54.5900 GAU  0.00e+00 -1.00e+00 -1.00e+00 -1.00e+00 >    2.4371   -0.1035    1.1533  774.1589  328.1052   -0.1790    5.2190  86.28 266.3 158.3  9     0.0950
ANID   ?    E    ? S      ? 20020928 1911   56.4110 GAU  0.00e+00 -1.00e+00 -1.00e+00 -1.00e+00 >    4.3460   -0.0921    1.1646  774.1589  328.1052   -0.1790    5.2190  86.28 266.3 157.3  9    -0.0043
AMOW   ?    Z    ? P      ? 20020928 1911   57.0200 GAU  0.00e+00 -1.00e+00 -1.00e+00 -1.00e+00 >    4.6640    0.1687    1.0640  783.7378  346.1576   -0.3250   23.5983  38.80 218.8 117.7  9     0.0258
AMOW   ?    E    ? S      ? 20020928 1912    0.5120 GAU  0.00e+00 -1.00e+00 -1.00e+00 -1.00e+00 >    8.3012    0.0709    1.1819  783.7378  346.1576   -0.3250   23.5983  38.80 218.8 113.7  9    -0.0216
SCHI   ?    Z    ? P      ? 20020928 1911   57.5700 GAU  0.00e+00 -1.00e+00 -1.00e+00 -1.00e+00 >    5.3157    0.0557    1.1921  757.4791  353.2589   -0.1000   27.9546 335.77 155.8 113.4  9     0.0371
SCHI   ?    E    ? S      ? 20020928 1912    1.6790 GAU  0.00e+00 -1.00e+00 -1.00e+00 -1.00e+00 >    9.4426    0.1842    1.0381  757.4791  353.2589   -0.1000   27.9546 335.77 155.8 109.2  9    -0.1092
SANN   ?    Z    ? P      ? 20020928 1911   57.3230 GAU  0.00e+00 -1.00e+00 -1.00e+00 -1.00e+00 >    5.3424   -0.2412    0.9361  750.0761  306.9519   -0.1540   28.0982 222.20  42.2 113.4  9     0.0604
SANN   ?    E    ? S      ? 20020928 1912    1.9650 GAU  0.00e+00 -1.00e+00 -1.00e+00 -1.00e+00 >    9.4914    0.3264    0.7437  750.0761  306.9519   -0.1540   28.0982 222.20  42.2 109.1  9    -0.0143
SANS   ?    Z    ? P      ? 20020928 1911   58.8800 GAU  0.00e+00 -1.00e+00 -1.00e+00 -1.00e+00 >    6.6001    0.0372    1.2012  751.9745  295.9960   -0.1030   36.0218 208.12  28.1 108.4  9     0.0812
SANS   ?    E    ? S      ? 20020928 1912    3.9950 GAU  0.00e+00 -1.00e+00 -1.00e+00 -1.00e+00 >   11.6947    0.1508    1.0504  751.9745  295.9960   -0.1030   36.0218 208.12  28.1 103.8  9    -0.0120
AMOE   ?    Z    ? P      ? 20020928 1912    0.1300 GAU  0.00e+00 -1.00e+00 -1.00e+00 -1.00e+00 >    8.1064   -0.1628    1.0760  797.7122  362.6484   -0.2100   45.2101  39.51 219.5 104.7  9     0.0250
AMOE   ?    N    ? S      ? 20020928 1912    6.3180 GAU  0.00e+00 -1.00e+00 -1.00e+00 -1.00e+00 >   14.3256   -0.0367    1.0546  797.7122  362.6484   -0.2100   45.2101  39.51 219.5 100.0  9    -0.1323
FOLE   ?    Z    ? P      ? 20020928 1912    3.0900 GAU  0.00e+00 -1.00e+00 -1.00e+00 -1.00e+00 >   11.0122   -0.1161    1.1121  706.6447  320.9074   -0.2920   62.6827 263.72  83.7 100.4  9     0.0324
FOLE   ?    N    ? S      ? 20020928 1912   10.7900 GAU  0.00e+00 -1.00e+00 -1.00e+00 -1.00e+00 >   19.3610   -0.3984    0.6445  706.6447  320.9074   -0.2920   62.6827 263.72  83.7  96.3  9    -0.3340
ASTY   ?    Z    ? P      ? 20020928 1912    4.4300 GAU  0.00e+00 -1.00e+00 -1.00e+00 -1.00e+00 >   12.3464   -0.0137    1.1268  839.6137  328.9697   -0.1920   70.6730  89.02 269.0  99.1  9    -0.0642
ASTY   ?    N    ? S      ? 20020928 1912   13.8970 GAU  0.00e+00 -1.00e+00 -1.00e+00 -1.00e+00 >   21.6537    0.0940    0.8214  839.6137  328.9697   -0.1920   70.6730  89.02 269.0  95.3  9    -0.0121
SIFN   ?    Z    ? P      ? 20020928 1912    7.2500 GAU  0.00e+00 -1.00e+00 -1.00e+00 -1.00e+00 >   15.0868   -0.0399    1.0286  686.6747  355.9118   -0.2220   86.9571 288.88 108.9  97.3  9     0.0416
SIFN   ?    N    ? S      ? 20020928 1912   17.5480 GAU  0.00e+00 -1.00e+00 -1.00e+00 -1.00e+00 >   26.3657   -0.6577    0.4106  686.6747  355.9118   -0.2220   86.9571 288.88 108.9  94.1  9    -0.3215
END_PHASE
END_NLLOC

NLLOC "./loc/cyc.20021114.051458.grid0" "LOCATED" "Location completed."
SIGNATURE "Pratul Ranjan   obs:./obs/Seisgram_salo_0902_0503.pick   NLLoc:v7.00.00(27Oct2017)  run:01Aug2019 16h40m10"
COMMENT "Cyclades Events"
GRID  1900 900 80  10 10 0  1 1 1 PROB_DENSITY
SEARCH OCTREE nInitial 4000 nEvaluated 50024 smallestNodeSide 0.185449/0.087793/0.015625 oct_tree_integral 9.550901e+00 scatter_volume 9.508157e+00
HYPOCENTER  x 738.723 y 360.338 z 0.0078125  OT 54.5272  ix -1 iy -1 iz -1 MAXIMUM_LIKELIHOOD
GEOGRAPHIC  OT 2002 11 14  05 14 54.527223  Lat 36.949028 Long 25.317336 Depth 0.007812
QUALITY  Pmax 4.98432e+31 MFmin 16.2054 MFmax 16.3703 RMS 0.149202 Nphs 14 Gap 87.5452 Dist 20.0478 Mamp -9.90 0 Mdur -9.90 0
VPVSRATIO  VpVsRatio 2  Npair 4  Diff 7.087
STATISTICS  ExpectX 738.929 Y 360.583 Z 3.74793  CovXX 0.318861 XY 0.220623 XZ 0.254627 YY 0.550531 YZ 0.25917 ZZ 7.65325 EllAz1  120.678 Dip1  -0.665527 Len1  0.807107 Az2  210.645 Dip2  2.89022 Len2  1.53333 Len3  5.204078e+00
STAT_GEOG  ExpectLat 36.951061 Long 25.319890 Depth 3.747927
TRANSFORM  LAMBERT RefEllipsoid WGS-84  LatOrig 34.000000  LongOrig 17.000000  FirstStdParal 34.883300  SecondStdParal 41.766600  RotCW 0.000000
QML_OriginQuality  assocPhCt 14  usedPhCt 14  assocStaCt -1  usedStaCt 10  depthPhCt -1  stdErr 0.149202  azGap 87.5452  secAzGap 125.656  gtLevel -  minDist 20.0478 maxDist 105.655 medDist 54.9327
QML_OriginUncertainty  horUnc -1  minHorUnc 0.653207  maxHorUnc 1.25416  azMaxHorUnc 31.1494
QML_ConfidenceEllipsoid  semiMajorAxisLength 5.20408  semiMinorAxisLength 0.807107  semiIntermediateAxisLength 1.53333  majorAxisPlunge 87.034  majorAxisAzimuth 43.6339  majorAxisRotation 13.0398
FOCALMECH  Hyp  36.949028 25.317336 0.007812 Mech  0 0 0 mf  0 nObs 0
PHASE ID Ins Cmp On Pha  FM Date     HrMn   Sec     Err  ErrMag    Coda      Amp       Per  >   TTpred    Res       Weight    StaLoc(X  Y         Z)        SDist    SAzim  RAz  RDip RQual    Tcorr 
SCHI   ?    Z    ? P      ? 20021114 0514   58.0260 GAU  0.00e+00 -1.00e+00 -1.00e+00 -1.00e+00 >    3.4929   -0.0312    1.2540  757.4791  353.2589   -0.1000   20.0478 110.68 290.7  90.4  9     0.0371
SCHI   ?    N    ? S      ? 20021114 0515    1.1700 GAU  0.00e+00 -1.00e+00 -1.00e+00 -1.00e+00 >    6.5095    0.2425    0.9743  757.4791  353.2589   -0.1000   20.0478 110.68 290.7  90.4  9    -0.1092
PARO   ?    Z    ? P      ? 20021114 0514   58.4300 GAU  0.00e+00 -1.00e+00 -1.00e+00 -1.00e+00 >    3.9259   -0.0684    1.2249  724.8810  378.1189   -0.0720   22.5335 322.10 142.1  90.2  9     0.0453
PARO   ?    N    ? S      ? 20021114 0515    1.8180 GAU  0.00e+00 -1.00e+00 -1.00e+00 -1.00e+00 >    7.3164    0.1278    1.1850  724.8810  378.1189   -0.0720   22.5335 322.10 142.1  90.2  9    -0.1535
AMOW   ?    Z    ? P      ? 20021114 0515    2.6790 GAU  0.00e+00 -1.00e+00 -1.00e+00 -1.00e+00 >    8.2240   -0.0980    1.1901  783.7378  346.1576   -0.3250   47.1957 107.48 287.5  90.5  9     0.0258
ANID   ?    Z    ? P      ? 20021114 0515    3.1100 GAU  0.00e+00 -1.00e+00 -1.00e+00 -1.00e+00 >    8.3460    0.1417    1.1652  774.1589  328.1052   -0.1790   47.9027 132.29 312.3  90.2  9     0.0950
FOLE   ?    Z    ? P      ? 20021114 0515    3.2710 GAU  0.00e+00 -1.00e+00 -1.00e+00 -1.00e+00 >    8.8569   -0.1456    1.1148  706.6447  320.9074   -0.2920   50.8307 219.13  39.1  90.4  9     0.0324
FOLE   ?    N    ? S      ? 20021114 0515   11.1720 GAU  0.00e+00 -1.00e+00 -1.00e+00 -1.00e+00 >   16.4238    0.5550    0.4451  706.6447  320.9074   -0.2920   50.8307 219.13  39.1  71.3  9    -0.3340
AMOE   ?    Z    ? P      ? 20021114 0515    4.7100 GAU  0.00e+00 -1.00e+00 -1.00e+00 -1.00e+00 >   10.2856   -0.1278    1.1380  797.7122  362.6484   -0.2100   59.0347  87.76 267.8  90.2  9     0.0250
AMOE   ?    N    ? S      ? 20021114 0515   14.9410 GAU  0.00e+00 -1.00e+00 -1.00e+00 -1.00e+00 >   18.8496    1.6966    0.0065  797.7122  362.6484   -0.2100   59.0347  87.76 267.8  65.8 10    -0.1323
MYKO   ?    Z    ? P      ? 20021114 0515    4.9500 GAU  0.00e+00 -1.00e+00 -1.00e+00 -1.00e+00 >   10.2958    0.0698    1.2351  738.9410  419.4329   -0.1500   59.0955   0.21 180.2  90.1  9     0.0572
KIMO   ?    Z    ? P      ? 20021114 0515    6.6180 GAU  0.00e+00 -1.00e+00 -1.00e+00 -1.00e+00 >   11.9920    0.0253    1.1883  673.9456  337.0638   -0.1610   68.8313 250.24  70.2  90.1  9     0.0734
MILO   ?    Z    ? P      ? 20021114 0515    9.8190 GAU  0.00e+00 -1.00e+00 -1.00e+00 -1.00e+00 >   15.0908    0.0356    1.0695  659.7307  324.7908   -0.1760   86.6218 245.77  65.8  87.2  9     0.1654
ASTY   ?    Z    ? P      ? 20021114 0515   12.5800 GAU  0.00e+00 -1.00e+00 -1.00e+00 -1.00e+00 >   18.3535   -0.2366    0.8091  839.6137  328.9697   -0.1920  105.6549 107.27 287.3  77.9  9    -0.0642
END_PHASE
END_NLLOC

NLLOC "./loc/cyc.20030407.004010.grid0" "LOCATED" "Location completed."
SIGNATURE "Pratul Ranjan   obs:./obs/Seisgram_salo_0902_0503.pick   NLLoc:v7.00.00(27Oct2017)  run:01Aug2019 16h42m24"
COMMENT "Cyclades Events"
GRID  1900 900 80  10 10 0  1 1 1 PROB_DENSITY
SEARCH OCTREE nInitial 4000 nEvaluated 50016 smallestNodeSide 0.185449/0.087793/0.015625 oct_tree_integral 7.995782e+00 scatter_volume 7.978697e+00
HYPOCENTER  x 772.474 y 328.645 z 9.99219  OT 6.24112  ix -1 iy -1 iz -1 MAXIMUM_LIKELIHOOD
GEOGRAPHIC  OT 2003 04 07  00 40 6.241119  Lat 36.636271 Long 25.661790 Depth 9.992188
QUALITY  Pmax 1.43371e+42 MFmin 18.4585 MFmax 19.048 RMS 0.127935 Nphs 17 Gap 65.8082 Dist 20.8224 Mamp -9.90 0 Mdur -9.90 0
VPVSRATIO  VpVsRatio 2  Npair 8  Diff 9.688
STATISTICS  ExpectX 772.398 Y 328.654 Z 9.16331  CovXX 0.296201 XY 0.00799398 XZ 0.419898 YY 0.211495 YZ 0.25053 ZZ 6.87547 EllAz1  186.463 Dip1  2.54108 Len1  0.842779 Az2  276.612 Dip2  3.36409 Len2  0.97704 Len3  4.939403e+00
STAT_GEOG  ExpectLat 36.636417 Long 25.660944 Depth 9.163308
TRANSFORM  LAMBERT RefEllipsoid WGS-84  LatOrig 34.000000  LongOrig 17.000000  FirstStdParal 34.883300  SecondStdParal 41.766600  RotCW 0.000000
QML_OriginQuality  assocPhCt 17  usedPhCt 17  assocStaCt -1  usedStaCt 9  depthPhCt -1  stdErr 0.127935  azGap 65.8082  secAzGap 65.8082  gtLevel -  minDist 20.8224 maxDist 103.895 medDist 66.2829
QML_OriginUncertainty  horUnc -1  minHorUnc 0.696218  maxHorUnc 0.826428  azMaxHorUnc 84.6557
QML_ConfidenceEllipsoid  semiMajorAxisLength 4.9394  semiMinorAxisLength 0.842779  semiIntermediateAxisLength 0.97704  majorAxisPlunge 85.7823  majorAxisAzimuth 59.4648  majorAxisRotation 322.627
FOCALMECH  Hyp  36.636271 25.661790 9.992188 Mech  0 0 0 mf  0 nObs 0
PHASE ID Ins Cmp On Pha  FM Date     HrMn   Sec     Err  ErrMag    Coda      Amp       Per  >   TTpred    Res       Weight    StaLoc(X  Y         Z)        SDist    SAzim  RAz  RDip RQual    Tcorr 
AMOW   ?    Z    ? P      ? 20030407 0040   10.4000 GAU  0.00e+00 -1.00e+00 -1.00e+00 -1.00e+00 >    4.0176    0.1154    1.1256  783.7378  346.1576   -0.3250   20.8224  32.75 212.7 114.4  9     0.0258
AMOW   ?    N    ? S      ? 20030407 0040   13.3000 GAU  0.00e+00 -1.00e+00 -1.00e+00 -1.00e+00 >    7.2353   -0.1548    1.0898  783.7378  346.1576   -0.3250   20.8224  32.75 212.7 109.9  9    -0.0216
SCHI   ?    Z    ? P      ? 20030407 0040   11.5600 GAU  0.00e+00 -1.00e+00 -1.00e+00 -1.00e+00 >    5.2786    0.0032    1.2081  757.4791  353.2589   -0.1000   28.8223 328.65 148.6 107.3  9     0.0371
SCHI   ?    E    ? S      ? 20030407 0040   15.5260 GAU  0.00e+00 -1.00e+00 -1.00e+00 -1.00e+00 >    9.4642   -0.0701    1.1857  757.4791  353.2589   -0.1000   28.8223 328.65 148.6 102.8  9    -0.1092
ANAF   ?    Z    ? P      ? 20030407 0040   12.1080 GAU  0.00e+00 -1.00e+00 -1.00e+00 -1.00e+00 >    5.8768    0.0569    1.1857  785.8920  299.1604   -0.3500   32.3936 155.53 335.5 105.6  9    -0.0668
ANAF   ?    E    ? S      ? 20030407 0040   16.2510 GAU  0.00e+00 -1.00e+00 -1.00e+00 -1.00e+00 >   10.5293   -0.1958    1.0137  785.8920  299.1604   -0.3500   32.3936 155.53 335.5 101.0  9    -0.3236
NEAK   ?    Z    ? P      ? 20030407 0040   12.4710 GAU  0.00e+00 -1.00e+00 -1.00e+00 -1.00e+00 >    6.1813   -0.0437    1.2007  751.4711  301.5147   -0.1570   34.3100 217.75  37.7 104.4  9     0.0923
NEAK   ?    E    ? S      ? 20030407 0040   17.5620 GAU  0.00e+00 -1.00e+00 -1.00e+00 -1.00e+00 >   11.0560    0.0653    1.1434  751.4711  301.5147   -0.1570   34.3100 217.75  37.7  99.9  9     0.1997
FOLE   ?    Z    ? P      ? 20030407 0040   17.9240 GAU  0.00e+00 -1.00e+00 -1.00e+00 -1.00e+00 >   11.5414    0.1091    1.0880  706.6447  320.9074   -0.2920   66.2829 263.30  83.3  97.0  9     0.0324
FOLE   ?    E    ? S      ? 20030407 0040   25.8740 GAU  0.00e+00 -1.00e+00 -1.00e+00 -1.00e+00 >   20.3431   -0.3762    0.6638  706.6447  320.9074   -0.2920   66.2829 263.30  83.3  86.1  9    -0.3340
ASTY   ?    Z    ? P      ? 20030407 0040   18.0200 GAU  0.00e+00 -1.00e+00 -1.00e+00 -1.00e+00 >   11.6821    0.1610    1.0187  839.6137  328.9697   -0.1920   67.1400  89.72 269.7  96.8  9    -0.0642
ASTY   ?    N    ? S      ? 20030407 0040   26.6580 GAU  0.00e+00 -1.00e+00 -1.00e+00 -1.00e+00 >   20.5779   -0.1490    0.8287  839.6137  328.9697   -0.1920   67.1400  89.72 269.7  86.0  9    -0.0121
PARO   ?    Z    ? P      ? 20030407 0040   18.2000 GAU  0.00e+00 -1.00e+00 -1.00e+00 -1.00e+00 >   11.9315   -0.0180    1.1372  724.8810  378.1189   -0.0720   68.6502 316.11 136.1  96.6  9     0.0453
SIFN   ?    Z    ? P      ? 20030407 0040   21.9900 GAU  0.00e+00 -1.00e+00 -1.00e+00 -1.00e+00 >   15.5521    0.1552    0.9283  686.6747  355.9118   -0.2220   90.0284 287.63 107.6  94.9  9     0.0416
SIFN   ?    N    ? S      ? 20030407 0040   32.9410 GAU  0.00e+00 -1.00e+00 -1.00e+00 -1.00e+00 >   27.2168   -0.1954    0.6804  686.6747  355.9118   -0.2220   90.0284 287.63 107.6  84.9  9    -0.3215
MILS   ?    Z    ? P      ? 20030407 0040   24.2150 GAU  0.00e+00 -1.00e+00 -1.00e+00 -1.00e+00 >   17.8974    0.0345    0.9293  668.6265  325.5101   -0.1640  103.8953 268.27  88.3  94.2  9     0.0419
MILS   ?    E    ? S      ? 20030407 0040   36.8030 GAU  0.00e+00 -1.00e+00 -1.00e+00 -1.00e+00 >   31.2276   -0.3433    0.5730  668.6265  325.5101   -0.1640  103.8953 268.27  88.3  84.8  9    -0.3224
END_PHASE
END_NLLOC

