NLLOC "./loc/cyc.20030115.133148.grid0" "LOCATED" "Location completed."
SIGNATURE "Pratul Ranjan   obs:./obs/Seisgram_salo_0902_0503.pick   NLLoc:v7.00.00(27Oct2017)  run:01Aug2019 16h41m06"
COMMENT "Cyclades Events"
GRID  1900 900 80  10 10 0  1 1 1 PROB_DENSITY
SEARCH OCTREE nInitial 4000 nEvaluated 50016 smallestNodeSide 0.741797/0.351172/0.062500 oct_tree_integral 1.850858e+02 scatter_volume 1.826453e+02
HYPOCENTER  x 756.989 y 419.818 z 10.0625  OT 44.9627  ix -1 iy -1 iz -1 MAXIMUM_LIKELIHOOD
GEOGRAPHIC  OT 2003 01 15  13 31 44.962715  Lat 37.468515 Long 25.583920 Depth 10.062500
QUALITY  Pmax 6.34892e+18 MFmin 9.6075 MFmax 11.2006 RMS 0.17786 Nphs 10 Gap 251.263 Dist 18.0525 Mamp -9.90 0 Mdur -9.90 0
VPVSRATIO  VpVsRatio 2  Npair 3  Diff 8.565
STATISTICS  ExpectX 756.951 Y 419.506 Z 8.04645  CovXX 3.99049 XY 4.19418 XZ -0.623259 YY 10.083 YZ 6.63377 ZZ 17.3212 EllAz1  124.444 Dip1  14.5777 Len1  1.79956 Az2  222.53 Dip2  28.4069 Len2  5.65572 Len3  8.694693e+00
STAT_GEOG  ExpectLat 37.465748 Long 25.583158 Depth 8.046445
TRANSFORM  LAMBERT RefEllipsoid WGS-84  LatOrig 34.000000  LongOrig 17.000000  FirstStdParal 34.883300  SecondStdParal 41.766600  RotCW 0.000000
QML_OriginQuality  assocPhCt 10  usedPhCt 10  assocStaCt -1  usedStaCt 7  depthPhCt -1  stdErr 0.17786  azGap 251.263  secAzGap 251.263  gtLevel -  minDist 18.0525 maxDist 117.237 medDist 95.0164
QML_OriginUncertainty  horUnc -1  minHorUnc 2.06446  maxHorUnc 5.3016  azMaxHorUnc 27.0045
QML_ConfidenceEllipsoid  semiMajorAxisLength 8.69469  semiMinorAxisLength 1.79956  semiIntermediateAxisLength 5.65572  majorAxisPlunge 57.4383  majorAxisAzimuth 10.4118  majorAxisRotation 308.488
FOCALMECH  Hyp  37.468515 25.583920 10.062500 Mech  0 0 0 mf  0 nObs 0
PHASE ID Ins Cmp On Pha  FM Date     HrMn   Sec     Err  ErrMag    Coda      Amp       Per  >   TTpred    Res       Weight    StaLoc(X  Y         Z)        SDist    SAzim  RAz  RDip RQual    Tcorr 
MYKO   ?    Z    ? P      ? 20030115 1331   48.4790 GAU  0.00e+00 -1.00e+00 -1.00e+00 -1.00e+00 >    3.5840   -0.1249    1.2083  738.9410  419.4329   -0.1500   18.0525 268.78  88.8 117.5  9     0.0572
MYKO   ?    N    ? S      ? 20030115 1331   51.3850 GAU  0.00e+00 -1.00e+00 -1.00e+00 -1.00e+00 >    6.4538    0.0701    1.2688  738.9410  419.4329   -0.1500   18.0525 268.78  88.8 113.3  9    -0.1016
PARO   ?    Z    ? P      ? 20030115 1331   54.2970 GAU  0.00e+00 -1.00e+00 -1.00e+00 -1.00e+00 >    9.2345    0.0545    1.2794  724.8810  378.1189   -0.0720   52.6282 217.60  37.6  98.9  9     0.0453
AMOW   ?    Z    ? P      ? 20030115 1331   58.5100 GAU  0.00e+00 -1.00e+00 -1.00e+00 -1.00e+00 >   13.5847   -0.0632    1.1819  783.7378  346.1576   -0.3250   78.3662 160.04 340.0  95.8  9     0.0258
AMOW   ?    E    ? S      ? 20030115 1332    9.0120 GAU  0.00e+00 -1.00e+00 -1.00e+00 -1.00e+00 >   23.8507    0.2202    0.8687  783.7378  346.1576   -0.3250   78.3662 160.04 340.0  85.7  9    -0.0216
SIFN   ?    Z    ? P      ? 20030115 1332    1.2770 GAU  0.00e+00 -1.00e+00 -1.00e+00 -1.00e+00 >   16.3974   -0.1247    1.0696  686.6747  355.9118   -0.2220   95.0164 227.73  47.7  94.7  9     0.0416
SIFN   ?    E    ? S      ? 20030115 1332   12.7480 GAU  0.00e+00 -1.00e+00 -1.00e+00 -1.00e+00 >   28.6626   -0.5558    0.5655  686.6747  355.9118   -0.2220   95.0164 227.73  47.7  85.3  9    -0.3215
SERI   ?    N    ? P      ? 20030115 1332    3.2510 GAU  0.00e+00 -1.00e+00 -1.00e+00 -1.00e+00 >   17.7030    0.5847    0.5195  663.5170  377.3478   -0.4670  102.6683 245.57  65.6  94.3  9     0.0006
FOLE   ?    Z    ? P      ? 20030115 1332    4.1900 GAU  0.00e+00 -1.00e+00 -1.00e+00 -1.00e+00 >   19.1044    0.0905    1.0292  706.6447  320.9074   -0.2920  110.9856 206.98  27.0  93.9  9     0.0324
KIMO   ?    Z    ? P      ? 20030115 1332    5.1480 GAU  0.00e+00 -1.00e+00 -1.00e+00 -1.00e+00 >   20.1586   -0.0467    1.0090  673.9456  337.0638   -0.1610  117.2368 225.10  45.1  93.7  9     0.0734
END_PHASE
END_NLLOC

NLLOC "./loc/cyc.20030523.091808.grid0" "LOCATED" "Location completed."
SIGNATURE "Pratul Ranjan   obs:./obs/Seisgram_salo_0902_0503.pick   NLLoc:v7.00.00(27Oct2017)  run:01Aug2019 16h44m50"
COMMENT "Cyclades Events"
GRID  1900 900 80  10 10 0  1 1 1 PROB_DENSITY
SEARCH OCTREE nInitial 4000 nEvaluated 50032 smallestNodeSide 0.185449/0.087793/0.015625 oct_tree_integral 1.007990e+01 scatter_volume 9.981744e+00
HYPOCENTER  x 758.009 y 315.124 z 4.00781  OT 6.0176  ix -1 iy -1 iz -1 MAXIMUM_LIKELIHOOD
GEOGRAPHIC  OT 2003 05 23  09 18 6.017597  Lat 36.526901 Long 25.486620 Depth 4.007812
QUALITY  Pmax 2.81821e+32 MFmin 17.2673 MFmax 17.4232 RMS 0.139987 Nphs 14 Gap 123.237 Dist 11.3898 Mamp -9.90 0 Mdur -9.90 0
VPVSRATIO  VpVsRatio 2  Npair 7  Diff 4.131
STATISTICS  ExpectX 757.639 Y 315.086 Z 5.19187  CovXX 0.577898 XY -0.0154669 XZ -1.23904 YY 0.778099 YZ -1.26477 ZZ 7.77487 EllAz1  56.6228 Dip1  12.9138 Len1  0.896156 Az2  325.963 Dip2  2.87391 Len2  1.58528 Len3  5.377338e+00
STAT_GEOG  ExpectLat 36.526863 Long 25.482460 Depth 5.191871
TRANSFORM  LAMBERT RefEllipsoid WGS-84  LatOrig 34.000000  LongOrig 17.000000  FirstStdParal 34.883300  SecondStdParal 41.766600  RotCW 0.000000
QML_OriginQuality  assocPhCt 14  usedPhCt 14  assocStaCt -1  usedStaCt 7  depthPhCt -1  stdErr 0.139987  azGap 123.237  secAzGap 123.237  gtLevel -  minDist 11.3898 maxDist 51.6893 medDist 20.0578
QML_OriginUncertainty  horUnc -1  minHorUnc 1.15171  maxHorUnc 1.33879  azMaxHorUnc 175.608
QML_ConfidenceEllipsoid  semiMajorAxisLength 5.37734  semiMinorAxisLength 0.896156  semiIntermediateAxisLength 1.58528  majorAxisPlunge -76.7594  majorAxisAzimuth 43.6443  majorAxisRotation 281.354
FOCALMECH  Hyp  36.526901 25.486620 4.007812 Mech  0 0 0 mf  0 nObs 0
PHASE ID Ins Cmp On Pha  FM Date     HrMn   Sec     Err  ErrMag    Coda      Amp       Per  >   TTpred    Res       Weight    StaLoc(X  Y         Z)        SDist    SAzim  RAz  RDip RQual    Tcorr 
SANN   ?    Z    ? P      ? 20030523 0918    8.2400 GAU  0.00e+00 -1.00e+00 -1.00e+00 -1.00e+00 >    2.1238    0.0382    1.2001  750.0761  306.9519   -0.1540   11.3898 224.15  44.1 110.0  9     0.0604
SANN   ?    N    ? S      ? 20030523 0918    9.9340 GAU  0.00e+00 -1.00e+00 -1.00e+00 -1.00e+00 >    3.9580   -0.0274    1.1866  750.0761  306.9519   -0.1540   11.3898 224.15  44.1 109.8  9    -0.0143
NEAK   ?    Z    ? P      ? 20030523 0918    8.6900 GAU  0.00e+00 -1.00e+00 -1.00e+00 -1.00e+00 >    2.7431   -0.1630    0.9973  751.4711  301.5147   -0.1570   15.0989 205.66  25.7 105.8  9     0.0923
NEAK   ?    N    ? S      ? 20030523 0918   11.3550 GAU  0.00e+00 -1.00e+00 -1.00e+00 -1.00e+00 >    5.1118    0.0259    1.2018  751.4711  301.5147   -0.1570   15.0989 205.66  25.7 103.0  9     0.1997
THIR   ?    Z    ? P      ? 20030523 0918    9.0710 GAU  0.00e+00 -1.00e+00 -1.00e+00 -1.00e+00 >    3.0573   -0.0407    1.1771  745.9182  303.2357   -0.1590   16.9571 225.48  45.5 104.3  9     0.0369
THIR   ?    N    ? S      ? 20030523 0918   11.7520 GAU  0.00e+00 -1.00e+00 -1.00e+00 -1.00e+00 >    5.6971    0.1348    1.1238  745.9182  303.2357   -0.1590   16.9571 225.48  45.5  99.2  9    -0.0976
SANS   ?    Z    ? P      ? 20030523 0918    9.6280 GAU  0.00e+00 -1.00e+00 -1.00e+00 -1.00e+00 >    3.5828   -0.0535    1.1660  751.9745  295.9960   -0.1030   20.0578 197.51  17.5 102.4  9     0.0812
SANS   ?    E    ? S      ? 20030523 0918   13.0100 GAU  0.00e+00 -1.00e+00 -1.00e+00 -1.00e+00 >    6.6761    0.3283    0.7414  751.9745  295.9960   -0.1030   20.0578 197.51  17.5  92.0  9    -0.0120
ANAF   ?    Z    ? P      ? 20030523 0918   11.6800 GAU  0.00e+00 -1.00e+00 -1.00e+00 -1.00e+00 >    5.6641    0.0650    1.1899  785.8920  299.1604   -0.3500   32.1293 119.79 299.8  96.9  9    -0.0668
ANAF   ?    N    ? S      ? 20030523 0918   15.9900 GAU  0.00e+00 -1.00e+00 -1.00e+00 -1.00e+00 >   10.3724   -0.0763    1.1285  785.8920  299.1604   -0.3500   32.1293 119.79 299.8  67.6  8    -0.3236
AMOW   ?    Z    ? P      ? 20030523 0918   13.5200 GAU  0.00e+00 -1.00e+00 -1.00e+00 -1.00e+00 >    7.0776    0.3990    0.5783  783.7378  346.1576   -0.3250   40.3114  39.66 219.7  92.0  9     0.0258
AMOW   ?    N    ? S      ? 20030523 0918   18.8120 GAU  0.00e+00 -1.00e+00 -1.00e+00 -1.00e+00 >   12.7899    0.0261    1.0909  783.7378  346.1576   -0.3250   40.3114  39.66 219.7  65.8  8    -0.0216
FOLE   ?    Z    ? P      ? 20030523 0918   15.0400 GAU  0.00e+00 -1.00e+00 -1.00e+00 -1.00e+00 >    9.0360   -0.0460    1.1728  706.6447  320.9074   -0.2920   51.6893 276.42  96.4  84.5  9     0.0324
FOLE   ?    N    ? S      ? 20030523 0918   20.8650 GAU  0.00e+00 -1.00e+00 -1.00e+00 -1.00e+00 >   16.1515   -0.9701    0.0454  706.6447  320.9074   -0.2920   51.6893 276.42  96.4  65.8  8    -0.3340
END_PHASE
END_NLLOC

NLLOC "./loc/cyc.20021009.040437.grid0" "LOCATED" "Location completed."
SIGNATURE "Pratul Ranjan   obs:./obs/Seisgram_salo_0902_0503.pick   NLLoc:v7.00.00(27Oct2017)  run:01Aug2019 16h39m15"
COMMENT "Cyclades Events"
GRID  1900 900 80  10 10 0  1 1 1 PROB_DENSITY
SEARCH OCTREE nInitial 4000 nEvaluated 50000 smallestNodeSide 0.370898/0.175586/0.031250 oct_tree_integral 6.298596e+01 scatter_volume 6.298596e+01
HYPOCENTER  x 813.922 y 361.26 z 0.015625  OT 34.9956  ix -1 iy -1 iz -1 MAXIMUM_LIKELIHOOD
GEOGRAPHIC  OT 2002 10 09  04 04 34.995622  Lat 36.893182 Long 26.159752 Depth 0.015625
QUALITY  Pmax 7.99466e+17 MFmin 10.1289 MFmax 10.9023 RMS 0.30376 Nphs 10 Gap 193.687 Dist 16.2696 Mamp -9.90 0 Mdur -9.90 0
VPVSRATIO  VpVsRatio 2  Npair 3  Diff 9.476
STATISTICS  ExpectX 815.103 Y 360.597 Z 2.49301  CovXX 6.23257 XY 3.39558 XZ -1.23571 YY 5.90346 YZ -1.91921 ZZ 5.11344 EllAz1  321.571 Dip1  15.8067 Len1  2.98003 Az2  263.224 Dip2  -61.6546 Len2  3.90928 Len3  6.060328e+00
STAT_GEOG  ExpectLat 36.886172 Long 26.172217 Depth 2.493014
TRANSFORM  LAMBERT RefEllipsoid WGS-84  LatOrig 34.000000  LongOrig 17.000000  FirstStdParal 34.883300  SecondStdParal 41.766600  RotCW 0.000000
QML_OriginQuality  assocPhCt 10  usedPhCt 10  assocStaCt -1  usedStaCt 7  depthPhCt -1  stdErr 0.30376  azGap 193.687  secAzGap 220.771  gtLevel -  minDist 16.2696 maxDist 127.36 medDist 51.7721
QML_OriginUncertainty  horUnc -1  minHorUnc 2.47738  maxHorUnc 4.66642  azMaxHorUnc 46.3872
QML_ConfidenceEllipsoid  semiMajorAxisLength 6.06033  semiMinorAxisLength 2.98003  semiIntermediateAxisLength 3.90928  majorAxisPlunge -22.8844  majorAxisAzimuth 44.7077  majorAxisRotation 156.073
FOCALMECH  Hyp  36.893182 26.159752 0.015625 Mech  0 0 0 mf  0 nObs 0
PHASE ID Ins Cmp On Pha  FM Date     HrMn   Sec     Err  ErrMag    Coda      Amp       Per  >   TTpred    Res       Weight    StaLoc(X  Y         Z)        SDist    SAzim  RAz  RDip RQual    Tcorr 
AMOE   ?    Z    ? P      ? 20021009 0404   37.7810 GAU  0.00e+00 -1.00e+00 -1.00e+00 -1.00e+00 >    2.8354   -0.0750    1.2576  797.7122  362.6484   -0.2100   16.2696 274.90  94.9  91.0  9     0.0250
AMOE   ?    N    ? S      ? 20021009 0404   40.8830 GAU  0.00e+00 -1.00e+00 -1.00e+00 -1.00e+00 >    5.2841    0.7356    0.5462  797.7122  362.6484   -0.2100   16.2696 274.90  94.9  91.0  9    -0.1323
AMOW   ?    Z    ? P      ? 20021009 0404   40.8580 GAU  0.00e+00 -1.00e+00 -1.00e+00 -1.00e+00 >    5.8819   -0.0453    1.2918  783.7378  346.1576   -0.3250   33.7517 243.42  63.4  90.7  9     0.0258
ASTY   ?    Z    ? P      ? 20021009 0404   42.1210 GAU  0.00e+00 -1.00e+00 -1.00e+00 -1.00e+00 >    7.1895   -0.0000    1.3215  839.6137  328.9697   -0.1920   41.2636 141.49 321.5  90.3  9    -0.0642
ASTY   ?    N    ? S      ? 20021009 0404   49.2890 GAU  0.00e+00 -1.00e+00 -1.00e+00 -1.00e+00 >   13.3985    0.9069    0.4557  839.6137  328.9697   -0.1920   41.2636 141.49 321.5  89.4  8    -0.0121
ANID   ?    Z    ? P      ? 20021009 0404   44.1880 GAU  0.00e+00 -1.00e+00 -1.00e+00 -1.00e+00 >    9.0202    0.0772    1.3091  774.1589  328.1052   -0.1790   51.7721 230.18  50.2  90.2  9     0.0950
PARO   ?    Z    ? P      ? 20021009 0404   50.9630 GAU  0.00e+00 -1.00e+00 -1.00e+00 -1.00e+00 >   15.7822    0.1398    1.1578  724.8810  378.1189   -0.0720   90.6234 280.72 100.7  84.2  9     0.0453
PARO   ?    N    ? S      ? 20021009 0405    3.5410 GAU  0.00e+00 -1.00e+00 -1.00e+00 -1.00e+00 >   28.1756    0.5232    0.8171  724.8810  378.1189   -0.0720   90.6234 280.72 100.7  65.7 10    -0.1535
MYKO   ?    E    ? S      ? 20021009 0405    4.6820 GAU  0.00e+00 -1.00e+00 -1.00e+00 -1.00e+00 >   29.4519    0.3360    0.8752  738.9410  419.4329   -0.1500   94.9017 307.81 127.8  65.7 10    -0.1016
SIFN   ?    Z    ? P      ? 20021009 0404   57.0100 GAU  0.00e+00 -1.00e+00 -1.00e+00 -1.00e+00 >   22.0403   -0.0675    0.9680  686.6747  355.9118   -0.2220  127.3600 267.59  87.6  77.0 10     0.0416
END_PHASE
END_NLLOC

NLLOC "./loc/cyc.20021130.033815.grid0" "LOCATED" "Location completed."
SIGNATURE "Pratul Ranjan   obs:./obs/Seisgram_salo_0902_0503.pick   NLLoc:v7.00.00(27Oct2017)  run:01Aug2019 16h40m00"
COMMENT "Cyclades Events"
GRID  1900 900 80  10 10 0  1 1 1 PROB_DENSITY
SEARCH OCTREE nInitial 4000 nEvaluated 50000 smallestNodeSide 0.185449/0.087793/0.015625 oct_tree_integral 8.261980e+00 scatter_volume 8.261980e+00
HYPOCENTER  x 770.435 y 324.079 z 8.25781  OT 13.5437  ix -1 iy -1 iz -1 MAXIMUM_LIKELIHOOD
GEOGRAPHIC  OT 2002 11 30  03 38 13.543718  Lat 36.596978 Long 25.634276 Depth 8.257812
QUALITY  Pmax 8.36602e+66 MFmin 27.0026 MFmax 28.2121 RMS 0.236866 Nphs 25 Gap 127.362 Dist 5.48441 Mamp -9.90 0 Mdur -9.90 0
VPVSRATIO  VpVsRatio 2  Npair 12  Diff 11.627
STATISTICS  ExpectX 770.519 Y 323.908 Z 8.59007  CovXX 0.639657 XY -0.378333 XZ 0.612999 YY 0.571436 YZ -0.343516 ZZ 2.85776 EllAz1  226.401 Dip1  4.47632 Len1  0.867371 Az2  317.83 Dip2  17.6681 Len2  1.64491 Len3  3.302271e+00
STAT_GEOG  ExpectLat 36.595371 Long 25.635037 Depth 8.590068
TRANSFORM  LAMBERT RefEllipsoid WGS-84  LatOrig 34.000000  LongOrig 17.000000  FirstStdParal 34.883300  SecondStdParal 41.766600  RotCW 0.000000
QML_OriginQuality  assocPhCt 25  usedPhCt 25  assocStaCt -1  usedStaCt 13  depthPhCt -1  stdErr 0.236866  azGap 127.362  secAzGap 127.362  gtLevel -  minDist 5.48441 maxDist 110.706 medDist 63.8686
QML_OriginUncertainty  horUnc -1  minHorUnc 0.720459  maxHorUnc 1.50547  azMaxHorUnc 132.424
QML_ConfidenceEllipsoid  semiMajorAxisLength 3.30227  semiMinorAxisLength 0.867371  semiIntermediateAxisLength 1.64491  majorAxisPlunge 71.7372  majorAxisAzimuth 122.678  majorAxisRotation 342.255
FOCALMECH  Hyp  36.596978 25.634276 8.257812 Mech  0 0 0 mf  0 nObs 0
PHASE ID Ins Cmp On Pha  FM Date     HrMn   Sec     Err  ErrMag    Coda      Amp       Per  >   TTpred    Res       Weight    StaLoc(X  Y         Z)        SDist    SAzim  RAz  RDip RQual    Tcorr 
ANID   ?    Z    ? P      ? 20021130 0338   15.3110 GAU  0.00e+00 -1.00e+00 -1.00e+00 -1.00e+00 >    1.7422   -0.0699    1.3436  774.1589  328.1052   -0.1790    5.4844  42.77 222.8 147.2  9     0.0950
ANID   ?    E    ? S      ? 20021130 0338   16.6140 GAU  0.00e+00 -1.00e+00 -1.00e+00 -1.00e+00 >    3.1652   -0.0906    1.3267  774.1589  328.1052   -0.1790    5.4844  42.77 222.8 145.8  9    -0.0043
AMOW   ?    Z    ? P      ? 20021130 0338   18.4400 GAU  0.00e+00 -1.00e+00 -1.00e+00 -1.00e+00 >    4.7105    0.1599    1.2253  783.7378  346.1576   -0.3250   25.7765  31.07 211.1 105.9  9     0.0258
AMOW   ?    E    ? S      ? 20021130 0338   22.0530 GAU  0.00e+00 -1.00e+00 -1.00e+00 -1.00e+00 >    8.4971    0.0338    1.3600  783.7378  346.1576   -0.3250   25.7765  31.07 211.1 102.7  9    -0.0216
SANN   ?    Z    ? P      ? 20021130 0338   18.5800 GAU  0.00e+00 -1.00e+00 -1.00e+00 -1.00e+00 >    4.8371    0.1387    1.2586  750.0761  306.9519   -0.1540   26.6047 229.93  49.9 104.9  9     0.0604
SANN   ?    E    ? S      ? 20021130 0338   22.1990 GAU  0.00e+00 -1.00e+00 -1.00e+00 -1.00e+00 >    8.7131   -0.0436    1.3587  750.0761  306.9519   -0.1540   26.6047 229.93  49.9 102.1  9    -0.0143
SCHI   ?    Z    ? P      ? 20021130 0338   19.2800 GAU  0.00e+00 -1.00e+00 -1.00e+00 -1.00e+00 >    5.7159   -0.0167    1.3666  757.4791  353.2589   -0.1000   31.9263 336.06 156.1 102.0  9     0.0371
SCHI   ?    E    ? S      ? 20021130 0338   24.0320 GAU  0.00e+00 -1.00e+00 -1.00e+00 -1.00e+00 >   10.2554    0.3421    0.8333  757.4791  353.2589   -0.1000   31.9263 336.06 156.1  99.8  9    -0.1092
SANS   ?    Z    ? P      ? 20021130 0338   19.7400 GAU  0.00e+00 -1.00e+00 -1.00e+00 -1.00e+00 >    5.9964    0.1188    1.2864  751.9745  295.9960   -0.1030   33.6072 213.32  33.3 101.3  9     0.0812
SANS   ?    N    ? S      ? 20021130 0338   23.6250 GAU  0.00e+00 -1.00e+00 -1.00e+00 -1.00e+00 >   10.7472   -0.6540    0.4286  751.9745  295.9960   -0.1030   33.6072 213.32  33.3  99.3  9    -0.0120
AMOE   ?    Z    ? P      ? 20021130 0338   21.6600 GAU  0.00e+00 -1.00e+00 -1.00e+00 -1.00e+00 >    8.2905   -0.1992    1.1786  797.7122  362.6484   -0.2100   47.2403  35.27 215.3  97.5  9     0.0250
AMOE   ?    E    ? S      ? 20021130 0338   27.9660 GAU  0.00e+00 -1.00e+00 -1.00e+00 -1.00e+00 >   14.7643   -0.2097    1.0866  797.7122  362.6484   -0.2100   47.2403  35.27 215.3  96.0  9    -0.1323
FOLE   ?    Z    ? P      ? 20021130 0338   24.5200 GAU  0.00e+00 -1.00e+00 -1.00e+00 -1.00e+00 >   11.1021   -0.1583    1.2221  706.6447  320.9074   -0.2920   63.8686 267.15  87.2  95.4  9     0.0324
FOLE   ?    N    ? S      ? 20021130 0338   31.5420 GAU  0.00e+00 -1.00e+00 -1.00e+00 -1.00e+00 >   19.6734   -1.3411    0.1500  706.6447  320.9074   -0.2920   63.8686 267.15  87.2  92.4  9    -0.3340
ASTY   ?    Z    ? P      ? 20021130 0338   25.6200 GAU  0.00e+00 -1.00e+00 -1.00e+00 -1.00e+00 >   12.0263    0.1142    1.2301  839.6137  328.9697   -0.1920   69.3518  85.96 266.0  94.8  9    -0.0642
ASTY   ?    E    ? S      ? 20021130 0338   33.8230 GAU  0.00e+00 -1.00e+00 -1.00e+00 -1.00e+00 >   21.2739   -0.9825    0.3270  839.6137  328.9697   -0.1920   69.3518  85.96 266.0  90.0  9    -0.0121
PARO   ?    Z    ? P      ? 20021130 0338   25.7800 GAU  0.00e+00 -1.00e+00 -1.00e+00 -1.00e+00 >   12.2456   -0.0547    1.2778  724.8810  378.1189   -0.0720   70.6782 319.87 139.9  94.7  9     0.0453
PARO   ?    E    ? S      ? 20021130 0338   34.5470 GAU  0.00e+00 -1.00e+00 -1.00e+00 -1.00e+00 >   21.6472   -0.4904    0.7367  724.8810  378.1189   -0.0720   70.6782 319.87 139.9  89.2  9    -0.1535
SIFN   ?    Z    ? P      ? 20021130 0338   29.0900 GAU  0.00e+00 -1.00e+00 -1.00e+00 -1.00e+00 >   15.4585    0.0462    1.1628  686.6747  355.9118   -0.2220   89.6048 290.81 110.8  93.6  9     0.0416
SIFN   ?    N    ? S      ? 20021130 0338   39.7880 GAU  0.00e+00 -1.00e+00 -1.00e+00 -1.00e+00 >   27.1954   -0.6296    0.6179  686.6747  355.9118   -0.2220   89.6048 290.81 110.8  80.5  9    -0.3215
KIMO   ?    Z    ? P      ? 20021130 0338   30.6000 GAU  0.00e+00 -1.00e+00 -1.00e+00 -1.00e+00 >   16.7703    0.2125    0.9936  673.9456  337.0638   -0.1610   97.3587 277.66  97.7  93.3  9     0.0734
KIMO   ?    N    ? S      ? 20021130 0338   42.2380 GAU  0.00e+00 -1.00e+00 -1.00e+00 -1.00e+00 >   29.4350   -0.4821    0.6992  673.9456  337.0638   -0.1610   97.3587 277.66  97.7  78.9  9    -0.2586
MYKO   ?    Z    ? P      ? 20021130 0338   30.9500 GAU  0.00e+00 -1.00e+00 -1.00e+00 -1.00e+00 >   17.2889    0.0602    1.0986  738.9410  419.4329   -0.1500  100.4198 341.72 161.7  93.2  9     0.0572
MILO   ?    Z    ? P      ? 20021130 0338   33.0330 GAU  0.00e+00 -1.00e+00 -1.00e+00 -1.00e+00 >   19.0343    0.2895    0.8654  659.7307  324.7908   -0.1760  110.7061 270.37  90.4  92.9  9     0.1654
MILO   ?    E    ? S      ? 20021130 0338   45.9630 GAU  0.00e+00 -1.00e+00 -1.00e+00 -1.00e+00 >   33.3063   -0.6944    0.5661  659.7307  324.7908   -0.1760  110.7061 270.37  90.4  78.5 10    -0.1927
END_PHASE
END_NLLOC

