NLLOC "./loc/cyc.20030426.172739.grid0" "LOCATED" "Location completed."
SIGNATURE "Pratul Ranjan   obs:./obs/Seisgram_salo_0902_0503.pick   NLLoc:v7.00.00(27Oct2017)  run:01Aug2019 16h42m47"
COMMENT "Cyclades Events"
GRID  1900 900 80  10 10 0  1 1 1 PROB_DENSITY
SEARCH OCTREE nInitial 4000 nEvaluated 50000 smallestNodeSide 0.741797/0.351172/0.062500 oct_tree_integral 1.586833e+02 scatter_volume 1.585986e+02
HYPOCENTER  x 829.686 y 341.857 z 17.9375  OT 30.5274  ix -1 iy -1 iz -1 MAXIMUM_LIKELIHOOD
GEOGRAPHIC  OT 2003 04 26  17 27 30.527362  Lat 36.704764 Long 26.314006 Depth 17.937500
QUALITY  Pmax 2.48915e+33 MFmin 14.3897 MFmax 18.775 RMS 0.351952 Nphs 16 Gap 275.2 Dist 46.1485 Mamp -9.90 0 Mdur -9.90 0
VPVSRATIO  VpVsRatio 2  Npair 7  Diff 9.25
STATISTICS  ExpectX 829.733 Y 341.408 Z 19.1755  CovXX 8.77639 XY 0.611104 XZ -1.1658 YY 4.1315 YZ -4.41141 ZZ 13.4358 EllAz1  358.666 Dip1  21.6073 Len1  2.89214 Az2  272.986 Dip2  -10.7682 Len2  5.48493 Len3  7.385414e+00
STAT_GEOG  ExpectLat 36.700689 Long 26.314031 Depth 19.175455
TRANSFORM  LAMBERT RefEllipsoid WGS-84  LatOrig 34.000000  LongOrig 17.000000  FirstStdParal 34.883300  SecondStdParal 41.766600  RotCW 0.000000
QML_OriginQuality  assocPhCt 16  usedPhCt 16  assocStaCt -1  usedStaCt 9  depthPhCt -1  stdErr 0.351952  azGap 275.2  secAzGap 275.2  gtLevel -  minDist 46.1485 maxDist 124.812 medDist 88.0059
QML_OriginUncertainty  horUnc -1  minHorUnc 3.05297  maxHorUnc 4.51304  azMaxHorUnc 82.629
QML_ConfidenceEllipsoid  semiMajorAxisLength 7.38541  semiMinorAxisLength 2.89214  semiIntermediateAxisLength 5.48493  majorAxisPlunge -65.611  majorAxisAzimuth 27.7872  majorAxisRotation 251.513
FOCALMECH  Hyp  36.704764 26.314006 17.937500 Mech  0 0 0 mf  0 nObs 0
PHASE ID Ins Cmp On Pha  FM Date     HrMn   Sec     Err  ErrMag    Coda      Amp       Per  >   TTpred    Res       Weight    StaLoc(X  Y         Z)        SDist    SAzim  RAz  RDip RQual    Tcorr 
AMOW   ?    Z    ? P      ? 20030426 1727   39.9960 GAU  0.00e+00 -1.00e+00 -1.00e+00 -1.00e+00 >    8.5181    0.9247    0.3707  783.7378  346.1576   -0.3250   46.1485 275.35  95.3 110.1  9     0.0258
AMOW   ?    E    ? S      ? 20030426 1727   45.4860 GAU  0.00e+00 -1.00e+00 -1.00e+00 -1.00e+00 >   14.9585    0.0217    1.3414  783.7378  346.1576   -0.3250   46.1485 275.35  95.3 107.6  9    -0.0216
ANAF   ?    Z    ? P      ? 20030426 1727   41.5190 GAU  0.00e+00 -1.00e+00 -1.00e+00 -1.00e+00 >   10.9487    0.1097    1.3399  785.8920  299.1604   -0.3500   61.1629 225.73  45.7 105.0  9    -0.0668
ANAF   ?    N    ? S      ? 20030426 1727   49.1280 GAU  0.00e+00 -1.00e+00 -1.00e+00 -1.00e+00 >   19.1756   -0.2513    1.1869  785.8920  299.1604   -0.3500   61.1629 225.73  45.7 100.3  9    -0.3236
SCHI   ?    Z    ? P      ? 20030426 1727   43.1700 GAU  0.00e+00 -1.00e+00 -1.00e+00 -1.00e+00 >   12.9016   -0.2960    1.2141  757.4791  353.2589   -0.1000   73.1011 278.97  99.0 102.2  9     0.0371
SCHI   ?    N    ? S      ? 20030426 1727   53.3140 GAU  0.00e+00 -1.00e+00 -1.00e+00 -1.00e+00 >   22.4642    0.4317    0.9865  757.4791  353.2589   -0.1000   73.1011 278.97  99.0  76.2  8    -0.1092
SANN   ?    E    ? S      ? 20030426 1727   55.1290 GAU  0.00e+00 -1.00e+00 -1.00e+00 -1.00e+00 >   26.1491   -1.5332    0.1382  750.0761  306.9519   -0.1540   86.9256 246.32  66.3  66.2  9    -0.0143
NEAK   ?    Z    ? P      ? 20030426 1727   45.6350 GAU  0.00e+00 -1.00e+00 -1.00e+00 -1.00e+00 >   15.3832   -0.3679    1.1145  751.4711  301.5147   -0.1570   88.0059 242.72  62.7  95.7  9     0.0923
NEAK   ?    N    ? S      ? 20030426 1727   56.9840 GAU  0.00e+00 -1.00e+00 -1.00e+00 -1.00e+00 >   26.4362   -0.1792    1.1031  751.4711  301.5147   -0.1570   88.0059 242.72  62.7  66.2 10     0.1997
SANS   ?    Z    ? P      ? 20030426 1727   46.5190 GAU  0.00e+00 -1.00e+00 -1.00e+00 -1.00e+00 >   15.7526    0.1579    1.2625  751.9745  295.9960   -0.1030   90.2345 239.45  59.5  93.2  9     0.0812
SANS   ?    E    ? S      ? 20030426 1727   58.3840 GAU  0.00e+00 -1.00e+00 -1.00e+00 -1.00e+00 >   27.0173    0.8513    0.6173  751.9745  295.9960   -0.1030   90.2345 239.45  59.5  66.2 10    -0.0120
PARO   ?    Z    ? P      ? 20030426 1727   49.0100 GAU  0.00e+00 -1.00e+00 -1.00e+00 -1.00e+00 >   18.9019   -0.4646    0.9819  724.8810  378.1189   -0.0720  110.9004 289.09 109.1  51.7 10     0.0453
MYKO   ?    Z    ? P      ? 20030426 1727   50.7440 GAU  0.00e+00 -1.00e+00 -1.00e+00 -1.00e+00 >   20.0373    0.1221    1.2236  738.9410  419.4329   -0.1500  119.3839 310.53 130.5  51.7 10     0.0572
MYKO   ?    E    ? S      ? 20030426 1728    4.8810 GAU  0.00e+00 -1.00e+00 -1.00e+00 -1.00e+00 >   34.6613   -0.2061    0.9662  738.9410  419.4329   -0.1500  119.3839 310.53 130.5  61.6 10    -0.1016
FOLE   ?    Z    ? P      ? 20030426 1727   51.5220 GAU  0.00e+00 -1.00e+00 -1.00e+00 -1.00e+00 >   20.7739    0.1883    1.1804  706.6447  320.9074   -0.2920  124.8117 260.34  80.3  51.7 10     0.0324
FOLE   ?    N    ? S      ? 20030426 1728    6.2620 GAU  0.00e+00 -1.00e+00 -1.00e+00 -1.00e+00 >   36.0687   -0.0000    0.9727  706.6447  320.9074   -0.2920  124.8117 260.34  80.3  60.9 10    -0.3340
END_PHASE
END_NLLOC

NLLOC "./loc/cyc.20030123.194631.grid0" "LOCATED" "Location completed."
SIGNATURE "Pratul Ranjan   obs:./obs/Seisgram_salo_0902_0503.pick   NLLoc:v7.00.00(27Oct2017)  run:01Aug2019 16h41m15"
COMMENT "Cyclades Events"
GRID  1900 900 80  10 10 0  1 1 1 PROB_DENSITY
SEARCH OCTREE nInitial 4000 nEvaluated 50016 smallestNodeSide 0.370898/0.175586/0.031250 oct_tree_integral 3.657783e+01 scatter_volume 3.621752e+01
HYPOCENTER  x 739.743 y 421.31 z 2.82812  OT 30.9913  ix -1 iy -1 iz -1 MAXIMUM_LIKELIHOOD
GEOGRAPHIC  OT 2003 01 23  19 46 30.991262  Lat 37.496216 Long 25.390970 Depth 2.828125
QUALITY  Pmax 2.24115e+21 MFmin 11.1295 MFmax 12.6004 RMS 0.217319 Nphs 11 Gap 255.314 Dist 2.04116 Mamp -9.90 0 Mdur -9.90 0
VPVSRATIO  VpVsRatio 2  Npair 4  Diff 11.703
STATISTICS  ExpectX 739.691 Y 420.833 Z 6.69875  CovXX 1.55752 XY 0.128637 XZ -0.0478128 YY 3.5743 YZ -5.16991 ZZ 46.3245 EllAz1  94.919 Dip1  -0.506267 Len1  2.33676 Az2  184.979 Dip2  -6.78002 Len2  3.23712 Len3  1.287250e+01
STAT_GEOG  ExpectLat 37.491972 Long 25.389894 Depth 6.698748
TRANSFORM  LAMBERT RefEllipsoid WGS-84  LatOrig 34.000000  LongOrig 17.000000  FirstStdParal 34.883300  SecondStdParal 41.766600  RotCW 0.000000
QML_OriginQuality  assocPhCt 11  usedPhCt 11  assocStaCt -1  usedStaCt 7  depthPhCt -1  stdErr 0.217319  azGap 255.314  secAzGap 285.365  gtLevel -  minDist 2.04116 maxDist 106.896 medDist 82.4721
QML_OriginUncertainty  horUnc -1  minHorUnc 1.88772  maxHorUnc 2.87049  azMaxHorUnc 3.63487
QML_ConfidenceEllipsoid  semiMajorAxisLength 12.8725  semiMinorAxisLength 2.33676  semiIntermediateAxisLength 3.23712  majorAxisPlunge -83.2009  majorAxisAzimuth 0.668694  majorAxisRotation 4.40323
FOCALMECH  Hyp  37.496216 25.390970 2.828125 Mech  0 0 0 mf  0 nObs 0
PHASE ID Ins Cmp On Pha  FM Date     HrMn   Sec     Err  ErrMag    Coda      Amp       Per  >   TTpred    Res       Weight    StaLoc(X  Y         Z)        SDist    SAzim  RAz  RDip RQual    Tcorr 
MYKO   ?    Z    ? P      ? 20030123 1946   31.3330 GAU  0.00e+00 -1.00e+00 -1.00e+00 -1.00e+00 >    0.6309   -0.3463    0.9129  738.9410  419.4329   -0.1500    2.0412 203.13  23.1 145.7  9     0.0572
MYKO   ?    E    ? S      ? 20030123 1946   32.0790 GAU  0.00e+00 -1.00e+00 -1.00e+00 -1.00e+00 >    1.1757    0.0136    1.3109  738.9410  419.4329   -0.1500    2.0412 203.13  23.1 145.7  9    -0.1016
PARO   ?    Z    ? P      ? 20030123 1946   39.2740 GAU  0.00e+00 -1.00e+00 -1.00e+00 -1.00e+00 >    7.9836    0.2538    0.9518  724.8810  378.1189   -0.0720   45.6765 198.99  19.0  94.4  9     0.0453
PARO   ?    E    ? S      ? 20030123 1946   45.3100 GAU  0.00e+00 -1.00e+00 -1.00e+00 -1.00e+00 >   14.5015   -0.0293    1.2044  724.8810  378.1189   -0.0720   45.6765 198.99  19.0  65.8  9    -0.1535
SCHI   ?    Z    ? P      ? 20030123 1946   43.2500 GAU  0.00e+00 -1.00e+00 -1.00e+00 -1.00e+00 >   12.2385   -0.0169    1.2669  757.4791  353.2589   -0.1000   70.3245 165.39 345.4  80.7  9     0.0371
SCHI   ?    E    ? S      ? 20030123 1946   52.0140 GAU  0.00e+00 -1.00e+00 -1.00e+00 -1.00e+00 >   21.7977   -0.6657    0.5440  757.4791  353.2589   -0.1000   70.3245 165.39 345.4  65.7 10    -0.1092
AMOE   ?    Z    ? P      ? 20030123 1946   45.3890 GAU  0.00e+00 -1.00e+00 -1.00e+00 -1.00e+00 >   14.3086    0.0641    1.1739  797.7122  362.6484   -0.2100   82.4721 135.34 315.3  77.6  9     0.0250
SIFN   ?    Z    ? P      ? 20030123 1946   45.5700 GAU  0.00e+00 -1.00e+00 -1.00e+00 -1.00e+00 >   14.6061   -0.0690    1.1987  686.6747  355.9118   -0.2220   84.2208 219.06  39.1  77.4  9     0.0416
SERI   ?    N    ? P      ? 20030123 1946   46.2010 GAU  0.00e+00 -1.00e+00 -1.00e+00 -1.00e+00 >   15.2565   -0.0473    1.1825  663.5170  377.3478   -0.4670   87.9945 240.03  60.0  77.3  9     0.0006
KIMO   ?    Z    ? P      ? 20030123 1946   49.4900 GAU  0.00e+00 -1.00e+00 -1.00e+00 -1.00e+00 >   18.4534   -0.0281    1.0886  673.9456  337.0638   -0.1610  106.8957 217.99  38.0  77.0 10     0.0734
KIMO   ?    N    ? S      ? 20030123 1947    1.9390 GAU  0.00e+00 -1.00e+00 -1.00e+00 -1.00e+00 >   32.6258   -1.4195    0.1653  673.9456  337.0638   -0.1610  106.8957 217.99  38.0  65.7 10    -0.2586
END_PHASE
END_NLLOC

NLLOC "./loc/cyc.20030502.152355.grid0" "LOCATED" "Location completed."
SIGNATURE "Pratul Ranjan   obs:./obs/Seisgram_salo_0902_0503.pick   NLLoc:v7.00.00(27Oct2017)  run:01Aug2019 16h43m29"
COMMENT "Cyclades Events"
GRID  1900 900 80  10 10 0  1 1 1 PROB_DENSITY
SEARCH OCTREE nInitial 4000 nEvaluated 50008 smallestNodeSide 0.185449/0.087793/0.015625 oct_tree_integral 1.033835e+01 scatter_volume 1.033835e+01
HYPOCENTER  x 756.897 y 317.407 z 9.42969  OT 52.6129  ix -1 iy -1 iz -1 MAXIMUM_LIKELIHOOD
GEOGRAPHIC  OT 2003 05 02  15 23 52.612854  Lat 36.548332 Long 25.476572 Depth 9.429688
QUALITY  Pmax 1.56207e+51 MFmin 23.6933 MFmax 24.0423 RMS 0.169744 Nphs 20 Gap 79.1493 Dist 12.4832 Mamp -9.90 0 Mdur -9.90 0
VPVSRATIO  VpVsRatio 2  Npair 9  Diff 8.829
STATISTICS  ExpectX 756.696 Y 317.678 Z 8.59985  CovXX 0.430144 XY -0.145247 XZ 0.262903 YY 0.528061 YZ -1.37245 ZZ 7.03781 EllAz1  203.872 Dip1  -9.55122 Len1  0.863543 Az2  292.739 Dip2  6.69971 Len2  1.27086 Len3  5.085779e+00
STAT_GEOG  ExpectLat 36.550934 Long 25.474616 Depth 8.599850
TRANSFORM  LAMBERT RefEllipsoid WGS-84  LatOrig 34.000000  LongOrig 17.000000  FirstStdParal 34.883300  SecondStdParal 41.766600  RotCW 0.000000
QML_OriginQuality  assocPhCt 20  usedPhCt 20  assocStaCt -1  usedStaCt 11  depthPhCt -1  stdErr 0.169744  azGap 79.1493  secAzGap 79.1493  gtLevel -  minDist 12.4832 maxDist 85.2483 medDist 35.8566
QML_OriginUncertainty  horUnc -1  minHorUnc 0.86568  maxHorUnc 1.20601  azMaxHorUnc 144.314
QML_ConfidenceEllipsoid  semiMajorAxisLength 5.08578  semiMinorAxisLength 0.863543  semiIntermediateAxisLength 1.27086  majorAxisPlunge 78.297  majorAxisAzimuth 168.192  majorAxisRotation 57.1679
FOCALMECH  Hyp  36.548332 25.476572 9.429688 Mech  0 0 0 mf  0 nObs 0
PHASE ID Ins Cmp On Pha  FM Date     HrMn   Sec     Err  ErrMag    Coda      Amp       Per  >   TTpred    Res       Weight    StaLoc(X  Y         Z)        SDist    SAzim  RAz  RDip RQual    Tcorr 
SANN   ?    Z    ? P      ? 20030502 1523   55.4030 GAU  0.00e+00 -1.00e+00 -1.00e+00 -1.00e+00 >    2.7170    0.0127    1.2956  750.0761  306.9519   -0.1540   12.4832 213.12  33.1 125.4  9     0.0604
SANN   ?    E    ? S      ? 20030502 1523   57.4610 GAU  0.00e+00 -1.00e+00 -1.00e+00 -1.00e+00 >    4.9096   -0.0472    1.2766  750.0761  306.9519   -0.1540   12.4832 213.12  33.1 122.4  9    -0.0143
NEAK   ?    Z    ? P      ? 20030502 1523   55.9400 GAU  0.00e+00 -1.00e+00 -1.00e+00 -1.00e+00 >    3.3450   -0.1102    1.2118  751.4711  301.5147   -0.1570   16.7930 198.85  18.8 117.6  9     0.0923
NEAK   ?    N    ? S      ? 20030502 1523   59.8520 GAU  0.00e+00 -1.00e+00 -1.00e+00 -1.00e+00 >    6.0384    1.0011    0.0453  751.4711  301.5147   -0.1570   16.7930 198.85  18.8 113.9  9     0.1997
THIR   ?    Z    ? P      ? 20030502 1523   56.1700 GAU  0.00e+00 -1.00e+00 -1.00e+00 -1.00e+00 >    3.5176    0.0026    1.2955  745.9182  303.2357   -0.1590   17.9264 217.76  37.8 116.0  9     0.0369
THIR   ?    N    ? S      ? 20030502 1523   58.8060 GAU  0.00e+00 -1.00e+00 -1.00e+00 -1.00e+00 >    6.3478   -0.0571    1.2693  745.9182  303.2357   -0.1590   17.9264 217.76  37.8 112.2  9    -0.0976
SANS   ?    Z    ? P      ? 20030502 1523   57.0200 GAU  0.00e+00 -1.00e+00 -1.00e+00 -1.00e+00 >    4.1451    0.1809    1.1325  751.9745  295.9960   -0.1030   21.9696 192.95  12.9 111.4  9     0.0812
SANS   ?    N    ? S      ? 20030502 1524    0.5910 GAU  0.00e+00 -1.00e+00 -1.00e+00 -1.00e+00 >    7.4659    0.5243    0.4208  751.9745  295.9960   -0.1030   21.9696 192.95  12.9 107.5  9    -0.0120
ANAF   ?    Z    ? P      ? 20030502 1523   58.9000 GAU  0.00e+00 -1.00e+00 -1.00e+00 -1.00e+00 >    6.1605    0.1934    1.1101  785.8920  299.1604   -0.3500   34.2588 122.18 302.2 103.6  9    -0.0668
ANAF   ?    N    ? S      ? 20030502 1524    3.1060 GAU  0.00e+00 -1.00e+00 -1.00e+00 -1.00e+00 >   11.0351   -0.2183    1.0019  785.8920  299.1604   -0.3500   34.2588 122.18 302.2 100.4  9    -0.3236
SCHI   ?    Z    ? P      ? 20030502 1523   59.0500 GAU  0.00e+00 -1.00e+00 -1.00e+00 -1.00e+00 >    6.4123   -0.0123    1.2929  757.4791  353.2589   -0.1000   35.8566   0.93 180.9 102.6  9     0.0371
SCHI   ?    N    ? S      ? 20030502 1524    4.2810 GAU  0.00e+00 -1.00e+00 -1.00e+00 -1.00e+00 >   11.4644    0.3129    0.8639  757.4791  353.2589   -0.1000   35.8566   0.93 180.9  99.6  9    -0.1092
AMOW   ?    Z    ? P      ? 20030502 1523   59.7500 GAU  0.00e+00 -1.00e+00 -1.00e+00 -1.00e+00 >    7.0019    0.1094    1.2371  783.7378  346.1576   -0.3250   39.3324  43.03 223.0 101.6  9     0.0258
AMOW   ?    E    ? S      ? 20030502 1524    4.8810 GAU  0.00e+00 -1.00e+00 -1.00e+00 -1.00e+00 >   12.5083   -0.2185    0.9793  783.7378  346.1576   -0.3250   39.3324  43.03 223.0  98.4  9    -0.0216
FOLE   ?    Z    ? P      ? 20030502 1524    1.5000 GAU  0.00e+00 -1.00e+00 -1.00e+00 -1.00e+00 >    8.8494    0.0053    1.2956  706.6447  320.9074   -0.2920   50.3738 273.98  94.0  98.7  9     0.0324
PARO   ?    Z    ? P      ? 20030502 1524    4.5230 GAU  0.00e+00 -1.00e+00 -1.00e+00 -1.00e+00 >   11.9190   -0.0542    1.2000  724.8810  378.1189   -0.0720   68.6363 332.20 152.2  96.1  9     0.0453
SIFN   ?    Z    ? P      ? 20030502 1524    6.6050 GAU  0.00e+00 -1.00e+00 -1.00e+00 -1.00e+00 >   13.8616    0.0889    1.1247  686.6747  355.9118   -0.2220   80.0859 298.74 118.7  95.1  9     0.0416
SIFN   ?    N    ? S      ? 20030502 1524   15.6110 GAU  0.00e+00 -1.00e+00 -1.00e+00 -1.00e+00 >   24.3680   -1.0484    0.1443  686.6747  355.9118   -0.2220   80.0859 298.74 118.7  82.1  9    -0.3215
KIMO   ?    Z    ? P      ? 20030502 1524    7.2590 GAU  0.00e+00 -1.00e+00 -1.00e+00 -1.00e+00 >   14.7326   -0.1598    1.0130  673.9456  337.0638   -0.1610   85.2483 283.33 103.3  94.8  9     0.0734
KIMO   ?    E    ? S      ? 20030502 1524   18.1460 GAU  0.00e+00 -1.00e+00 -1.00e+00 -1.00e+00 >   25.8555   -0.0637    0.7897  673.9456  337.0638   -0.1610   85.2483 283.33 103.3  81.5  9    -0.2586
END_PHASE
END_NLLOC

NLLOC "./loc/cyc.20030524.005430.grid0" "LOCATED" "Location completed."
SIGNATURE "Pratul Ranjan   obs:./obs/Seisgram_salo_0902_0503.pick   NLLoc:v7.00.00(27Oct2017)  run:01Aug2019 16h44m52"
COMMENT "Cyclades Events"
GRID  1900 900 80  10 10 0  1 1 1 PROB_DENSITY
SEARCH OCTREE nInitial 4000 nEvaluated 50008 smallestNodeSide 0.741797/0.351172/0.062500 oct_tree_integral 2.611116e+02 scatter_volume 2.561582e+02
HYPOCENTER  x 648.316 y 392.953 z 6.59375  OT 21.2038  ix -1 iy -1 iz -1 MAXIMUM_LIKELIHOOD
GEOGRAPHIC  OT 2003 05 24  00 54 21.203841  Lat 37.311382 Long 24.333096 Depth 6.593750
QUALITY  Pmax 1.67133e+21 MFmin 10.8881 MFmax 12.7399 RMS 0.211123 Nphs 11 Gap 263.219 Dist 53.3237 Mamp -9.90 0 Mdur -9.90 0
VPVSRATIO  VpVsRatio 2  Npair 3  Diff 3.726
STATISTICS  ExpectX 649.51 Y 392.604 Z 7.82466  CovXX 8.68055 XY -2.1703 XZ -2.33483 YY 2.4868 YZ 0.285797 ZZ 27.1538 EllAz1  17.8167 Dip1  0.999224 Len1  2.51688 Az2  287.944 Dip2  -7.27729 Len2  5.65836 Len3  9.844901e+00
STAT_GEOG  ExpectLat 37.307390 Long 24.346225 Depth 7.824663
TRANSFORM  LAMBERT RefEllipsoid WGS-84  LatOrig 34.000000  LongOrig 17.000000  FirstStdParal 34.883300  SecondStdParal 41.766600  RotCW 0.000000
QML_OriginQuality  assocPhCt 11  usedPhCt 11  assocStaCt -1  usedStaCt 8  depthPhCt -1  stdErr 0.211123  azGap 263.219  secAzGap 270.472  gtLevel -  minDist 53.3237 maxDist 143.279 medDist 74.2116
QML_OriginUncertainty  horUnc -1  minHorUnc 2.03585  maxHorUnc 4.64115  azMaxHorUnc 107.511
QML_ConfidenceEllipsoid  semiMajorAxisLength 9.8449  semiMinorAxisLength 2.51688  semiIntermediateAxisLength 5.65836  majorAxisPlunge -82.6537  majorAxisAzimuth 100.042  majorAxisRotation 188.1
FOCALMECH  Hyp  37.311382 24.333096 6.593750 Mech  0 0 0 mf  0 nObs 0
PHASE ID Ins Cmp On Pha  FM Date     HrMn   Sec     Err  ErrMag    Coda      Amp       Per  >   TTpred    Res       Weight    StaLoc(X  Y         Z)        SDist    SAzim  RAz  RDip RQual    Tcorr 
SIFN   ?    Z    ? P      ? 20030524 0054   30.3540 GAU  0.00e+00 -1.00e+00 -1.00e+00 -1.00e+00 >    9.2906   -0.1821    1.1999  686.6747  355.9118   -0.2220   53.3237 134.00 314.0  94.3  9     0.0416
SIFN   ?    E    ? S      ? 20030524 0054   37.5330 GAU  0.00e+00 -1.00e+00 -1.00e+00 -1.00e+00 >   16.5165    0.1341    1.0864  686.6747  355.9118   -0.2220   53.3237 134.00 314.0  93.7  9    -0.3215
KIMO   ?    Z    ? P      ? 20030524 0054   32.0390 GAU  0.00e+00 -1.00e+00 -1.00e+00 -1.00e+00 >   10.6714    0.0903    1.2457  673.9456  337.0638   -0.1610   61.4854 155.36 335.4  93.5  9     0.0734
KIMO   ?    N    ? S      ? 20030524 0054   39.6820 GAU  0.00e+00 -1.00e+00 -1.00e+00 -1.00e+00 >   18.9197   -0.1830    1.0499  673.9456  337.0638   -0.1610   61.4854 155.36 335.4  93.2  9    -0.2586
MILO   ?    Z    ? P      ? 20030524 0054   32.8720 GAU  0.00e+00 -1.00e+00 -1.00e+00 -1.00e+00 >   11.9651   -0.4624    0.7226  659.7307  324.7908   -0.1760   69.1112 170.49 350.5  93.1  9     0.1654
MILS   ?    Z    ? P      ? 20030524 0054   33.6610 GAU  0.00e+00 -1.00e+00 -1.00e+00 -1.00e+00 >   12.1891    0.2262    1.0421  668.6265  325.5101   -0.1640   70.4347 163.24 343.2  93.1  9     0.0419
PARO   ?    Z    ? P      ? 20030524 0054   34.6860 GAU  0.00e+00 -1.00e+00 -1.00e+00 -1.00e+00 >   13.4666   -0.0297    1.2391  724.8810  378.1189   -0.0720   77.9885 100.96 281.0  92.7  9     0.0453
FOLE   ?    Z    ? P      ? 20030524 0054   37.2770 GAU  0.00e+00 -1.00e+00 -1.00e+00 -1.00e+00 >   15.9707    0.0700    1.1451  706.6447  320.9074   -0.2920   92.6972 141.01 321.0  92.3  9     0.0324
MYKO   ?    Z    ? P      ? 20030524 0054   37.5040 GAU  0.00e+00 -1.00e+00 -1.00e+00 -1.00e+00 >   16.2567   -0.0138    1.1652  738.9410  419.4329   -0.1500   94.4142  73.71 253.7  92.2  9     0.0572
MYKO   ?    N    ? S      ? 20030524 0054   48.4090 GAU  0.00e+00 -1.00e+00 -1.00e+00 -1.00e+00 >   28.6447   -1.3379    0.1471  738.9410  419.4329   -0.1500   94.4142  73.71 253.7  87.0  9    -0.1016
AMOW   ?    Z    ? P      ? 20030524 0054   45.6290 GAU  0.00e+00 -1.00e+00 -1.00e+00 -1.00e+00 >   24.4263   -0.0270    0.9570  783.7378  346.1576   -0.3250  143.2788 109.06 289.1  54.8  9     0.0258
END_PHASE
END_NLLOC

