NLLOC "./loc/cyc.20021113.174407.grid0" "LOCATED" "Location completed."
SIGNATURE "Pratul Ranjan   obs:./obs/Seisgram_salo_0902_0503.pick   NLLoc:v7.00.00(27Oct2017)  run:01Aug2019 16h40m08"
COMMENT "Cyclades Events"
GRID  1900 900 80  10 10 0  1 1 1 PROB_DENSITY
SEARCH OCTREE nInitial 4000 nEvaluated 50000 smallestNodeSide 0.370898/0.175586/0.031250 oct_tree_integral 3.447404e+01 scatter_volume 3.412892e+01
HYPOCENTER  x 728.987 y 414.111 z 5.01562  OT 5.00661  ix -1 iy -1 iz -1 MAXIMUM_LIKELIHOOD
GEOGRAPHIC  OT 2002 11 13  17 44 5.006607  Lat 37.440249 Long 25.262332 Depth 5.015625
QUALITY  Pmax 2.92206e+17 MFmin 9.55253 MFmax 10.6883 RMS 0.0965425 Nphs 9 Gap 206.329 Dist 11.2877 Mamp -9.90 0 Mdur -9.90 0
VPVSRATIO  VpVsRatio 2  Npair 3  Diff 6.623
STATISTICS  ExpectX 729.169 Y 414.268 Z 5.949  CovXX 1.96521 XY -1.03404 XZ 0.174387 YY 2.19941 YZ 2.98106 ZZ 8.92949 EllAz1  34.9273 Dip1  -16.5958 Len1  1.17886 Az2  301.146 Dip2  -12.4759 Len2  3.04997 Len3  5.960723e+00
STAT_GEOG  ExpectLat 37.441513 Long 25.264543 Depth 5.948999
TRANSFORM  LAMBERT RefEllipsoid WGS-84  LatOrig 34.000000  LongOrig 17.000000  FirstStdParal 34.883300  SecondStdParal 41.766600  RotCW 0.000000
QML_OriginQuality  assocPhCt 9  usedPhCt 9  assocStaCt -1  usedStaCt 6  depthPhCt -1  stdErr 0.0965425  azGap 206.329  secAzGap 228.39  gtLevel -  minDist 11.2877 maxDist 95.844 medDist 77.2291
QML_OriginUncertainty  horUnc -1  minHorUnc 1.54785  maxHorUnc 2.68008  azMaxHorUnc 138.23
QML_ConfidenceEllipsoid  semiMajorAxisLength 5.96072  semiMinorAxisLength 1.17886  semiIntermediateAxisLength 3.04997  majorAxisPlunge -69.0155  majorAxisAzimuth 175.917  majorAxisRotation 119.352
FOCALMECH  Hyp  37.440249 25.262332 5.015625 Mech  0 0 0 mf  0 nObs 0
PHASE ID Ins Cmp On Pha  FM Date     HrMn   Sec     Err  ErrMag    Coda      Amp       Per  >   TTpred    Res       Weight    StaLoc(X  Y         Z)        SDist    SAzim  RAz  RDip RQual    Tcorr 
MYKO   ?    Z    ? P      ? 20021113 1744    7.1300 GAU  0.00e+00 -1.00e+00 -1.00e+00 -1.00e+00 >    2.1734   -0.1072    1.0838  738.9410  419.4329   -0.1500   11.2877  61.87 241.9 112.7  9     0.0572
MYKO   ?    N    ? S      ? 20021113 1744    9.0180 GAU  0.00e+00 -1.00e+00 -1.00e+00 -1.00e+00 >    4.0487    0.0642    1.1284  738.9410  419.4329   -0.1500   11.2877  61.87 241.9 108.8  9    -0.1016
PARO   ?    Z    ? P      ? 20021113 1744   11.3910 GAU  0.00e+00 -1.00e+00 -1.00e+00 -1.00e+00 >    6.3668   -0.0277    1.1482  724.8810  378.1189   -0.0720   36.2255 186.51   6.5  92.3  9     0.0453
PARO   ?    N    ? S      ? 20021113 1744   16.2740 GAU  0.00e+00 -1.00e+00 -1.00e+00 -1.00e+00 >   11.4153    0.0056    1.1069  724.8810  378.1189   -0.0720   36.2255 186.51   6.5  79.1  8    -0.1535
SCHI   ?    Z    ? P      ? 20021113 1744   16.7560 GAU  0.00e+00 -1.00e+00 -1.00e+00 -1.00e+00 >   11.6254    0.0870    1.0628  757.4791  353.2589   -0.1000   67.1923 154.91 334.9  84.5  9     0.0371
SCHI   ?    N    ? S      ? 20021113 1744   25.2670 GAU  0.00e+00 -1.00e+00 -1.00e+00 -1.00e+00 >   20.5807   -0.2111    0.7450  757.4791  353.2589   -0.1000   67.1923 154.91 334.9  78.3  8    -0.1092
AMOW   ?    Z    ? P      ? 20021113 1744   20.1050 GAU  0.00e+00 -1.00e+00 -1.00e+00 -1.00e+00 >   15.0422    0.0304    0.9822  783.7378  346.1576   -0.3250   87.2660 141.14 321.1  84.3  9     0.0258
KIMO   ?    Z    ? P      ? 20021113 1744   21.2700 GAU  0.00e+00 -1.00e+00 -1.00e+00 -1.00e+00 >   16.2960   -0.1061    0.9130  673.9456  337.0638   -0.1610   94.6879 215.54  35.5  84.2  9     0.0734
FOLE   ?    Z    ? P      ? 20021113 1744   21.7370 GAU  0.00e+00 -1.00e+00 -1.00e+00 -1.00e+00 >   16.4972    0.2008    0.8299  706.6447  320.9074   -0.2920   95.8440 193.48  13.5  84.2  9     0.0324
END_PHASE
END_NLLOC

NLLOC "./loc/cyc.20030321.200759.grid0" "LOCATED" "Location completed."
SIGNATURE "Pratul Ranjan   obs:./obs/Seisgram_salo_0902_0503.pick   NLLoc:v7.00.00(27Oct2017)  run:01Aug2019 16h42m03"
COMMENT "Cyclades Events"
GRID  1900 900 80  10 10 0  1 1 1 PROB_DENSITY
SEARCH OCTREE nInitial 4000 nEvaluated 50008 smallestNodeSide 0.741797/0.351172/0.062500 oct_tree_integral 1.777299e+02 scatter_volume 1.777299e+02
HYPOCENTER  x 754.393 y 253.538 z 10.7188  OT 52.2315  ix -1 iy -1 iz -1 MAXIMUM_LIKELIHOOD
GEOGRAPHIC  OT 2003 03 21  20 07 52.231472  Lat 35.976549 Long 25.383925 Depth 10.718750
QUALITY  Pmax 4.21751e+27 MFmin 13.0833 MFmax 15.0222 RMS 0.150042 Nphs 13 Gap 275.38 Dist 42.5272 Mamp -9.90 0 Mdur -9.90 0
VPVSRATIO  VpVsRatio 2  Npair 2  Diff 9.846
STATISTICS  ExpectX 754.617 Y 253.456 Z 9.57418  CovXX 3.15653 XY -0.905656 XZ 0.565442 YY 12.3438 YZ 4.18713 ZZ 16.2175 EllAz1  262.31 Dip1  4.84099 Len1  3.24659 Az2  349.26 Dip2  -32.1416 Len2  5.89301 Len3  8.166761e+00
STAT_GEOG  ExpectLat 35.975629 Long 25.386318 Depth 9.574180
TRANSFORM  LAMBERT RefEllipsoid WGS-84  LatOrig 34.000000  LongOrig 17.000000  FirstStdParal 34.883300  SecondStdParal 41.766600  RotCW 0.000000
QML_OriginQuality  assocPhCt 13  usedPhCt 13  assocStaCt -1  usedStaCt 11  depthPhCt -1  stdErr 0.150042  azGap 275.38  secAzGap 292.423  gtLevel -  minDist 42.5272 maxDist 153.582 medDist 82.5748
QML_OriginUncertainty  horUnc -1  minHorUnc 2.65643  maxHorUnc 5.34734  azMaxHorUnc 174.423
QML_ConfidenceEllipsoid  semiMajorAxisLength 8.16676  semiMinorAxisLength 3.24659  semiIntermediateAxisLength 5.89301  majorAxisPlunge -57.4072  majorAxisAzimuth 179.923  majorAxisRotation 339.295
FOCALMECH  Hyp  35.976549 25.383925 10.718750 Mech  0 0 0 mf  0 nObs 0
PHASE ID Ins Cmp On Pha  FM Date     HrMn   Sec     Err  ErrMag    Coda      Amp       Per  >   TTpred    Res       Weight    StaLoc(X  Y         Z)        SDist    SAzim  RAz  RDip RQual    Tcorr 
SANS   ?    Z    ? P      ? 20030321 2007   59.9620 GAU  0.00e+00 -1.00e+00 -1.00e+00 -1.00e+00 >    7.5681    0.0813    1.3202  751.9745  295.9960   -0.1030   42.5272 356.74 176.7 102.4  9     0.0812
SANS   ?    E    ? S      ? 20030321 2008    5.7140 GAU  0.00e+00 -1.00e+00 -1.00e+00 -1.00e+00 >   13.4485    0.0460    1.2164  751.9745  295.9960   -0.1030   42.5272 356.74 176.7  96.3  9    -0.0120
NEAK   ?    Z    ? P      ? 20030321 2008    0.7710 GAU  0.00e+00 -1.00e+00 -1.00e+00 -1.00e+00 >    8.4938   -0.0466    1.3226  751.4711  301.5147   -0.1570   48.0659 356.51 176.5 100.8  9     0.0923
THIR   ?    Z    ? P      ? 20030321 2008    1.1960 GAU  0.00e+00 -1.00e+00 -1.00e+00 -1.00e+00 >    8.8867    0.0410    1.3441  745.9182  303.2357   -0.1590   50.4154 350.32 170.3 100.3  9     0.0369
SANN   ?    Z    ? P      ? 20030321 2008    1.6600 GAU  0.00e+00 -1.00e+00 -1.00e+00 -1.00e+00 >    9.4178   -0.0497    1.3199  750.0761  306.9519   -0.1540   53.5884 355.38 175.4  99.6  9     0.0604
ANAF   ?    Z    ? P      ? 20030321 2008    1.8400 GAU  0.00e+00 -1.00e+00 -1.00e+00 -1.00e+00 >    9.7372   -0.0620    1.3083  785.8920  299.1604   -0.3500   55.4402  34.62 214.6  99.4  9    -0.0668
FOLE   ?    Z    ? P      ? 20030321 2008    6.4300 GAU  0.00e+00 -1.00e+00 -1.00e+00 -1.00e+00 >   14.3061   -0.1400    1.0812  706.6447  320.9074   -0.2920   82.5748 324.67 144.7  96.0  9     0.0324
AMOW   ?    Z    ? P      ? 20030321 2008    9.1100 GAU  0.00e+00 -1.00e+00 -1.00e+00 -1.00e+00 >   16.7732    0.0795    1.0938  783.7378  346.1576   -0.3250   97.1574  17.58 197.6  95.0  9     0.0258
SCHI   ?    Z    ? P      ? 20030321 2008    9.9000 GAU  0.00e+00 -1.00e+00 -1.00e+00 -1.00e+00 >   17.2060    0.4255    0.7458  757.4791  353.2589   -0.1000   99.7690   1.77 181.8  94.8  9     0.0371
MILS   ?    Z    ? P      ? 20030321 2008   11.6100 GAU  0.00e+00 -1.00e+00 -1.00e+00 -1.00e+00 >   19.2734    0.0632    1.0193  668.6265  325.5101   -0.1640  111.9641 310.00 130.0  94.3  9     0.0419
KIMO   ?    Z    ? P      ? 20030321 2008   13.0100 GAU  0.00e+00 -1.00e+00 -1.00e+00 -1.00e+00 >   19.9513    0.7538    0.3726  673.9456  337.0638   -0.1610  115.9673 316.08 136.1  94.1  9     0.0734
SERI   ?    Z    ? P      ? 20030321 2008   17.5880 GAU  0.00e+00 -1.00e+00 -1.00e+00 -1.00e+00 >   25.3752   -0.0193    0.8538  663.5170  377.3478   -0.4670  153.5819 323.72 143.7  51.5 10     0.0006
SERI   ?    N    ? S      ? 20030321 2008   33.1860 GAU  0.00e+00 -1.00e+00 -1.00e+00 -1.00e+00 >   44.3189   -3.1274    0.0021  663.5170  377.3478   -0.4670  153.5819 323.72 143.7  57.2  9    -0.2369
END_PHASE
END_NLLOC

NLLOC "./loc/cyc.20021009.134338.grid0" "LOCATED" "Location completed."
SIGNATURE "Pratul Ranjan   obs:./obs/Seisgram_salo_0902_0503.pick   NLLoc:v7.00.00(27Oct2017)  run:01Aug2019 16h39m17"
COMMENT "Cyclades Events"
GRID  1900 900 80  10 10 0  1 1 1 PROB_DENSITY
SEARCH OCTREE nInitial 4000 nEvaluated 50008 smallestNodeSide 0.370898/0.175586/0.031250 oct_tree_integral 2.978288e+01 scatter_volume 2.973184e+01
HYPOCENTER  x 758.658 y 399.186 z 5.01562  OT 33.6309  ix -1 iy -1 iz -1 MAXIMUM_LIKELIHOOD
GEOGRAPHIC  OT 2002 10 09  13 43 33.630950  Lat 37.281720 Long 25.581059 Depth 5.015625
QUALITY  Pmax 2.31679e+28 MFmin 14.5932 MFmax 15.5621 RMS 0.183987 Nphs 13 Gap 175.178 Dist 28.2614 Mamp -9.90 0 Mdur -9.90 0
VPVSRATIO  VpVsRatio 2  Npair 3  Diff 2.613
STATISTICS  ExpectX 758.199 Y 399.015 Z 7.29371  CovXX 0.886126 XY 0.325162 XZ -0.0204757 YY 0.784713 YZ 1.60768 ZZ 15.4469 EllAz1  146.321 Dip1  5.1221 Len1  1.18062 Az2  236.632 Dip2  3.45927 Len2  1.9721 Len3  7.425799e+00
STAT_GEOG  ExpectLat 37.280562 Long 25.575716 Depth 7.293709
TRANSFORM  LAMBERT RefEllipsoid WGS-84  LatOrig 34.000000  LongOrig 17.000000  FirstStdParal 34.883300  SecondStdParal 41.766600  RotCW 0.000000
QML_OriginQuality  assocPhCt 13  usedPhCt 13  assocStaCt -1  usedStaCt 10  depthPhCt -1  stdErr 0.183987  azGap 175.178  secAzGap 177.335  gtLevel -  minDist 28.2614 maxDist 107.164 medDist 65.7058
QML_OriginUncertainty  horUnc -1  minHorUnc 1.07915  maxHorUnc 1.63657  azMaxHorUnc 49.4317
QML_ConfidenceEllipsoid  semiMajorAxisLength 7.4258  semiMinorAxisLength 1.18062  semiIntermediateAxisLength 1.9721  majorAxisPlunge 83.814  majorAxisAzimuth 0.52975  majorAxisRotation 303.431
FOCALMECH  Hyp  37.281720 25.581059 5.015625 Mech  0 0 0 mf  0 nObs 0
PHASE ID Ins Cmp On Pha  FM Date     HrMn   Sec     Err  ErrMag    Coda      Amp       Per  >   TTpred    Res       Weight    StaLoc(X  Y         Z)        SDist    SAzim  RAz  RDip RQual    Tcorr 
MYKO   ?    Z    ? P      ? 20021009 1343   38.8800 GAU  0.00e+00 -1.00e+00 -1.00e+00 -1.00e+00 >    5.0180    0.1739    1.1266  738.9410  419.4329   -0.1500   28.2614 315.76 135.8  97.3  9     0.0572
MYKO   ?    E    ? S      ? 20021009 1343   42.5480 GAU  0.00e+00 -1.00e+00 -1.00e+00 -1.00e+00 >    9.0697   -0.0510    1.2043  738.9410  419.4329   -0.1500   28.2614 315.76 135.8  79.8  8    -0.1016
PARO   ?    Z    ? P      ? 20021009 1343   40.5780 GAU  0.00e+00 -1.00e+00 -1.00e+00 -1.00e+00 >    6.9752   -0.0735    1.1823  724.8810  378.1189   -0.0720   39.8090 238.05  58.0  90.1  9     0.0453
PARO   ?    E    ? S      ? 20021009 1343   46.0890 GAU  0.00e+00 -1.00e+00 -1.00e+00 -1.00e+00 >   12.4754    0.1361    1.1199  724.8810  378.1189   -0.0720   39.8090 238.05  58.0  78.9  8    -0.1535
SCHI   ?    Z    ? P      ? 20021009 1343   41.5240 GAU  0.00e+00 -1.00e+00 -1.00e+00 -1.00e+00 >    8.0176   -0.1617    1.0468  757.4791  353.2589   -0.1000   45.9424 181.47   1.5  86.7  9     0.0371
SCHI   ?    N    ? S      ? 20021009 1343   47.8050 GAU  0.00e+00 -1.00e+00 -1.00e+00 -1.00e+00 >   14.2938   -0.0105    1.0914  757.4791  353.2589   -0.1000   45.9424 181.47   1.5  78.7  8    -0.1092
AMOE   ?    Z    ? P      ? 20021009 1343   43.6180 GAU  0.00e+00 -1.00e+00 -1.00e+00 -1.00e+00 >    9.3020    0.6600    0.3351  797.7122  362.6484   -0.2100   53.4809 133.09 313.1  85.2  9     0.0250
AMOW   ?    Z    ? P      ? 20021009 1343   43.8170 GAU  0.00e+00 -1.00e+00 -1.00e+00 -1.00e+00 >   10.1855   -0.0253    1.2171  783.7378  346.1576   -0.3250   58.6601 154.69 334.7  84.8  9     0.0258
ANID   ?    Z    ? P      ? 20021009 1343   46.3780 GAU  0.00e+00 -1.00e+00 -1.00e+00 -1.00e+00 >   12.5725    0.0796    1.1488  774.1589  328.1052   -0.1790   72.7515 167.70 347.7  84.4  9     0.0950
SIFN   ?    Z    ? P      ? 20021009 1343   48.1890 GAU  0.00e+00 -1.00e+00 -1.00e+00 -1.00e+00 >   14.4823    0.0341    1.0953  686.6747  355.9118   -0.2220   83.9901 238.99  59.0  84.3  9     0.0416
FOLE   ?    Z    ? P      ? 20021009 1343   50.4900 GAU  0.00e+00 -1.00e+00 -1.00e+00 -1.00e+00 >   16.1814    0.6452    0.4649  706.6447  320.9074   -0.2920   93.9841 213.60  33.6  84.2  9     0.0324
KIMO   ?    Z    ? P      ? 20021009 1343   51.8100 GAU  0.00e+00 -1.00e+00 -1.00e+00 -1.00e+00 >   18.0553    0.0504    0.9890  673.9456  337.0638   -0.1610  105.0498 233.75  53.7  84.1  9     0.0734
ASTY   ?    Z    ? P      ? 20021009 1343   52.0590 GAU  0.00e+00 -1.00e+00 -1.00e+00 -1.00e+00 >   18.4155    0.0767    0.9786  839.6137  328.9697   -0.1920  107.1639 130.94 310.9  84.1  9    -0.0642
END_PHASE
END_NLLOC

NLLOC "./loc/cyc.20021026.160653.grid0" "LOCATED" "Location completed."
SIGNATURE "Pratul Ranjan   obs:./obs/Seisgram_salo_0902_0503.pick   NLLoc:v7.00.00(27Oct2017)  run:01Aug2019 16h39m08"
COMMENT "Cyclades Events"
GRID  1900 900 80  10 10 0  1 1 1 PROB_DENSITY
SEARCH OCTREE nInitial 4000 nEvaluated 50016 smallestNodeSide 0.370898/0.175586/0.031250 oct_tree_integral 1.115528e+02 scatter_volume 1.115528e+02
HYPOCENTER  x 812.81 y 348.091 z 11.2031  OT 48.9136  ix -1 iy -1 iz -1 MAXIMUM_LIKELIHOOD
GEOGRAPHIC  OT 2002 10 26  16 06 48.913554  Lat 36.775919 Long 26.132702 Depth 11.203125
QUALITY  Pmax 4.66189e+30 MFmin 14.3838 MFmax 16.2744 RMS 0.202442 Nphs 14 Gap 275.422 Dist 20.9729 Mamp -9.90 0 Mdur -9.90 0
VPVSRATIO  VpVsRatio 2  Npair 5  Diff 13.255
STATISTICS  ExpectX 811.704 Y 348.15 Z 10.3102  CovXX 8.5317 XY -0.685867 XZ 0.183103 YY 1.57311 YZ 1.9309 ZZ 9.50159 EllAz1  5.56643 Dip1  -12.9405 Len1  1.93482 Az2  275.517 Dip2  -0.21485 Len2  5.50937 Len3  5.925696e+00
STAT_GEOG  ExpectLat 36.777440 Long 26.120423 Depth 10.310194
TRANSFORM  LAMBERT RefEllipsoid WGS-84  LatOrig 34.000000  LongOrig 17.000000  FirstStdParal 34.883300  SecondStdParal 41.766600  RotCW 0.000000
QML_OriginQuality  assocPhCt 14  usedPhCt 14  assocStaCt -1  usedStaCt 9  depthPhCt -1  stdErr 0.202442  azGap 275.422  secAzGap 275.468  gtLevel -  minDist 20.9729 maxDist 139.301 medDist 80.0923
QML_OriginUncertainty  horUnc -1  minHorUnc 1.86122  maxHorUnc 4.44712  azMaxHorUnc 95.5758
QML_ConfidenceEllipsoid  semiMajorAxisLength 5.9257  semiMinorAxisLength 1.93482  semiIntermediateAxisLength 5.50937  majorAxisPlunge -77.0576  majorAxisAzimuth 184.582  majorAxisRotation 90.8631
FOCALMECH  Hyp  36.775919 26.132702 11.203125 Mech  0 0 0 mf  0 nObs 0
PHASE ID Ins Cmp On Pha  FM Date     HrMn   Sec     Err  ErrMag    Coda      Amp       Per  >   TTpred    Res       Weight    StaLoc(X  Y         Z)        SDist    SAzim  RAz  RDip RQual    Tcorr 
AMOE   ?    Z    ? P      ? 20021026 1606   53.0440 GAU  0.00e+00 -1.00e+00 -1.00e+00 -1.00e+00 >    4.1212   -0.0158    1.2986  797.7122  362.6484   -0.2100   20.9729 313.96 134.0 116.7  9     0.0250
AMOE   ?    E    ? S      ? 20021026 1606   56.1830 GAU  0.00e+00 -1.00e+00 -1.00e+00 -1.00e+00 >    7.3797    0.0221    1.3052  797.7122  362.6484   -0.2100   20.9729 313.96 134.0 111.7  9    -0.1323
AMOW   ?    Z    ? P      ? 20021026 1606   54.3600 GAU  0.00e+00 -1.00e+00 -1.00e+00 -1.00e+00 >    5.4096    0.0110    1.3048  783.7378  346.1576   -0.3250   29.1360 266.20  86.2 109.8  9     0.0258
AMOW   ?    E    ? S      ? 20021026 1606   58.8540 GAU  0.00e+00 -1.00e+00 -1.00e+00 -1.00e+00 >    9.6633    0.2987    0.9744  783.7378  346.1576   -0.3250   29.1360 266.20  86.2 104.0  9    -0.0216
ANID   ?    Z    ? P      ? 20021026 1606   56.7370 GAU  0.00e+00 -1.00e+00 -1.00e+00 -1.00e+00 >    7.7536   -0.0252    1.2946  774.1589  328.1052   -0.1790   43.5121 242.66  62.7 102.8  9     0.0950
ANID   ?    N    ? S      ? 20021026 1607    2.2580 GAU  0.00e+00 -1.00e+00 -1.00e+00 -1.00e+00 >   13.7590   -0.4103    0.6800  774.1589  328.1052   -0.1790   43.5121 242.66  62.7  96.6  9    -0.0043
SCHI   ?    Z    ? P      ? 20021026 1606   58.5900 GAU  0.00e+00 -1.00e+00 -1.00e+00 -1.00e+00 >    9.7613   -0.1219    1.2025  757.4791  353.2589   -0.1000   55.5714 275.34  95.3  99.8  9     0.0371
SANS   ?    Z    ? P      ? 20021026 1607    3.1550 GAU  0.00e+00 -1.00e+00 -1.00e+00 -1.00e+00 >   13.8880    0.2723    1.0063  751.9745  295.9960   -0.1030   80.0923 229.43  49.4  96.6  9     0.0812
SANS   ?    N    ? S      ? 20021026 1607   13.6750 GAU  0.00e+00 -1.00e+00 -1.00e+00 -1.00e+00 >   24.3312    0.4423    0.7229  751.9745  295.9960   -0.1030   80.0923 229.43  49.4  92.6  9    -0.0120
PARO   ?    Z    ? P      ? 20021026 1607    4.8900 GAU  0.00e+00 -1.00e+00 -1.00e+00 -1.00e+00 >   16.0528   -0.1216    1.0662  724.8810  378.1189   -0.0720   92.9147 288.86 108.9  95.6  9     0.0453
MYKO   ?    Z    ? P      ? 20021026 1607    7.1620 GAU  0.00e+00 -1.00e+00 -1.00e+00 -1.00e+00 >   17.7103    0.4809    0.7054  738.9410  419.4329   -0.1500  102.6951 314.00 134.0  95.0  9     0.0572
FOLE   ?    Z    ? P      ? 20021026 1607    7.6600 GAU  0.00e+00 -1.00e+00 -1.00e+00 -1.00e+00 >   18.8827   -0.1687    0.9654  706.6447  320.9074   -0.2920  109.5898 255.64  75.6  94.7  9     0.0324
KIMO   ?    Z    ? P      ? 20021026 1607   12.5920 GAU  0.00e+00 -1.00e+00 -1.00e+00 -1.00e+00 >   23.3932    0.2118    0.8910  673.9456  337.0638   -0.1610  139.3012 265.46  85.5  51.5 10     0.0734
KIMO   ?    N    ? S      ? 20021026 1607   28.9860 GAU  0.00e+00 -1.00e+00 -1.00e+00 -1.00e+00 >   40.6562   -0.3252    0.5826  673.9456  337.0638   -0.1610  139.3012 265.46  85.5  60.1 10    -0.2586
END_PHASE
END_NLLOC

