NLLOC "./loc/cyc.20021118.232454.grid0" "LOCATED" "Location completed."
SIGNATURE "Pratul Ranjan   obs:./obs/Seisgram_salo_0902_0503.pick   NLLoc:v7.00.00(27Oct2017)  run:01Aug2019 16h39m47"
COMMENT "Cyclades Events"
GRID  1900 900 80  10 10 0  1 1 1 PROB_DENSITY
SEARCH OCTREE nInitial 4000 nEvaluated 50016 smallestNodeSide 0.185449/0.087793/0.015625 oct_tree_integral 1.467846e+01 scatter_volume 1.466316e+01
HYPOCENTER  x 759.586 y 316.046 z 10.5312  OT 52.0894  ix -1 iy -1 iz -1 MAXIMUM_LIKELIHOOD
GEOGRAPHIC  OT 2002 11 18  23 24 52.089434  Lat 36.533877 Long 25.505117 Depth 10.531250
QUALITY  Pmax 1.00037e+50 MFmin 22.9004 MFmax 23.7618 RMS 0.223307 Nphs 20 Gap 119.96 Dist 13.1583 Mamp -9.90 0 Mdur -9.90 0
VPVSRATIO  VpVsRatio 2  Npair 8  Diff 6.638
STATISTICS  ExpectX 759.753 Y 316.132 Z 9.0334  CovXX 0.711979 XY -0.191794 XZ -0.655676 YY 0.471934 YZ -1.1032 ZZ 9.11527 EllAz1  29.4857 Dip1  8.17274 Len1  0.800374 Az2  299.513 Dip2  -0.18746 Len2  1.69936 Len3  5.729544e+00
STAT_GEOG  ExpectLat 36.534509 Long 25.507071 Depth 9.033402
TRANSFORM  LAMBERT RefEllipsoid WGS-84  LatOrig 34.000000  LongOrig 17.000000  FirstStdParal 34.883300  SecondStdParal 41.766600  RotCW 0.000000
QML_OriginQuality  assocPhCt 20  usedPhCt 20  assocStaCt -1  usedStaCt 12  depthPhCt -1  stdErr 0.223307  azGap 119.96  secAzGap 150.394  gtLevel -  minDist 13.1583 maxDist 105.428 medDist 56.6875
QML_OriginUncertainty  horUnc -1  minHorUnc 0.917125  maxHorUnc 1.37182  azMaxHorUnc 118.981
QML_ConfidenceEllipsoid  semiMajorAxisLength 5.72954  semiMinorAxisLength 0.800374  semiIntermediateAxisLength 1.69936  majorAxisPlunge -81.8251  majorAxisAzimuth 30.8176  majorAxisRotation 268.735
FOCALMECH  Hyp  36.533877 25.505117 10.531250 Mech  0 0 0 mf  0 nObs 0
PHASE ID Ins Cmp On Pha  FM Date     HrMn   Sec     Err  ErrMag    Coda      Amp       Per  >   TTpred    Res       Weight    StaLoc(X  Y         Z)        SDist    SAzim  RAz  RDip RQual    Tcorr 
SANN   ?    Z    ? P      ? 20021118 2324   54.8400 GAU  0.00e+00 -1.00e+00 -1.00e+00 -1.00e+00 >    2.9204   -0.2302    1.0961  750.0761  306.9519   -0.1540   13.1583 226.28  46.3 127.1  9     0.0604
SANN   ?    E    ? S      ? 20021118 2324   57.4300 GAU  0.00e+00 -1.00e+00 -1.00e+00 -1.00e+00 >    5.2528    0.1021    1.2722  750.0761  306.9519   -0.1540   13.1583 226.28  46.3 123.7  9    -0.0143
ANID   ?    Z    ? P      ? 20021118 2324   56.0100 GAU  0.00e+00 -1.00e+00 -1.00e+00 -1.00e+00 >    3.7545    0.0710    1.3033  774.1589  328.1052   -0.1790   18.9155  50.39 230.4 117.5  9     0.0950
ANID   ?    N    ? S      ? 20021118 2324   58.0060 GAU  0.00e+00 -1.00e+00 -1.00e+00 -1.00e+00 >    6.7454   -0.8246    0.2027  774.1589  328.1052   -0.1790   18.9155  50.39 230.4 113.0  9    -0.0043
SANS   ?    Z    ? P      ? 20021118 2324   56.1310 GAU  0.00e+00 -1.00e+00 -1.00e+00 -1.00e+00 >    4.1362   -0.1757    1.1924  751.9745  295.9960   -0.1030   21.4463 200.79  20.8 114.5  9     0.0812
SANS   ?    N    ? S      ? 20021118 2324   59.5450 GAU  0.00e+00 -1.00e+00 -1.00e+00 -1.00e+00 >    7.4232    0.0444    1.3221  751.9745  295.9960   -0.1030   21.4463 200.79  20.8 109.6  9    -0.0120
SCHI   ?    Z    ? P      ? 20021118 2324   58.8300 GAU  0.00e+00 -1.00e+00 -1.00e+00 -1.00e+00 >    6.6901    0.0134    1.3345  757.4791  353.2589   -0.1000   37.2722 356.76 176.8 104.0  9     0.0371
SCHI   ?    E    ? S      ? 20021118 2325    4.0460 GAU  0.00e+00 -1.00e+00 -1.00e+00 -1.00e+00 >   11.9244    0.1413    1.1742  757.4791  353.2589   -0.1000   37.2722 356.76 176.8  98.3  9    -0.1092
AMOW   ?    Z    ? P      ? 20021118 2324   59.1800 GAU  0.00e+00 -1.00e+00 -1.00e+00 -1.00e+00 >    6.9216    0.1432    1.2172  783.7378  346.1576   -0.3250   38.6007  38.73 218.7 103.7  9     0.0258
AMOW   ?    E    ? S      ? 20021118 2325    4.3530 GAU  0.00e+00 -1.00e+00 -1.00e+00 -1.00e+00 >   12.3407   -0.0555    1.2477  783.7378  346.1576   -0.3250   38.6007  38.73 218.7  98.0  9    -0.0216
FOLE   ?    Z    ? P      ? 20021118 2325    1.3600 GAU  0.00e+00 -1.00e+00 -1.00e+00 -1.00e+00 >    9.3475   -0.1094    1.2815  706.6447  320.9074   -0.2920   53.1638 275.25  95.2  99.6  9     0.0324
FOLE   ?    N    ? S      ? 20021118 2325    7.6790 GAU  0.00e+00 -1.00e+00 -1.00e+00 -1.00e+00 >   16.5492   -0.6256    0.5063  706.6447  320.9074   -0.2920   53.1638 275.25  95.2  93.0  9    -0.3340
AMOE   ?    Z    ? P      ? 20021118 2325    2.4100 GAU  0.00e+00 -1.00e+00 -1.00e+00 -1.00e+00 >   10.5278   -0.2322    1.0882  797.7122  362.6484   -0.2100   60.2112  39.29 219.3  98.3  9     0.0250
AMOE   ?    E    ? S      ? 20021118 2325   10.3080 GAU  0.00e+00 -1.00e+00 -1.00e+00 -1.00e+00 >   18.5793   -0.2284    0.9667  797.7122  362.6484   -0.2100   60.2112  39.29 219.3  91.0  9    -0.1323
PARO   ?    Z    ? P      ? 20021118 2325    4.4800 GAU  0.00e+00 -1.00e+00 -1.00e+00 -1.00e+00 >   12.3586   -0.0134    1.2560  724.8810  378.1189   -0.0720   71.1156 330.79 150.8  96.9  9     0.0453
PARO   ?    N    ? S      ? 20021118 2325   13.1140 GAU  0.00e+00 -1.00e+00 -1.00e+00 -1.00e+00 >   21.7181   -0.5401    0.6394  724.8810  378.1189   -0.0720   71.1156 330.79 150.8  89.4  9    -0.1535
ASTY   ?    Z    ? P      ? 20021118 2325    6.2270 GAU  0.00e+00 -1.00e+00 -1.00e+00 -1.00e+00 >   14.0438    0.1579    1.1020  839.6137  328.9697   -0.1920   81.0647  80.83 260.8  95.9  9    -0.0642
KIMO   ?    Z    ? P      ? 20021118 2325    7.7700 GAU  0.00e+00 -1.00e+00 -1.00e+00 -1.00e+00 >   15.2455    0.3617    0.8003  673.9456  337.0638   -0.1610   88.1815 283.79 103.8  95.4  9     0.0734
MILO   ?    Z    ? P      ? 20021118 2325    9.9510 GAU  0.00e+00 -1.00e+00 -1.00e+00 -1.00e+00 >   17.2859    0.4102    0.7282  659.7307  324.7908   -0.1760  100.2372 275.00  95.0  94.7  9     0.1654
MYKO   ?    Z    ? P      ? 20021118 2325   11.1100 GAU  0.00e+00 -1.00e+00 -1.00e+00 -1.00e+00 >   18.1635    0.7999    0.2689  738.9410  419.4329   -0.1500  105.4277 348.71 168.7  94.5  9     0.0572
END_PHASE
END_NLLOC

NLLOC "./loc/cyc.20030517.085218.grid0" "LOCATED" "Location completed."
SIGNATURE "Pratul Ranjan   obs:./obs/Seisgram_salo_0902_0503.pick   NLLoc:v7.00.00(27Oct2017)  run:01Aug2019 16h44m45"
COMMENT "Cyclades Events"
GRID  1900 900 80  10 10 0  1 1 1 PROB_DENSITY
SEARCH OCTREE nInitial 4000 nEvaluated 50016 smallestNodeSide 0.370898/0.175586/0.031250 oct_tree_integral 8.352710e+01 scatter_volume 8.352710e+01
HYPOCENTER  x 738.259 y 365.825 z 10.3594  OT 15.2188  ix -1 iy -1 iz -1 MAXIMUM_LIKELIHOOD
GEOGRAPHIC  OT 2003 05 17  08 52 15.218812  Lat 36.998722 Long 25.317695 Depth 10.359375
QUALITY  Pmax 1.99189e+22 MFmin 12.2587 MFmax 12.8546 RMS 0.185365 Nphs 11 Gap 160.804 Dist 18.1691 Mamp -9.90 0 Mdur -9.90 0
VPVSRATIO  VpVsRatio -1  Npair 1  Diff 0
STATISTICS  ExpectX 738.459 Y 366.141 Z 10.508  CovXX 1.40599 XY 1.45539 XZ 1.66364 YY 7.33501 YZ 7.03945 ZZ 26.0267 EllAz1  102.971 Dip1  -0.0945627 Len1  1.94163 Az2  192.938 Dip2  19.1226 Len2  4.26996 Len3  1.003631e+01
STAT_GEOG  ExpectLat 37.001404 Long 25.320250 Depth 10.507990
TRANSFORM  LAMBERT RefEllipsoid WGS-84  LatOrig 34.000000  LongOrig 17.000000  FirstStdParal 34.883300  SecondStdParal 41.766600  RotCW 0.000000
QML_OriginQuality  assocPhCt 11  usedPhCt 11  assocStaCt -1  usedStaCt 10  depthPhCt -1  stdErr 0.185365  azGap 160.804  secAzGap 194.622  gtLevel -  minDist 18.1691 maxDist 88.6031 medDist 73.0383
QML_OriginUncertainty  horUnc -1  minHorUnc 1.5673  maxHorUnc 4.20094  azMaxHorUnc 13.0741
QML_ConfidenceEllipsoid  semiMajorAxisLength 10.0363  semiMinorAxisLength 1.94163  semiIntermediateAxisLength 4.26996  majorAxisPlunge 70.8771  majorAxisAzimuth 13.2432  majorAxisRotation 0.367546
FOCALMECH  Hyp  36.998722 25.317695 10.359375 Mech  0 0 0 mf  0 nObs 0
PHASE ID Ins Cmp On Pha  FM Date     HrMn   Sec     Err  ErrMag    Coda      Amp       Per  >   TTpred    Res       Weight    StaLoc(X  Y         Z)        SDist    SAzim  RAz  RDip RQual    Tcorr 
PARO   ?    Z    ? P      ? 20030517 0852   18.8570 GAU  0.00e+00 -1.00e+00 -1.00e+00 -1.00e+00 >    3.6189   -0.0260    1.2404  724.8810  378.1189   -0.0720   18.1691 312.58 132.6 117.8  9     0.0453
AMOW   ?    Z    ? P      ? 20030517 0852   24.0310 GAU  0.00e+00 -1.00e+00 -1.00e+00 -1.00e+00 >    8.7385    0.0478    1.2175  783.7378  346.1576   -0.3250   49.5491 113.39 293.4 100.2  9     0.0258
AMOW   ?    N    ? S      ? 20030517 0852   30.0270 GAU  0.00e+00 -1.00e+00 -1.00e+00 -1.00e+00 >   15.5043   -0.6745    0.3585  783.7378  346.1576   -0.3250   49.5491 113.39 293.4  93.9  9    -0.0216
SIFN   ?    Z    ? P      ? 20030517 0852   24.3330 GAU  0.00e+00 -1.00e+00 -1.00e+00 -1.00e+00 >    9.2333   -0.1608    1.1299  686.6747  355.9118   -0.2220   52.5283 259.12  79.1  99.4  9     0.0416
FOLE   ?    Z    ? P      ? 20030517 0852   24.9130 GAU  0.00e+00 -1.00e+00 -1.00e+00 -1.00e+00 >    9.6387    0.0230    1.2322  706.6447  320.9074   -0.2920   54.9277 215.14  35.1  99.0  9     0.0324
KIMO   ?    Z    ? P      ? 20030517 0852   27.6310 GAU  0.00e+00 -1.00e+00 -1.00e+00 -1.00e+00 >   12.2471    0.0917    1.1163  673.9456  337.0638   -0.1610   70.4516 245.91  65.9  96.8  9     0.0734
SERI   ?    Z    ? P      ? 20030517 0852   28.4920 GAU  0.00e+00 -1.00e+00 -1.00e+00 -1.00e+00 >   13.1335    0.1391    1.0407  663.5170  377.3478   -0.4670   75.6251 278.76  98.8  96.4  9     0.0006
MILS   ?    Z    ? P      ? 20030517 0852   29.4300 GAU  0.00e+00 -1.00e+00 -1.00e+00 -1.00e+00 >   13.9376    0.2317    0.8933  668.6265  325.5101   -0.1640   80.4611 239.93  59.9  95.8  9     0.0419
ANAF   ?    Z    ? P      ? 20030517 0852   29.4030 GAU  0.00e+00 -1.00e+00 -1.00e+00 -1.00e+00 >   14.1940    0.0570    1.0859  785.8920  299.1604   -0.3500   81.9332 144.45 324.5  95.8  9    -0.0668
MILN   ?    Z    ? P      ? 20030517 0852   29.5230 GAU  0.00e+00 -1.00e+00 -1.00e+00 -1.00e+00 >   14.4223   -0.3070    0.8727  661.7760  332.7377   -0.1480   83.3332 246.61  66.6  95.7  9     0.1889
MILO   ?    Z    ? P      ? 20030517 0852   30.3520 GAU  0.00e+00 -1.00e+00 -1.00e+00 -1.00e+00 >   15.3147   -0.3469    0.8126  659.7307  324.7908   -0.1760   88.6031 242.41  62.4  95.3  9     0.1654
END_PHASE
END_NLLOC

NLLOC "./loc/cyc.20021011.135720.grid0" "LOCATED" "Location completed."
SIGNATURE "Pratul Ranjan   obs:./obs/Seisgram_salo_0902_0503.pick   NLLoc:v7.00.00(27Oct2017)  run:01Aug2019 16h39m20"
COMMENT "Cyclades Events"
GRID  1900 900 80  10 10 0  1 1 1 PROB_DENSITY
SEARCH OCTREE nInitial 4000 nEvaluated 50008 smallestNodeSide 0.370898/0.175586/0.031250 oct_tree_integral 2.488681e+01 scatter_volume 2.488681e+01
HYPOCENTER  x 750.87 y 300.683 z 7.35938  OT 19.2271  ix -1 iy -1 iz -1 MAXIMUM_LIKELIHOOD
GEOGRAPHIC  OT 2002 10 11  13 57 19.227145  Lat 36.403015 Long 25.392471 Depth 7.359375
QUALITY  Pmax 2.66395e+22 MFmin 12.9911 MFmax 13.5107 RMS 0.190818 Nphs 11 Gap 127.841 Dist 4.81497 Mamp -9.90 0 Mdur -9.90 0
VPVSRATIO  VpVsRatio 2  Npair 4  Diff 6.831
STATISTICS  ExpectX 749.454 Y 300.542 Z 7.08744  CovXX 5.42394 XY 0.77175 XZ -2.47571 YY 1.42289 YZ -1.8401 ZZ 5.23125 EllAz1  3.78895 Dip1  23.6554 Len1  1.53352 Az2  292.738 Dip2  -36.55 Len2  3.31366 Len3  5.413279e+00
STAT_GEOG  ExpectLat 36.402912 Long 25.376596 Depth 7.087440
TRANSFORM  LAMBERT RefEllipsoid WGS-84  LatOrig 34.000000  LongOrig 17.000000  FirstStdParal 34.883300  SecondStdParal 41.766600  RotCW 0.000000
QML_OriginQuality  assocPhCt 11  usedPhCt 11  assocStaCt -1  usedStaCt 7  depthPhCt -1  stdErr 0.190818  azGap 127.841  secAzGap 186.052  gtLevel -  minDist 4.81497 maxDist 93.1433 medDist 48.6302
QML_OriginUncertainty  horUnc -1  minHorUnc 1.71527  maxHorUnc 3.57849  azMaxHorUnc 79.4523
QML_ConfidenceEllipsoid  semiMajorAxisLength 5.41328  semiMinorAxisLength 1.53352  semiIntermediateAxisLength 3.31366  majorAxisPlunge -44.1039  majorAxisAzimuth 68.6669  majorAxisRotation 92.6578
FOCALMECH  Hyp  36.403015 25.392471 7.359375 Mech  0 0 0 mf  0 nObs 0
PHASE ID Ins Cmp On Pha  FM Date     HrMn   Sec     Err  ErrMag    Coda      Amp       Per  >   TTpred    Res       Weight    StaLoc(X  Y         Z)        SDist    SAzim  RAz  RDip RQual    Tcorr 
SANS   ?    Z    ? P      ? 20021011 1357   20.6610 GAU  0.00e+00 -1.00e+00 -1.00e+00 -1.00e+00 >    1.5396   -0.1869    1.0063  751.9745  295.9960   -0.1030    4.8150 166.73 346.7 147.2  9     0.0812
SANS   ?    E    ? S      ? 20021011 1357   22.1780 GAU  0.00e+00 -1.00e+00 -1.00e+00 -1.00e+00 >    2.8103    0.1525    1.1369  751.9745  295.9960   -0.1030    4.8150 166.73 346.7 145.6  9    -0.0120
SANN   ?    Z    ? P      ? 20021011 1357   20.7520 GAU  0.00e+00 -1.00e+00 -1.00e+00 -1.00e+00 >    1.6999   -0.2355    0.8982  750.0761  306.9519   -0.1540    6.3194 352.79 172.8 139.6  9     0.0604
SANN   ?    N    ? S      ? 20021011 1357   22.4160 GAU  0.00e+00 -1.00e+00 -1.00e+00 -1.00e+00 >    3.1025    0.1006    1.1962  750.0761  306.9519   -0.1540    6.3194 352.79 172.8 137.2  9    -0.0143
ANID   ?    Z    ? P      ? 20021011 1357   25.6700 GAU  0.00e+00 -1.00e+00 -1.00e+00 -1.00e+00 >    6.3711   -0.0233    1.2247  774.1589  328.1052   -0.1790   35.9777  40.34 220.3  98.6  9     0.0950
ANID   ?    E    ? S      ? 20021011 1357   30.6960 GAU  0.00e+00 -1.00e+00 -1.00e+00 -1.00e+00 >   11.4155    0.0576    1.1843  774.1589  328.1052   -0.1790   35.9777  40.34 220.3  97.1  9    -0.0043
FOLE   ?    Z    ? P      ? 20021011 1357   28.0250 GAU  0.00e+00 -1.00e+00 -1.00e+00 -1.00e+00 >    8.5102    0.2552    0.9605  706.6447  320.9074   -0.2920   48.6302 294.58 114.6  96.0  9     0.0324
SCHI   ?    Z    ? P      ? 20021011 1357   28.4510 GAU  0.00e+00 -1.00e+00 -1.00e+00 -1.00e+00 >    9.2398   -0.0530    1.2057  757.4791  353.2589   -0.1000   52.9902   7.17 187.2  95.3  9     0.0371
AMOW   ?    Z    ? P      ? 20021011 1357   28.9190 GAU  0.00e+00 -1.00e+00 -1.00e+00 -1.00e+00 >    9.7769   -0.1108    1.1408  783.7378  346.1576   -0.3250   56.1098  35.86 215.9  95.1  9     0.0258
AMOW   ?    E    ? S      ? 20021011 1357   37.2670 GAU  0.00e+00 -1.00e+00 -1.00e+00 -1.00e+00 >   17.3684    0.6930    0.3513  783.7378  346.1576   -0.3250   56.1098  35.86 215.9  94.4  9    -0.0216
ASTY   ?    Z    ? P      ? 20021011 1357   35.6290 GAU  0.00e+00 -1.00e+00 -1.00e+00 -1.00e+00 >   16.0486    0.4174    0.6953  839.6137  328.9697   -0.1920   93.1433  72.32 252.3  92.8  9    -0.0642
END_PHASE
END_NLLOC

NLLOC "./loc/cyc.20030517.041952.grid0" "LOCATED" "Location completed."
SIGNATURE "Pratul Ranjan   obs:./obs/Seisgram_salo_0902_0503.pick   NLLoc:v7.00.00(27Oct2017)  run:01Aug2019 16h44m43"
COMMENT "Cyclades Events"
GRID  1900 900 80  10 10 0  1 1 1 PROB_DENSITY
SEARCH OCTREE nInitial 4000 nEvaluated 50000 smallestNodeSide 0.370898/0.175586/0.031250 oct_tree_integral 1.587969e+02 scatter_volume 1.587710e+02
HYPOCENTER  x 650.727 y 394.797 z 5.01562  OT 48.2408  ix -1 iy -1 iz -1 MAXIMUM_LIKELIHOOD
GEOGRAPHIC  OT 2003 05 17  04 19 48.240774  Lat 37.326239 Long 24.361909 Depth 5.015625
QUALITY  Pmax 1.46244e+40 MFmin 17.8538 MFmax 20.3848 RMS 0.331568 Nphs 18 Gap 261.725 Dist 21.6343 Mamp -9.90 0 Mdur -9.90 0
VPVSRATIO  VpVsRatio 2  Npair 7  Diff 8.106
STATISTICS  ExpectX 651.436 Y 394.418 Z 5.66383  CovXX 7.48751 XY 0.15874 XZ -0.522579 YY 2.44861 YZ -0.356119 ZZ 5.6516 EllAz1  358.838 Dip1  6.07809 Len1  2.91519 Az2  290.015 Dip2  -73.5768 Len2  4.42336 Len3  5.192326e+00
STAT_GEOG  ExpectLat 37.322323 Long 24.369553 Depth 5.663828
TRANSFORM  LAMBERT RefEllipsoid WGS-84  LatOrig 34.000000  LongOrig 17.000000  FirstStdParal 34.883300  SecondStdParal 41.766600  RotCW 0.000000
QML_OriginQuality  assocPhCt 18  usedPhCt 18  assocStaCt -1  usedStaCt 11  depthPhCt -1  stdErr 0.331568  azGap 261.725  secAzGap 261.725  gtLevel -  minDist 21.6343 maxDist 141.625 medDist 71.5612
QML_OriginUncertainty  horUnc -1  minHorUnc 2.37072  maxHorUnc 4.15124  azMaxHorUnc 88.1974
QML_ConfidenceEllipsoid  semiMajorAxisLength 5.19233  semiMinorAxisLength 2.91519  semiIntermediateAxisLength 4.42336  majorAxisPlunge -15.1979  majorAxisAzimuth 87.1799  majorAxisRotation 172.707
FOCALMECH  Hyp  37.326239 24.361909 5.015625 Mech  0 0 0 mf  0 nObs 0
PHASE ID Ins Cmp On Pha  FM Date     HrMn   Sec     Err  ErrMag    Coda      Amp       Per  >   TTpred    Res       Weight    StaLoc(X  Y         Z)        SDist    SAzim  RAz  RDip RQual    Tcorr 
SERI   ?    Z    ? P      ? 20030517 0419   52.0300 GAU  0.00e+00 -1.00e+00 -1.00e+00 -1.00e+00 >    3.9062   -0.1176    1.3303  663.5170  377.3478   -0.4670   21.6343 143.76 323.8 102.2  9     0.0006
SERI   ?    N    ? S      ? 20030517 0419   55.2730 GAU  0.00e+00 -1.00e+00 -1.00e+00 -1.00e+00 >    7.1520    0.1172    1.3888  663.5170  377.3478   -0.4670   21.6343 143.76 323.8  88.3  9    -0.2369
SIFN   ?    Z    ? P      ? 20030517 0419   57.3580 GAU  0.00e+00 -1.00e+00 -1.00e+00 -1.00e+00 >    9.2133   -0.1377    1.3066  686.6747  355.9118   -0.2220   52.9552 137.25 317.2  85.2  9     0.0416
SIFN   ?    N    ? S      ? 20030517 0420    4.6380 GAU  0.00e+00 -1.00e+00 -1.00e+00 -1.00e+00 >   16.3852    0.3335    1.1642  686.6747  355.9118   -0.2220   52.9552 137.25 317.2  78.5  8    -0.3215
KIMO   ?    Z    ? P      ? 20030517 0419   59.1030 GAU  0.00e+00 -1.00e+00 -1.00e+00 -1.00e+00 >   10.7849    0.0039    1.4006  673.9456  337.0638   -0.1610   62.2268 158.09 338.1  84.6  9     0.0734
KIMO   ?    N    ? S      ? 20030517 0420    7.3110 GAU  0.00e+00 -1.00e+00 -1.00e+00 -1.00e+00 >   19.1199    0.2089    1.2114  673.9456  337.0638   -0.1610   62.2268 158.09 338.1  78.4  8    -0.2586
MILN   ?    Z    ? P      ? 20030517 0419   59.8860 GAU  0.00e+00 -1.00e+00 -1.00e+00 -1.00e+00 >   10.9215    0.5349    0.9029  661.7760  332.7377   -0.1480   63.0348 169.90 349.9  84.6  9     0.1889
MILN   ?    N    ? S      ? 20030517 0420    6.7900 GAU  0.00e+00 -1.00e+00 -1.00e+00 -1.00e+00 >   19.3572   -0.7487    0.5018  661.7760  332.7377   -0.1480   63.0348 169.90 349.9  78.4  8    -0.0592
MILO   ?    Z    ? P      ? 20030517 0420    1.4040 GAU  0.00e+00 -1.00e+00 -1.00e+00 -1.00e+00 >   12.2041    0.7937    0.5448  659.7307  324.7908   -0.1760   70.5824 172.67 352.7  84.5  9     0.1654
MILO   ?    N    ? S      ? 20030517 0420    9.1420 GAU  0.00e+00 -1.00e+00 -1.00e+00 -1.00e+00 >   21.5940   -0.5001    0.7979  659.7307  324.7908   -0.1760   70.5824 172.67 352.7  78.3  8    -0.1927
MILS   ?    E    ? S      ? 20030517 0420    9.4330 GAU  0.00e+00 -1.00e+00 -1.00e+00 -1.00e+00 >   21.8820   -0.3673    0.9373  668.6265  325.5101   -0.1640   71.5612 165.51 345.5  78.3  8    -0.3224
PARO   ?    Z    ? P      ? 20030517 0420    1.5480 GAU  0.00e+00 -1.00e+00 -1.00e+00 -1.00e+00 >   13.1206    0.1413    1.3439  724.8810  378.1189   -0.0720   76.0062 102.68 282.7  84.4  9     0.0453
MYKO   ?    Z    ? P      ? 20030517 0420    3.7560 GAU  0.00e+00 -1.00e+00 -1.00e+00 -1.00e+00 >   15.7695   -0.3115    1.0333  738.9410  419.4329   -0.1500   91.5896  74.40 254.4  84.2  9     0.0572
MYKO   ?    N    ? S      ? 20030517 0420   13.9910 GAU  0.00e+00 -1.00e+00 -1.00e+00 -1.00e+00 >   27.8056   -1.9538    0.0404  738.9410  419.4329   -0.1500   91.5896  74.40 254.4  78.1  8    -0.1016
FOLE   ?    Z    ? P      ? 20030517 0420    4.7310 GAU  0.00e+00 -1.00e+00 -1.00e+00 -1.00e+00 >   15.9571    0.5007    0.9798  706.6447  320.9074   -0.2920   92.6628 142.88 322.9  84.2  9     0.0324
FOLE   ?    N    ? S      ? 20030517 0420   16.0800 GAU  0.00e+00 -1.00e+00 -1.00e+00 -1.00e+00 >   28.1413    0.0320    1.0556  706.6447  320.9074   -0.2920   92.6628 142.88 322.9  78.1  8    -0.3340
NEAK   ?    Z    ? P      ? 20030517 0420   12.3730 GAU  0.00e+00 -1.00e+00 -1.00e+00 -1.00e+00 >   23.5302    0.5097    0.9317  751.4711  301.5147   -0.1570  137.2985 132.80 312.8  84.0  9     0.0923
AMOW   ?    Z    ? P      ? 20030517 0420   12.5410 GAU  0.00e+00 -1.00e+00 -1.00e+00 -1.00e+00 >   24.2707    0.0037    1.1286  783.7378  346.1576   -0.3250  141.6249 110.09 290.1  80.2  7     0.0258
END_PHASE
END_NLLOC

