NLLOC "./loc/cyc.20030514.202130.grid0" "LOCATED" "Location completed."
SIGNATURE "Pratul Ranjan   obs:./obs/Seisgram_salo_0902_0503.pick   NLLoc:v7.00.00(27Oct2017)  run:01Aug2019 16h44m32"
COMMENT "Cyclades Events"
GRID  1900 900 80  10 10 0  1 1 1 PROB_DENSITY
SEARCH OCTREE nInitial 4000 nEvaluated 50008 smallestNodeSide 0.185449/0.087793/0.015625 oct_tree_integral 7.874733e+00 scatter_volume 7.874733e+00
HYPOCENTER  x 758.38 y 313.895 z 7.57031  OT 27.9826  ix -1 iy -1 iz -1 MAXIMUM_LIKELIHOOD
GEOGRAPHIC  OT 2003 05 14  20 21 27.982568  Lat 36.515551 Long 25.489488 Depth 7.570312
QUALITY  Pmax 5.33317e+32 MFmin 17.2755 MFmax 17.4238 RMS 0.133028 Nphs 14 Gap 120.448 Dist 10.8245 Mamp -9.90 0 Mdur -9.90 0
VPVSRATIO  VpVsRatio 2  Npair 7  Diff 4.791
STATISTICS  ExpectX 758.361 Y 313.873 Z 7.7641  CovXX 0.301182 XY -0.0561622 XZ -0.232689 YY 0.525003 YZ -0.733922 ZZ 4.16645 EllAz1  58.4377 Dip1  8.40843 Len1  0.893807 Az2  327.318 Dip2  7.53378 Len2  1.25434 Len3  3.905348e+00
STAT_GEOG  ExpectLat 36.515363 Long 25.489250 Depth 7.764097
TRANSFORM  LAMBERT RefEllipsoid WGS-84  LatOrig 34.000000  LongOrig 17.000000  FirstStdParal 34.883300  SecondStdParal 41.766600  RotCW 0.000000
QML_OriginQuality  assocPhCt 14  usedPhCt 14  assocStaCt -1  usedStaCt 7  depthPhCt -1  stdErr 0.133028  azGap 120.448  secAzGap 120.448  gtLevel -  minDist 10.8245 maxDist 52.2087 medDist 19.0111
QML_OriginUncertainty  horUnc -1  minHorUnc 0.81371  maxHorUnc 1.1127  azMaxHorUnc 166.675
QML_ConfidenceEllipsoid  semiMajorAxisLength 3.90535  semiMinorAxisLength 0.893807  semiIntermediateAxisLength 1.25434  majorAxisPlunge -78.6735  majorAxisAzimuth 15.9972  majorAxisRotation 309.606
FOCALMECH  Hyp  36.515551 25.489488 7.570312 Mech  0 0 0 mf  0 nObs 0
PHASE ID Ins Cmp On Pha  FM Date     HrMn   Sec     Err  ErrMag    Coda      Amp       Per  >   TTpred    Res       Weight    StaLoc(X  Y         Z)        SDist    SAzim  RAz  RDip RQual    Tcorr 
SANN   ?    Z    ? P      ? 20030514 2021   30.3220 GAU  0.00e+00 -1.00e+00 -1.00e+00 -1.00e+00 >    2.3047   -0.0257    1.1724  750.0761  306.9519   -0.1540   10.8245 230.10  50.1 123.1  9     0.0604
SANN   ?    E    ? S      ? 20030514 2021   32.1820 GAU  0.00e+00 -1.00e+00 -1.00e+00 -1.00e+00 >    4.2007    0.0130    1.1746  750.0761  306.9519   -0.1540   10.8245 230.10  50.1 119.3  9    -0.0143
NEAK   ?    Z    ? P      ? 20030514 2021   30.6580 GAU  0.00e+00 -1.00e+00 -1.00e+00 -1.00e+00 >    2.8036   -0.2205    0.9104  751.4711  301.5147   -0.1570   14.1781 209.16  29.2 116.0  9     0.0923
NEAK   ?    N    ? S      ? 20030514 2021   33.9660 GAU  0.00e+00 -1.00e+00 -1.00e+00 -1.00e+00 >    5.1049    0.6788    0.1170  751.4711  301.5147   -0.1570   14.1781 209.16  29.2 111.5  9     0.1997
THIR   ?    Z    ? P      ? 20030514 2021   31.3240 GAU  0.00e+00 -1.00e+00 -1.00e+00 -1.00e+00 >    3.1494    0.1551    1.0340  745.9182  303.2357   -0.1590   16.3992 229.46  49.5 112.6  9     0.0369
THIR   ?    N    ? S      ? 20030514 2021   33.5400 GAU  0.00e+00 -1.00e+00 -1.00e+00 -1.00e+00 >    5.7281   -0.0731    1.1447  745.9182  303.2357   -0.1590   16.3992 229.46  49.5 108.1  9    -0.0976
SANS   ?    Z    ? P      ? 20030514 2021   31.6610 GAU  0.00e+00 -1.00e+00 -1.00e+00 -1.00e+00 >    3.5615    0.0358    1.1673  751.9745  295.9960   -0.1030   19.0111 199.69  19.7 109.3  9     0.0812
SANS   ?    E    ? S      ? 20030514 2021   34.5440 GAU  0.00e+00 -1.00e+00 -1.00e+00 -1.00e+00 >    6.4642    0.1092    1.1026  751.9745  295.9960   -0.1030   19.0111 199.69  19.7 105.1  9    -0.0120
ANAF   ?    Z    ? P      ? 20030514 2021   33.5540 GAU  0.00e+00 -1.00e+00 -1.00e+00 -1.00e+00 >    5.5852    0.0530    1.1577  785.8920  299.1604   -0.3500   31.2092 118.17 298.2 101.1  9    -0.0668
ANAF   ?    N    ? S      ? 20030514 2021   37.5270 GAU  0.00e+00 -1.00e+00 -1.00e+00 -1.00e+00 >   10.0474   -0.1793    0.9933  785.8920  299.1604   -0.3500   31.2092 118.17 298.2  98.8  9    -0.3236
AMOW   ?    Z    ? P      ? 20030514 2021   35.4530 GAU  0.00e+00 -1.00e+00 -1.00e+00 -1.00e+00 >    7.2339    0.2107    0.9295  783.7378  346.1576   -0.3250   41.0348  38.17 218.2  97.8  9     0.0258
AMOW   ?    N    ? S      ? 20030514 2021   40.8090 GAU  0.00e+00 -1.00e+00 -1.00e+00 -1.00e+00 >   12.9301   -0.0821    1.0337  783.7378  346.1576   -0.3250   41.0348  38.17 218.2  96.5  9    -0.0216
FOLE   ?    Z    ? P      ? 20030514 2021   37.0900 GAU  0.00e+00 -1.00e+00 -1.00e+00 -1.00e+00 >    9.1189   -0.0439    1.1650  706.6447  320.9074   -0.2920   52.2087 277.72  97.7  95.8  9     0.0324
FOLE   ?    E    ? S      ? 20030514 2021   43.7410 GAU  0.00e+00 -1.00e+00 -1.00e+00 -1.00e+00 >   16.2180   -0.1255    0.8979  706.6447  320.9074   -0.2920   52.2087 277.72  97.7  95.0  9    -0.3340
END_PHASE
END_NLLOC

NLLOC "./loc/cyc.20020925.210146.grid0" "LOCATED" "Location completed."
SIGNATURE "Pratul Ranjan   obs:./obs/Seisgram_salo_0902_0503.pick   NLLoc:v7.00.00(27Oct2017)  run:01Aug2019 16h38m57"
COMMENT "Cyclades Events"
GRID  1900 900 80  10 10 0  1 1 1 PROB_DENSITY
SEARCH OCTREE nInitial 4000 nEvaluated 50008 smallestNodeSide 0.741797/0.351172/0.062500 oct_tree_integral 1.048010e+02 scatter_volume 1.044037e+02
HYPOCENTER  x 705.064 y 363.63 z 10.1875  OT 42.6948  ix -1 iy -1 iz -1 MAXIMUM_LIKELIHOOD
GEOGRAPHIC  OT 2002 09 25  21 01 42.694842  Lat 37.005335 Long 24.943458 Depth 10.187500
QUALITY  Pmax 2.51546e+17 MFmin 10.5918 MFmax 11.8074 RMS 0.216677 Nphs 10 Gap 213.961 Dist 19.9431 Mamp -9.90 0 Mdur -9.90 0
VPVSRATIO  VpVsRatio 2  Npair 4  Diff 3.854
STATISTICS  ExpectX 705.045 Y 363.42 Z 11.4565  CovXX 2.21519 XY -2.34061 XZ -5.50884 YY 7.69211 YZ 6.05268 ZZ 28.3434 EllAz1  78.3822 Dip1  8.64774 Len1  1.76111 Az2  351.069 Dip2  -17.1318 Len2  4.66741 Len3  1.049471e+01
STAT_GEOG  ExpectLat 37.003458 Long 24.943041 Depth 11.456521
TRANSFORM  LAMBERT RefEllipsoid WGS-84  LatOrig 34.000000  LongOrig 17.000000  FirstStdParal 34.883300  SecondStdParal 41.766600  RotCW 0.000000
QML_OriginQuality  assocPhCt 10  usedPhCt 10  assocStaCt -1  usedStaCt 6  depthPhCt -1  stdErr 0.216677  azGap 213.961  secAzGap 213.961  gtLevel -  minDist 19.9431 maxDist 80.591 medDist 48.0918
QML_OriginUncertainty  horUnc -1  minHorUnc 1.76288  maxHorUnc 4.4361  azMaxHorUnc 159.739
QML_ConfidenceEllipsoid  semiMajorAxisLength 10.4947  semiMinorAxisLength 1.76111  semiIntermediateAxisLength 4.66741  majorAxisPlunge -70.6872  majorAxisAzimuth 142.661  majorAxisRotation 213.159
FOCALMECH  Hyp  37.005335 24.943458 10.187500 Mech  0 0 0 mf  0 nObs 0
PHASE ID Ins Cmp On Pha  FM Date     HrMn   Sec     Err  ErrMag    Coda      Amp       Per  >   TTpred    Res       Weight    StaLoc(X  Y         Z)        SDist    SAzim  RAz  RDip RQual    Tcorr 
SIFN   ?    Z    ? P      ? 20020925 2101   46.6340 GAU  0.00e+00 -1.00e+00 -1.00e+00 -1.00e+00 >    3.8884    0.0091    1.5197  686.6747  355.9118   -0.2220   19.9431 247.23  67.2 115.5  9     0.0416
SIFN   ?    E    ? S      ? 20020925 2101   54.3260 GAU  0.00e+00 -1.00e+00 -1.00e+00 -1.00e+00 >    6.9958    4.9568    0.0000  686.6747  355.9118   -0.2220   19.9431 247.23  67.2 111.1  9    -0.3215
KIMO   ?    Z    ? P      ? 20020925 2101   49.9720 GAU  0.00e+00 -1.00e+00 -1.00e+00 -1.00e+00 >    7.2840   -0.0802    1.4614  673.9456  337.0638   -0.1610   40.9158 229.51  49.5 102.1  9     0.0734
FOLE   ?    Z    ? P      ? 20020925 2101   50.4010 GAU  0.00e+00 -1.00e+00 -1.00e+00 -1.00e+00 >    7.5959    0.0779    1.4749  706.6447  320.9074   -0.2920   42.7519 177.88 357.9 101.7  9     0.0324
SCHI   ?    Z    ? P      ? 20020925 2101   52.0560 GAU  0.00e+00 -1.00e+00 -1.00e+00 -1.00e+00 >    9.3742   -0.0502    1.4953  757.4791  353.2589   -0.1000   53.4316 101.19 281.2  98.9  9     0.0371
SCHI   ?    E    ? S      ? 20020925 2101   58.2180 GAU  0.00e+00 -1.00e+00 -1.00e+00 -1.00e+00 >   16.5937   -0.9613    0.2738  757.4791  353.2589   -0.1000   53.4316 101.19 281.2  91.8  9    -0.1092
ANID   ?    Z    ? P      ? 20020925 2101   56.2940 GAU  0.00e+00 -1.00e+00 -1.00e+00 -1.00e+00 >   13.4673    0.0368    1.3751  774.1589  328.1052   -0.1790   77.6928 117.21 297.2  96.0  9     0.0950
ANID   ?    E    ? S      ? 20020925 2102    5.4040 GAU  0.00e+00 -1.00e+00 -1.00e+00 -1.00e+00 >   23.6362   -0.9228    0.4081  774.1589  328.1052   -0.1790   77.6928 117.21 297.2  86.6  9    -0.0043
AMOW   ?    Z    ? P      ? 20020925 2101   56.9720 GAU  0.00e+00 -1.00e+00 -1.00e+00 -1.00e+00 >   13.9630    0.2883    0.9919  783.7378  346.1576   -0.3250   80.5910 102.52 282.5  95.8  9     0.0258
AMOW   ?    E    ? S      ? 20020925 2102    6.9880 GAU  0.00e+00 -1.00e+00 -1.00e+00 -1.00e+00 >   24.4967   -0.1819    0.9999  783.7378  346.1576   -0.3250   80.5910 102.52 282.5  86.5  9    -0.0216
END_PHASE
END_NLLOC

NLLOC "./loc/cyc.20021025.021822.grid0" "LOCATED" "Location completed."
SIGNATURE "Pratul Ranjan   obs:./obs/Seisgram_salo_0902_0503.pick   NLLoc:v7.00.00(27Oct2017)  run:01Aug2019 16h39m36"
COMMENT "Cyclades Events"
GRID  1900 900 80  10 10 0  1 1 1 PROB_DENSITY
SEARCH OCTREE nInitial 4000 nEvaluated 50016 smallestNodeSide 0.370898/0.175586/0.031250 oct_tree_integral 4.198462e+01 scatter_volume 4.130301e+01
HYPOCENTER  x 797.974 y 302.087 z 18.2656  OT 16.0659  ix -1 iy -1 iz -1 MAXIMUM_LIKELIHOOD
GEOGRAPHIC  OT 2002 10 25  02 18 16.065852  Lat 36.375856 Long 25.917294 Depth 18.265625
QUALITY  Pmax 5.37911e+42 MFmin 18.7378 MFmax 20.6098 RMS 0.253252 Nphs 18 Gap 205.303 Dist 35.2715 Mamp -9.90 0 Mdur -9.90 0
VPVSRATIO  VpVsRatio 2  Npair 8  Diff 8.265
STATISTICS  ExpectX 798.133 Y 302.103 Z 17.9033  CovXX 1.39971 XY -0.749811 XZ 0.440257 YY 2.29603 YZ 0.0278494 ZZ 5.40705 EllAz1  240.987 Dip1  5.0968 Len1  1.82058 Az2  331.34 Dip2  3.95735 Len2  3.09183 Len3  4.388497e+00
STAT_GEOG  ExpectLat 36.375855 Long 25.919081 Depth 17.903289
TRANSFORM  LAMBERT RefEllipsoid WGS-84  LatOrig 34.000000  LongOrig 17.000000  FirstStdParal 34.883300  SecondStdParal 41.766600  RotCW 0.000000
QML_OriginQuality  assocPhCt 18  usedPhCt 18  assocStaCt -1  usedStaCt 10  depthPhCt -1  stdErr 0.253252  azGap 205.303  secAzGap 205.303  gtLevel -  minDist 35.2715 maxDist 128.866 medDist 55.0627
QML_OriginUncertainty  horUnc -1  minHorUnc 1.49699  maxHorUnc 2.50185  azMaxHorUnc 150.433
QML_ConfidenceEllipsoid  semiMajorAxisLength 4.3885  semiMinorAxisLength 1.82058  semiIntermediateAxisLength 3.09183  majorAxisPlunge 83.5408  majorAxisAzimuth 99.0052  majorAxisRotation 307.132
FOCALMECH  Hyp  36.375856 25.917294 18.265625 Mech  0 0 0 mf  0 nObs 0
PHASE ID Ins Cmp On Pha  FM Date     HrMn   Sec     Err  ErrMag    Coda      Amp       Per  >   TTpred    Res       Weight    StaLoc(X  Y         Z)        SDist    SAzim  RAz  RDip RQual    Tcorr 
ANID   ?    Z    ? P      ? 20021025 0218   22.9800 GAU  0.00e+00 -1.00e+00 -1.00e+00 -1.00e+00 >    6.8300   -0.0109    1.2819  774.1589  328.1052   -0.1790   35.2715 317.53 137.5 116.1  9     0.0950
ANID   ?    N    ? S      ? 20021025 0218   28.0190 GAU  0.00e+00 -1.00e+00 -1.00e+00 -1.00e+00 >   12.0064   -0.0490    1.2386  774.1589  328.1052   -0.1790   35.2715 317.53 137.5 113.7  9    -0.0043
AMOW   ?    Z    ? P      ? 20021025 0218   24.7200 GAU  0.00e+00 -1.00e+00 -1.00e+00 -1.00e+00 >    8.5636    0.0647    1.2730  783.7378  346.1576   -0.3250   46.3127 342.10 162.1 110.3  9     0.0258
SANS   ?    Z    ? P      ? 20021025 0218   25.1830 GAU  0.00e+00 -1.00e+00 -1.00e+00 -1.00e+00 >    8.5624    0.4736    0.7237  751.9745  295.9960   -0.1030   46.4008 262.46  82.5 110.1  9     0.0812
SANS   ?    N    ? S      ? 20021025 0218   30.8450 GAU  0.00e+00 -1.00e+00 -1.00e+00 -1.00e+00 >   15.0210   -0.2299    1.0556  751.9745  295.9960   -0.1030   46.4008 262.46  82.5 106.8  9    -0.0120
SANN   ?    Z    ? P      ? 20021025 0218   25.3050 GAU  0.00e+00 -1.00e+00 -1.00e+00 -1.00e+00 >    8.8442    0.3346    0.9708  750.0761  306.9519   -0.1540   48.1440 275.80  95.8 109.4  9     0.0604
SANN   ?    E    ? S      ? 20021025 0218   31.2540 GAU  0.00e+00 -1.00e+00 -1.00e+00 -1.00e+00 >   15.5129   -0.3105    0.9599  750.0761  306.9519   -0.1540   48.1440 275.80  95.8 105.8  9    -0.0143
ASTY   ?    Z    ? P      ? 20021025 0218   24.5350 GAU  0.00e+00 -1.00e+00 -1.00e+00 -1.00e+00 >    9.0742   -0.5409    0.5807  839.6137  328.9697   -0.1920   49.5637  57.15 237.2 108.9  9    -0.0642
ASTY   ?    N    ? S      ? 20021025 0218   32.2450 GAU  0.00e+00 -1.00e+00 -1.00e+00 -1.00e+00 >   15.9141    0.2771    1.0111  839.6137  328.9697   -0.1920   49.5637  57.15 237.2 104.9  9    -0.0121
AMOE   ?    Z    ? P      ? 20021025 0218   26.7400 GAU  0.00e+00 -1.00e+00 -1.00e+00 -1.00e+00 >   10.8573   -0.2081    1.1263  797.7122  362.6484   -0.2100   60.5618 359.75 179.8 105.2  9     0.0250
AMOE   ?    N    ? S      ? 20021025 0218   35.1830 GAU  0.00e+00 -1.00e+00 -1.00e+00 -1.00e+00 >   19.0002    0.2493    0.9895  797.7122  362.6484   -0.2100   60.5618 359.75 179.8  96.2  8    -0.1323
SCHI   ?    Z    ? P      ? 20021025 0218   27.7480 GAU  0.00e+00 -1.00e+00 -1.00e+00 -1.00e+00 >   11.6200    0.0251    1.2555  757.4791  353.2589   -0.1000   65.2561 321.64 141.6 103.5  9     0.0371
SCHI   ?    N    ? S      ? 20021025 0218   36.2460 GAU  0.00e+00 -1.00e+00 -1.00e+00 -1.00e+00 >   20.2928   -0.0034    1.0594  757.4791  353.2589   -0.1000   65.2561 321.64 141.6  87.3  8    -0.1092
FOLE   ?    Z    ? P      ? 20021025 0218   32.5190 GAU  0.00e+00 -1.00e+00 -1.00e+00 -1.00e+00 >   16.2595    0.1612    1.1050  706.6447  320.9074   -0.2920   93.2480 281.64 101.6  86.2  9     0.0324
FOLE   ?    E    ? S      ? 20021025 0218   43.8280 GAU  0.00e+00 -1.00e+00 -1.00e+00 -1.00e+00 >   27.8127    0.2834    0.8255  706.6447  320.9074   -0.2920   93.2480 281.64 101.6  66.2 10    -0.3340
PARO   ?    Z    ? P      ? 20021025 0218   34.0240 GAU  0.00e+00 -1.00e+00 -1.00e+00 -1.00e+00 >   18.1445   -0.2317    1.0060  724.8810  378.1189   -0.0720  105.4674 316.13 136.1  54.2  9     0.0453
PARO   ?    E    ? S      ? 20021025 0218   47.3280 GAU  0.00e+00 -1.00e+00 -1.00e+00 -1.00e+00 >   31.0104    0.4052    0.7217  724.8810  378.1189   -0.0720  105.4674 316.13 136.1  65.4 10    -0.1535
KIMO   ?    Z    ? P      ? 20021025 0218   37.0070 GAU  0.00e+00 -1.00e+00 -1.00e+00 -1.00e+00 >   21.2633   -0.3956    0.8157  673.9456  337.0638   -0.1610  128.8656 285.75 105.7  51.7 10     0.0734
END_PHASE
END_NLLOC

NLLOC "./loc/cyc.20030303.044645.grid0" "LOCATED" "Location completed."
SIGNATURE "Pratul Ranjan   obs:./obs/Seisgram_salo_0902_0503.pick   NLLoc:v7.00.00(27Oct2017)  run:01Aug2019 16h41m42"
COMMENT "Cyclades Events"
GRID  1900 900 80  10 10 0  1 1 1 PROB_DENSITY
SEARCH OCTREE nInitial 4000 nEvaluated 50016 smallestNodeSide 0.370898/0.175586/0.031250 oct_tree_integral 2.411823e+01 scatter_volume 2.343745e+01
HYPOCENTER  x 766.447 y 332.464 z 10.8906  OT 40.9564  ix -1 iy -1 iz -1 MAXIMUM_LIKELIHOOD
GEOGRAPHIC  OT 2003 03 03  04 46 40.956378  Lat 36.675658 Long 25.598575 Depth 10.890625
QUALITY  Pmax 6.14316e+30 MFmin 14.8662 MFmax 15.9857 RMS 0.197974 Nphs 14 Gap 150.026 Dist 22.0565 Mamp -9.90 0 Mdur -9.90 0
VPVSRATIO  VpVsRatio 2  Npair 7  Diff 7.83
STATISTICS  ExpectX 766.342 Y 332.4 Z 10.1721  CovXX 0.712276 XY -0.0243662 XZ 1.4006 YY 0.720927 YZ 1.09088 ZZ 10.3446 EllAz1  231.808 Dip1  10.0976 Len1  1.1517 Az2  321.817 Dip2  0.0497142 Len2  1.61764 Len3  6.134520e+00
STAT_GEOG  ExpectLat 36.675175 Long 25.597335 Depth 10.172149
TRANSFORM  LAMBERT RefEllipsoid WGS-84  LatOrig 34.000000  LongOrig 17.000000  FirstStdParal 34.883300  SecondStdParal 41.766600  RotCW 0.000000
QML_OriginQuality  assocPhCt 14  usedPhCt 14  assocStaCt -1  usedStaCt 7  depthPhCt -1  stdErr 0.197974  azGap 150.026  secAzGap 150.026  gtLevel -  minDist 22.0565 maxDist 92.6161 medDist 60.909
QML_OriginUncertainty  horUnc -1  minHorUnc 1.26145  maxHorUnc 1.3058  azMaxHorUnc 140.033
QML_ConfidenceEllipsoid  semiMajorAxisLength 6.13452  semiMinorAxisLength 1.1517  semiIntermediateAxisLength 1.61764  majorAxisPlunge 79.9023  majorAxisAzimuth 52.0964  majorAxisRotation 270.266
FOCALMECH  Hyp  36.675658 25.598575 10.890625 Mech  0 0 0 mf  0 nObs 0
PHASE ID Ins Cmp On Pha  FM Date     HrMn   Sec     Err  ErrMag    Coda      Amp       Per  >   TTpred    Res       Weight    StaLoc(X  Y         Z)        SDist    SAzim  RAz  RDip RQual    Tcorr 
AMOW   ?    Z    ? P      ? 20030303 0446   45.2630 GAU  0.00e+00 -1.00e+00 -1.00e+00 -1.00e+00 >    4.2730    0.0078    1.3037  783.7378  346.1576   -0.3250   22.0565  51.62 231.6 115.1  9     0.0258
AMOW   ?    E    ? S      ? 20030303 0446   48.4520 GAU  0.00e+00 -1.00e+00 -1.00e+00 -1.00e+00 >    7.6617   -0.1445    1.2105  783.7378  346.1576   -0.3250   22.0565  51.62 231.6 109.9  9    -0.0216
SCHI   ?    Z    ? P      ? 20030303 0446   45.3360 GAU  0.00e+00 -1.00e+00 -1.00e+00 -1.00e+00 >    4.3472   -0.0046    1.3055  757.4791  353.2589   -0.1000   22.6468 336.67 156.7 114.0  9     0.0371
SCHI   ?    E    ? S      ? 20030303 0446   48.6880 GAU  0.00e+00 -1.00e+00 -1.00e+00 -1.00e+00 >    7.7865    0.0543    1.2814  757.4791  353.2589   -0.1000   22.6468 336.67 156.7 108.8  9    -0.1092
SANS   ?    Z    ? P      ? 20030303 0446   48.2470 GAU  0.00e+00 -1.00e+00 -1.00e+00 -1.00e+00 >    7.0287    0.1807    1.1085  751.9745  295.9960   -0.1030   39.2345 201.65  21.6 103.8  9     0.0812
SANS   ?    N    ? S      ? 20030303 0446   52.9470 GAU  0.00e+00 -1.00e+00 -1.00e+00 -1.00e+00 >   12.5025   -0.4999    0.6027  751.9745  295.9960   -0.1030   39.2345 201.65  21.6  97.4  9    -0.0120
FOLE   ?    Z    ? P      ? 20030303 0446   51.6160 GAU  0.00e+00 -1.00e+00 -1.00e+00 -1.00e+00 >   10.6571   -0.0299    1.2837  706.6447  320.9074   -0.2920   60.9090 259.06  79.1  98.6  9     0.0324
FOLE   ?    E    ? S      ? 20030303 0446   59.3400 GAU  0.00e+00 -1.00e+00 -1.00e+00 -1.00e+00 >   18.7975   -0.0798    1.0284  706.6447  320.9074   -0.2920   60.9090 259.06  79.1  93.0  9    -0.3340
PARO   ?    Z    ? P      ? 20030303 0446   51.7860 GAU  0.00e+00 -1.00e+00 -1.00e+00 -1.00e+00 >   10.7875   -0.0032    1.2808  724.8810  378.1189   -0.0720   61.7428 317.68 137.7  98.3  9     0.0453
PARO   ?    E    ? S      ? 20030303 0446   59.3810 GAU  0.00e+00 -1.00e+00 -1.00e+00 -1.00e+00 >   19.0075   -0.4294    0.7510  724.8810  378.1189   -0.0720   61.7428 317.68 137.7  92.8  9    -0.1535
MYKO   ?    Z    ? P      ? 20030303 0446   57.3680 GAU  0.00e+00 -1.00e+00 -1.00e+00 -1.00e+00 >   15.7637    0.5908    0.4116  738.9410  419.4329   -0.1500   91.2155 342.45 162.4  95.5  9     0.0572
MYKO   ?    E    ? S      ? 20030303 0447    8.1080 GAU  0.00e+00 -1.00e+00 -1.00e+00 -1.00e+00 >   27.5568   -0.3036    0.7618  738.9410  419.4329   -0.1500   91.2155 342.45 162.4  91.3  9    -0.1016
KIMO   ?    Z    ? P      ? 20030303 0446   57.2450 GAU  0.00e+00 -1.00e+00 -1.00e+00 -1.00e+00 >   16.0010    0.2142    0.9641  673.9456  337.0638   -0.1610   92.6161 272.85  92.8  95.4  9     0.0734
KIMO   ?    N    ? S      ? 20030303 0447    8.2640 GAU  0.00e+00 -1.00e+00 -1.00e+00 -1.00e+00 >   27.9643   -0.3980    0.7064  673.9456  337.0638   -0.1610   92.6161 272.85  92.8  91.2  9    -0.2586
END_PHASE
END_NLLOC

